<?xml version='1.0' encoding='UTF-8'?>
<gpx xmlns="http://www.topografix.com/GPX/1/1" version="1.1" creator="merge.py"><trk><name>day3-prati-vizzavona</name><trkseg><trkpt lat="42.008547" lon="9.218225"><ele>1810.8</ele></trkpt>
      <trkpt lat="42.008627" lon="9.218467"><ele>1809.4</ele></trkpt>
      <trkpt lat="42.008754" lon="9.218454"><ele>1812.6</ele></trkpt>
      <trkpt lat="42.008846" lon="9.218168"><ele>1818.9</ele></trkpt>
      <trkpt lat="42.008938" lon="9.218167"><ele>1821.7</ele></trkpt>
      <trkpt lat="42.009081" lon="9.218144"><ele>1826.7</ele></trkpt>
      <trkpt lat="42.009188" lon="9.218229"><ele>1829.1</ele></trkpt>
      <trkpt lat="42.009286" lon="9.218232"><ele>1832.3</ele></trkpt>
      <trkpt lat="42.009333" lon="9.218148"><ele>1835.0</ele></trkpt>
      <trkpt lat="42.009585" lon="9.218288"><ele>1842.5</ele></trkpt>
      <trkpt lat="42.009718" lon="9.218300"><ele>1847.1</ele></trkpt>
      <trkpt lat="42.010091" lon="9.218400"><ele>1856.3</ele></trkpt>
      <trkpt lat="42.010181" lon="9.218522"><ele>1856.7</ele></trkpt>
      <trkpt lat="42.010245" lon="9.218479"><ele>1858.1</ele></trkpt>
      <trkpt lat="42.010391" lon="9.218578"><ele>1858.6</ele></trkpt>
      <trkpt lat="42.010755" lon="9.218692"><ele>1860.1</ele></trkpt>
      <trkpt lat="42.011044" lon="9.218645"><ele>1861.7</ele></trkpt>
      <trkpt lat="42.011384" lon="9.218570"><ele>1862.5</ele></trkpt>
      <trkpt lat="42.011761" lon="9.218657"><ele>1860.1</ele></trkpt>
      <trkpt lat="42.012555" lon="9.218996"><ele>1853.7</ele></trkpt>
      <trkpt lat="42.012860" lon="9.218987"><ele>1853.0</ele></trkpt>
      <trkpt lat="42.013244" lon="9.219056"><ele>1851.6</ele></trkpt>
      <trkpt lat="42.013458" lon="9.219151"><ele>1849.5</ele></trkpt>
      <trkpt lat="42.013687" lon="9.219218"><ele>1847.9</ele></trkpt>
      <trkpt lat="42.013904" lon="9.219237"><ele>1847.6</ele></trkpt>
      <trkpt lat="42.014171" lon="9.219437"><ele>1845.6</ele></trkpt>
      <trkpt lat="42.014398" lon="9.219565"><ele>1845.3</ele></trkpt>
      <trkpt lat="42.014627" lon="9.219586"><ele>1847.1</ele></trkpt>
      <trkpt lat="42.014799" lon="9.219658"><ele>1847.8</ele></trkpt>
      <trkpt lat="42.014964" lon="9.219787"><ele>1847.6</ele></trkpt>
      <trkpt lat="42.015386" lon="9.219894"><ele>1849.5</ele></trkpt>
      <trkpt lat="42.015585" lon="9.220002"><ele>1849.0</ele></trkpt>
      <trkpt lat="42.016109" lon="9.220161"><ele>1849.4</ele></trkpt>
      <trkpt lat="42.016613" lon="9.220415"><ele>1850.5</ele></trkpt>
      <trkpt lat="42.016900" lon="9.220593"><ele>1849.5</ele></trkpt>
      <trkpt lat="42.017265" lon="9.220595"><ele>1848.7</ele></trkpt>
      <trkpt lat="42.017897" lon="9.220540"><ele>1842.4</ele></trkpt>
      <trkpt lat="42.018018" lon="9.220490"><ele>1841.4</ele></trkpt>
      <trkpt lat="42.018509" lon="9.219645"><ele>1826.5</ele></trkpt>
      <trkpt lat="42.018447" lon="9.219555"><ele>1823.7</ele></trkpt>
      <trkpt lat="42.018641" lon="9.219327"><ele>1816.6</ele></trkpt>
      <trkpt lat="42.018829" lon="9.219005"><ele>1807.9</ele></trkpt>
      <trkpt lat="42.018664" lon="9.218932"><ele>1801.5</ele></trkpt>
      <trkpt lat="42.018690" lon="9.218874"><ele>1799.7</ele></trkpt>
      <trkpt lat="42.018559" lon="9.218831"><ele>1796.0</ele></trkpt>
      <trkpt lat="42.018600" lon="9.218690"><ele>1791.0</ele></trkpt>
      <trkpt lat="42.018534" lon="9.218650"><ele>1788.7</ele></trkpt>
      <trkpt lat="42.018626" lon="9.218464"><ele>1782.9</ele></trkpt>
      <trkpt lat="42.018527" lon="9.218410"><ele>1779.2</ele></trkpt>
      <trkpt lat="42.018590" lon="9.218258"><ele>1774.0</ele></trkpt>
      <trkpt lat="42.018516" lon="9.218265"><ele>1773.2</ele></trkpt>
      <trkpt lat="42.018527" lon="9.218134"><ele>1768.1</ele></trkpt>
      <trkpt lat="42.018848" lon="9.217517"><ele>1756.8</ele></trkpt>
      <trkpt lat="42.018586" lon="9.217465"><ele>1745.8</ele></trkpt>
      <trkpt lat="42.018617" lon="9.217374"><ele>1743.6</ele></trkpt>
      <trkpt lat="42.018419" lon="9.217324"><ele>1736.9</ele></trkpt>
      <trkpt lat="42.018507" lon="9.217182"><ele>1733.9</ele></trkpt>
      <trkpt lat="42.018397" lon="9.217108"><ele>1728.7</ele></trkpt>
      <trkpt lat="42.018617" lon="9.216862"><ele>1725.2</ele></trkpt>
      <trkpt lat="42.018605" lon="9.216658"><ele>1717.2</ele></trkpt>
      <trkpt lat="42.018789" lon="9.215910"><ele>1696.8</ele></trkpt>
      <trkpt lat="42.018916" lon="9.215738"><ele>1696.4</ele></trkpt>
      <trkpt lat="42.019300" lon="9.214621"><ele>1676.0</ele></trkpt>
      <trkpt lat="42.019297" lon="9.214485"><ele>1671.6</ele></trkpt>
      <trkpt lat="42.019405" lon="9.214369"><ele>1672.6</ele></trkpt>
      <trkpt lat="42.019576" lon="9.213917"><ele>1666.7</ele></trkpt>
      <trkpt lat="42.019487" lon="9.213721"><ele>1658.9</ele></trkpt>
      <trkpt lat="42.019797" lon="9.212954"><ele>1650.7</ele></trkpt>
      <trkpt lat="42.019801" lon="9.212528"><ele>1640.8</ele></trkpt>
      <trkpt lat="42.019913" lon="9.212252"><ele>1636.5</ele></trkpt>
      <trkpt lat="42.020097" lon="9.212138"><ele>1635.6</ele></trkpt>
      <trkpt lat="42.020111" lon="9.212009"><ele>1633.3</ele></trkpt>
      <trkpt lat="42.020180" lon="9.211932"><ele>1632.1</ele></trkpt>
      <trkpt lat="42.020188" lon="9.211638"><ele>1627.1</ele></trkpt>
      <trkpt lat="42.020343" lon="9.211383"><ele>1622.2</ele></trkpt>
      <trkpt lat="42.020598" lon="9.210777"><ele>1610.3</ele></trkpt>
      <trkpt lat="42.020946" lon="9.210373"><ele>1596.6</ele></trkpt>
      <trkpt lat="42.021170" lon="9.209719"><ele>1578.7</ele></trkpt>
      <trkpt lat="42.021414" lon="9.209426"><ele>1563.3</ele></trkpt>
      <trkpt lat="42.021628" lon="9.209484"><ele>1555.9</ele></trkpt>
      <trkpt lat="42.022109" lon="9.209023"><ele>1528.3</ele></trkpt>
      <trkpt lat="42.022486" lon="9.209584"><ele>1524.9</ele></trkpt>
      <trkpt lat="42.022816" lon="9.210054"><ele>1521.8</ele></trkpt>
      <trkpt lat="42.023339" lon="9.210242"><ele>1514.8</ele></trkpt>
      <trkpt lat="42.023572" lon="9.209930"><ele>1507.8</ele></trkpt>
      <trkpt lat="42.023887" lon="9.209924"><ele>1505.2</ele></trkpt>
      <trkpt lat="42.024053" lon="9.209806"><ele>1502.4</ele></trkpt>
      <trkpt lat="42.024173" lon="9.209784"><ele>1501.3</ele></trkpt>
      <trkpt lat="42.024339" lon="9.209933"><ele>1502.3</ele></trkpt>
      <trkpt lat="42.024447" lon="9.210152"><ele>1505.2</ele></trkpt>
      <trkpt lat="42.024590" lon="9.210139"><ele>1504.1</ele></trkpt>
      <trkpt lat="42.024689" lon="9.210075"><ele>1502.2</ele></trkpt>
      <trkpt lat="42.024797" lon="9.209867"><ele>1497.6</ele></trkpt>
      <trkpt lat="42.024991" lon="9.209608"><ele>1492.1</ele></trkpt>
      <trkpt lat="42.025278" lon="9.209361"><ele>1487.9</ele></trkpt>
      <trkpt lat="42.025302" lon="9.209312"><ele>1487.1</ele></trkpt>
      <trkpt lat="42.025585" lon="9.209196"><ele>1486.6</ele></trkpt>
      <trkpt lat="42.025797" lon="9.209183"><ele>1488.8</ele></trkpt>
      <trkpt lat="42.025906" lon="9.209109"><ele>1489.3</ele></trkpt>
      <trkpt lat="42.025853" lon="9.208376"><ele>1477.6</ele></trkpt>
      <trkpt lat="42.026269" lon="9.208005"><ele>1481.2</ele></trkpt>
      <trkpt lat="42.026618" lon="9.207135"><ele>1481.4</ele></trkpt>
      <trkpt lat="42.026948" lon="9.206866"><ele>1485.8</ele></trkpt>
      <trkpt lat="42.026990" lon="9.206701"><ele>1485.0</ele></trkpt>
      <trkpt lat="42.027150" lon="9.206559"><ele>1485.8</ele></trkpt>
      <trkpt lat="42.027262" lon="9.206396"><ele>1486.1</ele></trkpt>
      <trkpt lat="42.027285" lon="9.206296"><ele>1486.1</ele></trkpt>
      <trkpt lat="42.027244" lon="9.206199"><ele>1485.7</ele></trkpt>
      <trkpt lat="42.027188" lon="9.206133"><ele>1485.3</ele></trkpt>
      <trkpt lat="42.027130" lon="9.205917"><ele>1485.4</ele></trkpt>
      <trkpt lat="42.026598" lon="9.205818"><ele>1483.7</ele></trkpt>
      <trkpt lat="42.026395" lon="9.205524"><ele>1484.3</ele></trkpt>
      <trkpt lat="42.026388" lon="9.205277"><ele>1485.4</ele></trkpt>
      <trkpt lat="42.026219" lon="9.204886"><ele>1483.8</ele></trkpt>
      <trkpt lat="42.026151" lon="9.204883"><ele>1482.7</ele></trkpt>
      <trkpt lat="42.026122" lon="9.204574"><ele>1481.4</ele></trkpt>
      <trkpt lat="42.026171" lon="9.204517"><ele>1482.0</ele></trkpt>
      <trkpt lat="42.026179" lon="9.204206"><ele>1480.3</ele></trkpt>
      <trkpt lat="42.026376" lon="9.203729"><ele>1479.1</ele></trkpt>
      <trkpt lat="42.026381" lon="9.203406"><ele>1475.1</ele></trkpt>
      <trkpt lat="42.026557" lon="9.202889"><ele>1468.9</ele></trkpt>
      <trkpt lat="42.026532" lon="9.202689"><ele>1464.9</ele></trkpt>
      <trkpt lat="42.026647" lon="9.202459"><ele>1461.8</ele></trkpt>
      <trkpt lat="42.026799" lon="9.202236"><ele>1459.8</ele></trkpt>
      <trkpt lat="42.026974" lon="9.201981"><ele>1458.9</ele></trkpt>
      <trkpt lat="42.026931" lon="9.201507"><ele>1454.0</ele></trkpt>
      <trkpt lat="42.026761" lon="9.201069"><ele>1448.3</ele></trkpt>
      <trkpt lat="42.026529" lon="9.200882"><ele>1443.5</ele></trkpt>
      <trkpt lat="42.026482" lon="9.200807"><ele>1442.3</ele></trkpt>
      <trkpt lat="42.026320" lon="9.200773"><ele>1439.7</ele></trkpt>
      <trkpt lat="42.026217" lon="9.200674"><ele>1437.2</ele></trkpt>
      <trkpt lat="42.025841" lon="9.200032"><ele>1422.5</ele></trkpt>
      <trkpt lat="42.025492" lon="9.199690"><ele>1411.4</ele></trkpt>
      <trkpt lat="42.025111" lon="9.199409"><ele>1398.8</ele></trkpt>
      <trkpt lat="42.024716" lon="9.199322"><ele>1390.3</ele></trkpt>
      <trkpt lat="42.024185" lon="9.199178"><ele>1377.8</ele></trkpt>
      <trkpt lat="42.024123" lon="9.199017"><ele>1371.8</ele></trkpt>
      <trkpt lat="42.024182" lon="9.198463"><ele>1355.7</ele></trkpt>
      <trkpt lat="42.024350" lon="9.197946"><ele>1342.7</ele></trkpt>
      <trkpt lat="42.024484" lon="9.197767"><ele>1337.6</ele></trkpt>
      <trkpt lat="42.024842" lon="9.197677"><ele>1333.4</ele></trkpt>
      <trkpt lat="42.025318" lon="9.197593"><ele>1329.0</ele></trkpt>
      <trkpt lat="42.025790" lon="9.197280"><ele>1321.1</ele></trkpt>
      <trkpt lat="42.025922" lon="9.197136"><ele>1318.0</ele></trkpt>
      <trkpt lat="42.026308" lon="9.196757"><ele>1313.2</ele></trkpt>
      <trkpt lat="42.026702" lon="9.196241"><ele>1306.2</ele></trkpt>
      <trkpt lat="42.027656" lon="9.195391"><ele>1302.1</ele></trkpt>
      <trkpt lat="42.028248" lon="9.194930"><ele>1292.7</ele></trkpt>
      <trkpt lat="42.028197" lon="9.194809"><ele>1291.1</ele></trkpt>
      <trkpt lat="42.028082" lon="9.194659"><ele>1288.5</ele></trkpt>
      <trkpt lat="42.028030" lon="9.194359"><ele>1284.8</ele></trkpt>
      <trkpt lat="42.028106" lon="9.194068"><ele>1283.1</ele></trkpt>
      <trkpt lat="42.028303" lon="9.193619"><ele>1282.3</ele></trkpt>
      <trkpt lat="42.028633" lon="9.193142"><ele>1283.6</ele></trkpt>
      <trkpt lat="42.028999" lon="9.192195"><ele>1285.4</ele></trkpt>
      <trkpt lat="42.029184" lon="9.191157"><ele>1293.0</ele></trkpt>
      <trkpt lat="42.029148" lon="9.190831"><ele>1294.1</ele></trkpt>
      <trkpt lat="42.028996" lon="9.190549"><ele>1292.0</ele></trkpt>
      <trkpt lat="42.028835" lon="9.190142"><ele>1288.2</ele></trkpt>
      <trkpt lat="42.027962" lon="9.187048"><ele>1297.2</ele></trkpt>
      <trkpt lat="42.027342" lon="9.185235"><ele>1316.3</ele></trkpt>
      <trkpt lat="42.027038" lon="9.184174"><ele>1326.9</ele></trkpt>
      <trkpt lat="42.027015" lon="9.183485"><ele>1334.5</ele></trkpt>
      <trkpt lat="42.027173" lon="9.182699"><ele>1345.4</ele></trkpt>
      <trkpt lat="42.027345" lon="9.181831"><ele>1360.2</ele></trkpt>
      <trkpt lat="42.027397" lon="9.181193"><ele>1370.2</ele></trkpt>
      <trkpt lat="42.027337" lon="9.180780"><ele>1372.0</ele></trkpt>
      <trkpt lat="42.027535" lon="9.179637"><ele>1386.6</ele></trkpt>
      <trkpt lat="42.027265" lon="9.178853"><ele>1385.1</ele></trkpt>
      <trkpt lat="42.027186" lon="9.178071"><ele>1387.2</ele></trkpt>
      <trkpt lat="42.027361" lon="9.176740"><ele>1397.9</ele></trkpt>
      <trkpt lat="42.027507" lon="9.175356"><ele>1409.0</ele></trkpt>
      <trkpt lat="42.027653" lon="9.174621"><ele>1414.5</ele></trkpt>
      <trkpt lat="42.027683" lon="9.173799"><ele>1413.7</ele></trkpt>
      <trkpt lat="42.027401" lon="9.172471"><ele>1417.4</ele></trkpt>
      <trkpt lat="42.027345" lon="9.172314"><ele>1417.8</ele></trkpt>
      <trkpt lat="42.027320" lon="9.172031"><ele>1417.9</ele></trkpt>
      <trkpt lat="42.027270" lon="9.171741"><ele>1419.3</ele></trkpt>
      <trkpt lat="42.027136" lon="9.171474"><ele>1423.1</ele></trkpt>
      <trkpt lat="42.027101" lon="9.171125"><ele>1425.7</ele></trkpt>
      <trkpt lat="42.027284" lon="9.170805"><ele>1421.6</ele></trkpt>
      <trkpt lat="42.027336" lon="9.170496"><ele>1419.7</ele></trkpt>
      <trkpt lat="42.027177" lon="9.169516"><ele>1423.3</ele></trkpt>
      <trkpt lat="42.027229" lon="9.168938"><ele>1417.0</ele></trkpt>
      <trkpt lat="42.027075" lon="9.168057"><ele>1428.0</ele></trkpt>
      <trkpt lat="42.027260" lon="9.167681"><ele>1417.1</ele></trkpt>
      <trkpt lat="42.027288" lon="9.167490"><ele>1415.5</ele></trkpt>
      <trkpt lat="42.027275" lon="9.166065"><ele>1412.0</ele></trkpt>
      <trkpt lat="42.027151" lon="9.164861"><ele>1410.5</ele></trkpt>
      <trkpt lat="42.027236" lon="9.164172"><ele>1403.1</ele></trkpt>
      <trkpt lat="42.027241" lon="9.163875"><ele>1402.2</ele></trkpt>
      <trkpt lat="42.027410" lon="9.163658"><ele>1398.7</ele></trkpt>
      <trkpt lat="42.027444" lon="9.163385"><ele>1399.2</ele></trkpt>
      <trkpt lat="42.027444" lon="9.162734"><ele>1403.4</ele></trkpt>
      <trkpt lat="42.027485" lon="9.162386"><ele>1404.6</ele></trkpt>
      <trkpt lat="42.027457" lon="9.162309"><ele>1405.8</ele></trkpt>
      <trkpt lat="42.027281" lon="9.161605"><ele>1413.4</ele></trkpt>
      <trkpt lat="42.027087" lon="9.161164"><ele>1418.4</ele></trkpt>
      <trkpt lat="42.026591" lon="9.160417"><ele>1428.9</ele></trkpt>
      <trkpt lat="42.026530" lon="9.160395"><ele>1430.8</ele></trkpt>
      <trkpt lat="42.026504" lon="9.160091"><ele>1430.5</ele></trkpt>
      <trkpt lat="42.026590" lon="9.159938"><ele>1428.3</ele></trkpt>
      <trkpt lat="42.026631" lon="9.159866"><ele>1427.8</ele></trkpt>
      <trkpt lat="42.026761" lon="9.159792"><ele>1427.0</ele></trkpt>
      <trkpt lat="42.026847" lon="9.159778"><ele>1427.3</ele></trkpt>
      <trkpt lat="42.027009" lon="9.159842"><ele>1426.0</ele></trkpt>
      <trkpt lat="42.027139" lon="9.159604"><ele>1428.3</ele></trkpt>
      <trkpt lat="42.027289" lon="9.159485"><ele>1431.8</ele></trkpt>
      <trkpt lat="42.027418" lon="9.159493"><ele>1433.9</ele></trkpt>
      <trkpt lat="42.027536" lon="9.159365"><ele>1438.5</ele></trkpt>
      <trkpt lat="42.027754" lon="9.159378"><ele>1442.9</ele></trkpt>
      <trkpt lat="42.028018" lon="9.159631"><ele>1444.1</ele></trkpt>
      <trkpt lat="42.028158" lon="9.160096"><ele>1438.2</ele></trkpt>
      <trkpt lat="42.028224" lon="9.160493"><ele>1432.0</ele></trkpt>
      <trkpt lat="42.028262" lon="9.160741"><ele>1428.1</ele></trkpt>
      <trkpt lat="42.028355" lon="9.160790"><ele>1429.3</ele></trkpt>
      <trkpt lat="42.028471" lon="9.161236"><ele>1423.9</ele></trkpt>
      <trkpt lat="42.028562" lon="9.161369"><ele>1423.2</ele></trkpt>
      <trkpt lat="42.028597" lon="9.161727"><ele>1417.7</ele></trkpt>
      <trkpt lat="42.028723" lon="9.161930"><ele>1417.3</ele></trkpt>
      <trkpt lat="42.028885" lon="9.162077"><ele>1419.9</ele></trkpt>
      <trkpt lat="42.029051" lon="9.162194"><ele>1424.2</ele></trkpt>
      <trkpt lat="42.029366" lon="9.163060"><ele>1428.3</ele></trkpt>
      <trkpt lat="42.029566" lon="9.163227"><ele>1438.7</ele></trkpt>
      <trkpt lat="42.029804" lon="9.163458"><ele>1451.9</ele></trkpt>
      <trkpt lat="42.029655" lon="9.163718"><ele>1440.7</ele></trkpt>
      <trkpt lat="42.029734" lon="9.164333"><ele>1442.9</ele></trkpt>
      <trkpt lat="42.029787" lon="9.164805"><ele>1444.4</ele></trkpt>
      <trkpt lat="42.029897" lon="9.165167"><ele>1449.8</ele></trkpt>
      <trkpt lat="42.030094" lon="9.165598"><ele>1459.9</ele></trkpt>
      <trkpt lat="42.030459" lon="9.166514"><ele>1473.9</ele></trkpt>
      <trkpt lat="42.030470" lon="9.166265"><ele>1478.4</ele></trkpt>
      <trkpt lat="42.030375" lon="9.165868"><ele>1476.4</ele></trkpt>
      <trkpt lat="42.030466" lon="9.165539"><ele>1484.4</ele></trkpt>
      <trkpt lat="42.030364" lon="9.165298"><ele>1478.5</ele></trkpt>
      <trkpt lat="42.030439" lon="9.165070"><ele>1483.6</ele></trkpt>
      <trkpt lat="42.030420" lon="9.164887"><ele>1482.3</ele></trkpt>
      <trkpt lat="42.030620" lon="9.164423"><ele>1494.1</ele></trkpt>
      <trkpt lat="42.030716" lon="9.165002"><ele>1500.4</ele></trkpt>
      <trkpt lat="42.031279" lon="9.166011"><ele>1523.3</ele></trkpt>
      <trkpt lat="42.031413" lon="9.166259"><ele>1524.8</ele></trkpt>
      <trkpt lat="42.031464" lon="9.166229"><ele>1527.2</ele></trkpt>
      <trkpt lat="42.031489" lon="9.166038"><ele>1531.3</ele></trkpt>
      <trkpt lat="42.031482" lon="9.165779"><ele>1534.4</ele></trkpt>
      <trkpt lat="42.031439" lon="9.165470"><ele>1535.2</ele></trkpt>
      <trkpt lat="42.031456" lon="9.165132"><ele>1537.0</ele></trkpt>
      <trkpt lat="42.031521" lon="9.165158"><ele>1539.0</ele></trkpt>
      <trkpt lat="42.031737" lon="9.165792"><ele>1542.2</ele></trkpt>
      <trkpt lat="42.031935" lon="9.165851"><ele>1547.4</ele></trkpt>
      <trkpt lat="42.032158" lon="9.165790"><ele>1553.9</ele></trkpt>
      <trkpt lat="42.032279" lon="9.165921"><ele>1556.4</ele></trkpt>
      <trkpt lat="42.032399" lon="9.166106"><ele>1558.6</ele></trkpt>
      <trkpt lat="42.032636" lon="9.166106"><ele>1564.4</ele></trkpt>
      <trkpt lat="42.032785" lon="9.166046"><ele>1567.7</ele></trkpt>
      <trkpt lat="42.032939" lon="9.165910"><ele>1570.2</ele></trkpt>
      <trkpt lat="42.033096" lon="9.165733"><ele>1571.7</ele></trkpt>
      <trkpt lat="42.033154" lon="9.165637"><ele>1571.9</ele></trkpt>
      <trkpt lat="42.033218" lon="9.165630"><ele>1572.7</ele></trkpt>
      <trkpt lat="42.033284" lon="9.165667"><ele>1573.7</ele></trkpt>
      <trkpt lat="42.033315" lon="9.165711"><ele>1574.3</ele></trkpt>
      <trkpt lat="42.033397" lon="9.165934"><ele>1576.3</ele></trkpt>
      <trkpt lat="42.033397" lon="9.166122"><ele>1577.0</ele></trkpt>
      <trkpt lat="42.033681" lon="9.166686"><ele>1581.9</ele></trkpt>
      <trkpt lat="42.034292" lon="9.167788"><ele>1587.7</ele></trkpt>
      <trkpt lat="42.034525" lon="9.168053"><ele>1588.8</ele></trkpt>
      <trkpt lat="42.034729" lon="9.168196"><ele>1590.6</ele></trkpt>
      <trkpt lat="42.034928" lon="9.168159"><ele>1593.9</ele></trkpt>
      <trkpt lat="42.034916" lon="9.168403"><ele>1591.1</ele></trkpt>
      <trkpt lat="42.034988" lon="9.168653"><ele>1589.3</ele></trkpt>
      <trkpt lat="42.035153" lon="9.168833"><ele>1590.0</ele></trkpt>
      <trkpt lat="42.035490" lon="9.169014"><ele>1592.9</ele></trkpt>
      <trkpt lat="42.035820" lon="9.169196"><ele>1595.7</ele></trkpt>
      <trkpt lat="42.036324" lon="9.169495"><ele>1598.0</ele></trkpt>
      <trkpt lat="42.036906" lon="9.169754"><ele>1602.8</ele></trkpt>
      <trkpt lat="42.036955" lon="9.169916"><ele>1600.1</ele></trkpt>
      <trkpt lat="42.037566" lon="9.170172"><ele>1609.2</ele></trkpt>
      <trkpt lat="42.037672" lon="9.170370"><ele>1607.6</ele></trkpt>
      <trkpt lat="42.037989" lon="9.171385"><ele>1591.2</ele></trkpt>
      <trkpt lat="42.038159" lon="9.171753"><ele>1585.8</ele></trkpt>
      <trkpt lat="42.038623" lon="9.172197"><ele>1580.5</ele></trkpt>
      <trkpt lat="42.038747" lon="9.172221"><ele>1580.7</ele></trkpt>
      <trkpt lat="42.038983" lon="9.172113"><ele>1582.6</ele></trkpt>
      <trkpt lat="42.039172" lon="9.172301"><ele>1576.4</ele></trkpt>
      <trkpt lat="42.039675" lon="9.172419"><ele>1561.0</ele></trkpt>
      <trkpt lat="42.039922" lon="9.172030"><ele>1559.1</ele></trkpt>
      <trkpt lat="42.040102" lon="9.171640"><ele>1558.7</ele></trkpt>
      <trkpt lat="42.040177" lon="9.171394"><ele>1560.8</ele></trkpt>
      <trkpt lat="42.040179" lon="9.171134"><ele>1567.4</ele></trkpt>
      <trkpt lat="42.040375" lon="9.170882"><ele>1565.0</ele></trkpt>
      <trkpt lat="42.040634" lon="9.170792"><ele>1554.8</ele></trkpt>
      <trkpt lat="42.040946" lon="9.170274"><ele>1550.8</ele></trkpt>
      <trkpt lat="42.041091" lon="9.170029"><ele>1547.8</ele></trkpt>
      <trkpt lat="42.041063" lon="9.169512"><ele>1557.4</ele></trkpt>
      <trkpt lat="42.041115" lon="9.169156"><ele>1559.8</ele></trkpt>
      <trkpt lat="42.041394" lon="9.168575"><ele>1553.9</ele></trkpt>
      <trkpt lat="42.041525" lon="9.168081"><ele>1558.4</ele></trkpt>
      <trkpt lat="42.041821" lon="9.167442"><ele>1566.4</ele></trkpt>
      <trkpt lat="42.042068" lon="9.167329"><ele>1566.9</ele></trkpt>
      <trkpt lat="42.042225" lon="9.167380"><ele>1564.5</ele></trkpt>
      <trkpt lat="42.042939" lon="9.168018"><ele>1545.0</ele></trkpt>
      <trkpt lat="42.043204" lon="9.167822"><ele>1549.3</ele></trkpt>
      <trkpt lat="42.043276" lon="9.167716"><ele>1551.8</ele></trkpt>
      <trkpt lat="42.043523" lon="9.167578"><ele>1552.6</ele></trkpt>
      <trkpt lat="42.043652" lon="9.167675"><ele>1547.6</ele></trkpt>
      <trkpt lat="42.043819" lon="9.167614"><ele>1546.3</ele></trkpt>
      <trkpt lat="42.044093" lon="9.166925"><ele>1556.9</ele></trkpt>
      <trkpt lat="42.044224" lon="9.166741"><ele>1558.2</ele></trkpt>
      <trkpt lat="42.044450" lon="9.166778"><ele>1553.6</ele></trkpt>
      <trkpt lat="42.044714" lon="9.166617"><ele>1555.3</ele></trkpt>
      <trkpt lat="42.044913" lon="9.166687"><ele>1550.6</ele></trkpt>
      <trkpt lat="42.045132" lon="9.167125"><ele>1535.5</ele></trkpt>
      <trkpt lat="42.045193" lon="9.166985"><ele>1536.7</ele></trkpt>
      <trkpt lat="42.045336" lon="9.166963"><ele>1538.5</ele></trkpt>
      <trkpt lat="42.045639" lon="9.167411"><ele>1540.0</ele></trkpt>
      <trkpt lat="42.045777" lon="9.167573"><ele>1539.0</ele></trkpt>
      <trkpt lat="42.046093" lon="9.167602"><ele>1542.3</ele></trkpt>
      <trkpt lat="42.046629" lon="9.168171"><ele>1530.7</ele></trkpt>
      <trkpt lat="42.046771" lon="9.168050"><ele>1538.1</ele></trkpt>
      <trkpt lat="42.046928" lon="9.167993"><ele>1543.6</ele></trkpt>
      <trkpt lat="42.047221" lon="9.168050"><ele>1547.7</ele></trkpt>
      <trkpt lat="42.047581" lon="9.168268"><ele>1548.0</ele></trkpt>
      <trkpt lat="42.047745" lon="9.168489"><ele>1543.8</ele></trkpt>
      <trkpt lat="42.048049" lon="9.168592"><ele>1550.1</ele></trkpt>
      <trkpt lat="42.048322" lon="9.168832"><ele>1551.4</ele></trkpt>
      <trkpt lat="42.048534" lon="9.169141"><ele>1548.1</ele></trkpt>
      <trkpt lat="42.048692" lon="9.169505"><ele>1540.3</ele></trkpt>
      <trkpt lat="42.048738" lon="9.169831"><ele>1531.2</ele></trkpt>
      <trkpt lat="42.048987" lon="9.170002"><ele>1534.4</ele></trkpt>
      <trkpt lat="42.049047" lon="9.169993"><ele>1536.7</ele></trkpt>
      <trkpt lat="42.049514" lon="9.170207"><ele>1539.7</ele></trkpt>
      <trkpt lat="42.049779" lon="9.170259"><ele>1540.4</ele></trkpt>
      <trkpt lat="42.050504" lon="9.170803"><ele>1521.7</ele></trkpt>
      <trkpt lat="42.050610" lon="9.170550"><ele>1522.4</ele></trkpt>
      <trkpt lat="42.050712" lon="9.170125"><ele>1525.9</ele></trkpt>
      <trkpt lat="42.050841" lon="9.169706"><ele>1529.4</ele></trkpt>
      <trkpt lat="42.050998" lon="9.169459"><ele>1527.0</ele></trkpt>
      <trkpt lat="42.051232" lon="9.169326"><ele>1519.1</ele></trkpt>
      <trkpt lat="42.051541" lon="9.168918"><ele>1510.4</ele></trkpt>
      <trkpt lat="42.051636" lon="9.168677"><ele>1509.5</ele></trkpt>
      <trkpt lat="42.051745" lon="9.168230"><ele>1511.7</ele></trkpt>
      <trkpt lat="42.051678" lon="9.168056"><ele>1516.8</ele></trkpt>
      <trkpt lat="42.051934" lon="9.167400"><ele>1510.9</ele></trkpt>
      <trkpt lat="42.052143" lon="9.167337"><ele>1497.8</ele></trkpt>
      <trkpt lat="42.052196" lon="9.167040"><ele>1506.2</ele></trkpt>
      <trkpt lat="42.052296" lon="9.167100"><ele>1502.7</ele></trkpt>
      <trkpt lat="42.052407" lon="9.166895"><ele>1517.9</ele></trkpt>
      <trkpt lat="42.052884" lon="9.167211"><ele>1500.6</ele></trkpt>
      <trkpt lat="42.053052" lon="9.167167"><ele>1499.1</ele></trkpt>
      <trkpt lat="42.053253" lon="9.166949"><ele>1501.9</ele></trkpt>
      <trkpt lat="42.053267" lon="9.166598"><ele>1514.0</ele></trkpt>
      <trkpt lat="42.053397" lon="9.166327"><ele>1521.5</ele></trkpt>
      <trkpt lat="42.054176" lon="9.166151"><ele>1498.0</ele></trkpt>
      <trkpt lat="42.054523" lon="9.165951"><ele>1486.4</ele></trkpt>
      <trkpt lat="42.054635" lon="9.165887"><ele>1481.9</ele></trkpt>
      <trkpt lat="42.054869" lon="9.165495"><ele>1479.9</ele></trkpt>
      <trkpt lat="42.055119" lon="9.164905"><ele>1480.8</ele></trkpt>
      <trkpt lat="42.055290" lon="9.164099"><ele>1479.2</ele></trkpt>
      <trkpt lat="42.055670" lon="9.163242"><ele>1461.9</ele></trkpt>
      <trkpt lat="42.055750" lon="9.162604"><ele>1466.7</ele></trkpt>
      <trkpt lat="42.055879" lon="9.162113"><ele>1470.1</ele></trkpt>
      <trkpt lat="42.055937" lon="9.161699"><ele>1474.7</ele></trkpt>
      <trkpt lat="42.056076" lon="9.161649"><ele>1472.6</ele></trkpt>
      <trkpt lat="42.056327" lon="9.161266"><ele>1473.9</ele></trkpt>
      <trkpt lat="42.056436" lon="9.161278"><ele>1472.3</ele></trkpt>
      <trkpt lat="42.056601" lon="9.161523"><ele>1467.1</ele></trkpt>
      <trkpt lat="42.056684" lon="9.161513"><ele>1469.8</ele></trkpt>
      <trkpt lat="42.056671" lon="9.161647"><ele>1466.9</ele></trkpt>
      <trkpt lat="42.056858" lon="9.161964"><ele>1465.8</ele></trkpt>
      <trkpt lat="42.056942" lon="9.162093"><ele>1465.4</ele></trkpt>
      <trkpt lat="42.057113" lon="9.162170"><ele>1467.1</ele></trkpt>
      <trkpt lat="42.057146" lon="9.162367"><ele>1464.4</ele></trkpt>
      <trkpt lat="42.057182" lon="9.162444"><ele>1463.7</ele></trkpt>
      <trkpt lat="42.057400" lon="9.163099"><ele>1458.2</ele></trkpt>
      <trkpt lat="42.057555" lon="9.163269"><ele>1458.8</ele></trkpt>
      <trkpt lat="42.057735" lon="9.163432"><ele>1461.1</ele></trkpt>
      <trkpt lat="42.057801" lon="9.163557"><ele>1461.3</ele></trkpt>
      <trkpt lat="42.057787" lon="9.163602"><ele>1460.1</ele></trkpt>
      <trkpt lat="42.057917" lon="9.163911"><ele>1458.3</ele></trkpt>
      <trkpt lat="42.058071" lon="9.164433"><ele>1450.4</ele></trkpt>
      <trkpt lat="42.058134" lon="9.164645"><ele>1446.5</ele></trkpt>
      <trkpt lat="42.058210" lon="9.164758"><ele>1445.6</ele></trkpt>
      <trkpt lat="42.058405" lon="9.164825"><ele>1449.2</ele></trkpt>
      <trkpt lat="42.058416" lon="9.164878"><ele>1448.1</ele></trkpt>
      <trkpt lat="42.058485" lon="9.165243"><ele>1440.6</ele></trkpt>
      <trkpt lat="42.058700" lon="9.165822"><ele>1432.0</ele></trkpt>
      <trkpt lat="42.059015" lon="9.166412"><ele>1423.2</ele></trkpt>
      <trkpt lat="42.059392" lon="9.166922"><ele>1415.3</ele></trkpt>
      <trkpt lat="42.059543" lon="9.167563"><ele>1398.7</ele></trkpt>
      <trkpt lat="42.059661" lon="9.168212"><ele>1381.6</ele></trkpt>
      <trkpt lat="42.059758" lon="9.168515"><ele>1373.1</ele></trkpt>
      <trkpt lat="42.059930" lon="9.168315"><ele>1373.2</ele></trkpt>
      <trkpt lat="42.060356" lon="9.167175"><ele>1397.1</ele></trkpt>
      <trkpt lat="42.060653" lon="9.167242"><ele>1389.3</ele></trkpt>
      <trkpt lat="42.060895" lon="9.166992"><ele>1394.0</ele></trkpt>
      <trkpt lat="42.061117" lon="9.166887"><ele>1395.5</ele></trkpt>
      <trkpt lat="42.061310" lon="9.167121"><ele>1385.6</ele></trkpt>
      <trkpt lat="42.062016" lon="9.167591"><ele>1356.8</ele></trkpt>
      <trkpt lat="42.062171" lon="9.167231"><ele>1367.0</ele></trkpt>
      <trkpt lat="42.062560" lon="9.166904"><ele>1373.0</ele></trkpt>
      <trkpt lat="42.062742" lon="9.166795"><ele>1375.1</ele></trkpt>
      <trkpt lat="42.062972" lon="9.166658"><ele>1378.5</ele></trkpt>
      <trkpt lat="42.063369" lon="9.166707"><ele>1373.9</ele></trkpt>
      <trkpt lat="42.063714" lon="9.166612"><ele>1378.6</ele></trkpt>
      <trkpt lat="42.064164" lon="9.166870"><ele>1356.6</ele></trkpt>
      <trkpt lat="42.064553" lon="9.166820"><ele>1355.1</ele></trkpt>
      <trkpt lat="42.065545" lon="9.167111"><ele>1335.6</ele></trkpt>
      <trkpt lat="42.066251" lon="9.166828"><ele>1355.4</ele></trkpt>
      <trkpt lat="42.066698" lon="9.166939"><ele>1349.8</ele></trkpt>
      <trkpt lat="42.066844" lon="9.166884"><ele>1347.8</ele></trkpt>
      <trkpt lat="42.067043" lon="9.166543"><ele>1346.3</ele></trkpt>
      <trkpt lat="42.067195" lon="9.165987"><ele>1346.8</ele></trkpt>
      <trkpt lat="42.067579" lon="9.165529"><ele>1335.1</ele></trkpt>
      <trkpt lat="42.067600" lon="9.165161"><ele>1341.2</ele></trkpt>
      <trkpt lat="42.067476" lon="9.164528"><ele>1363.8</ele></trkpt>
      <trkpt lat="42.067577" lon="9.164168"><ele>1367.5</ele></trkpt>
      <trkpt lat="42.067963" lon="9.163585"><ele>1360.7</ele></trkpt>
      <trkpt lat="42.068340" lon="9.163356"><ele>1346.8</ele></trkpt>
      <trkpt lat="42.068634" lon="9.162857"><ele>1344.2</ele></trkpt>
      <trkpt lat="42.068689" lon="9.162046"><ele>1354.8</ele></trkpt>
      <trkpt lat="42.069210" lon="9.162070"><ele>1343.3</ele></trkpt>
      <trkpt lat="42.069545" lon="9.161617"><ele>1344.3</ele></trkpt>
      <trkpt lat="42.069728" lon="9.161237"><ele>1344.8</ele></trkpt>
      <trkpt lat="42.069849" lon="9.160906"><ele>1346.5</ele></trkpt>
      <trkpt lat="42.069917" lon="9.160486"><ele>1351.1</ele></trkpt>
      <trkpt lat="42.070079" lon="9.160162"><ele>1352.4</ele></trkpt>
      <trkpt lat="42.070198" lon="9.159919"><ele>1354.3</ele></trkpt>
      <trkpt lat="42.070256" lon="9.159702"><ele>1357.7</ele></trkpt>
      <trkpt lat="42.070541" lon="9.159339"><ele>1360.0</ele></trkpt>
      <trkpt lat="42.070634" lon="9.159258"><ele>1360.4</ele></trkpt>
      <trkpt lat="42.070747" lon="9.159049"><ele>1363.9</ele></trkpt>
      <trkpt lat="42.070912" lon="9.158804"><ele>1364.0</ele></trkpt>
      <trkpt lat="42.071039" lon="9.158708"><ele>1358.6</ele></trkpt>
      <trkpt lat="42.071221" lon="9.158656"><ele>1355.9</ele></trkpt>
      <trkpt lat="42.071225" lon="9.158594"><ele>1356.2</ele></trkpt>
      <trkpt lat="42.071222" lon="9.158452"><ele>1359.5</ele></trkpt>
      <trkpt lat="42.071316" lon="9.158407"><ele>1369.1</ele></trkpt>
      <trkpt lat="42.071327" lon="9.158335"><ele>1372.7</ele></trkpt>
      <trkpt lat="42.071414" lon="9.158321"><ele>1378.6</ele></trkpt>
      <trkpt lat="42.071422" lon="9.158209"><ele>1380.7</ele></trkpt>
      <trkpt lat="42.071407" lon="9.158051"><ele>1377.9</ele></trkpt>
      <trkpt lat="42.071467" lon="9.158089"><ele>1382.6</ele></trkpt>
      <trkpt lat="42.071495" lon="9.157894"><ele>1384.3</ele></trkpt>
      <trkpt lat="42.071480" lon="9.157740"><ele>1385.7</ele></trkpt>
      <trkpt lat="42.071529" lon="9.157642"><ele>1391.7</ele></trkpt>
      <trkpt lat="42.071590" lon="9.157411"><ele>1402.0</ele></trkpt>
      <trkpt lat="42.071513" lon="9.157111"><ele>1402.8</ele></trkpt>
      <trkpt lat="42.071533" lon="9.156682"><ele>1416.7</ele></trkpt>
      <trkpt lat="42.071486" lon="9.156503"><ele>1417.5</ele></trkpt>
      <trkpt lat="42.071490" lon="9.156353"><ele>1420.8</ele></trkpt>
      <trkpt lat="42.071403" lon="9.156153"><ele>1420.9</ele></trkpt>
      <trkpt lat="42.071603" lon="9.155791"><ele>1436.6</ele></trkpt>
      <trkpt lat="42.071553" lon="9.155199"><ele>1444.4</ele></trkpt>
      <trkpt lat="42.071432" lon="9.154514"><ele>1457.6</ele></trkpt>
      <trkpt lat="42.071479" lon="9.154286"><ele>1463.3</ele></trkpt>
      <trkpt lat="42.071576" lon="9.154132"><ele>1470.2</ele></trkpt>
      <trkpt lat="42.071445" lon="9.153617"><ele>1477.0</ele></trkpt>
      <trkpt lat="42.071488" lon="9.153279"><ele>1486.8</ele></trkpt>
      <trkpt lat="42.071325" lon="9.152877"><ele>1490.5</ele></trkpt>
      <trkpt lat="42.071208" lon="9.152348"><ele>1498.1</ele></trkpt>
      <trkpt lat="42.071297" lon="9.152199"><ele>1503.6</ele></trkpt>
      <trkpt lat="42.071165" lon="9.152041"><ele>1502.6</ele></trkpt>
      <trkpt lat="42.071075" lon="9.151846"><ele>1503.9</ele></trkpt>
      <trkpt lat="42.071133" lon="9.151771"><ele>1507.0</ele></trkpt>
      <trkpt lat="42.071056" lon="9.151553"><ele>1509.8</ele></trkpt>
      <trkpt lat="42.070988" lon="9.151496"><ele>1509.4</ele></trkpt>
      <trkpt lat="42.071125" lon="9.151399"><ele>1515.6</ele></trkpt>
      <trkpt lat="42.070997" lon="9.151317"><ele>1514.1</ele></trkpt>
      <trkpt lat="42.070953" lon="9.151156"><ele>1517.0</ele></trkpt>
      <trkpt lat="42.070937" lon="9.151095"><ele>1518.1</ele></trkpt>
      <trkpt lat="42.070984" lon="9.150963"><ele>1523.0</ele></trkpt>
      <trkpt lat="42.070979" lon="9.150767"><ele>1528.5</ele></trkpt>
      <trkpt lat="42.071017" lon="9.150755"><ele>1529.9</ele></trkpt>
      <trkpt lat="42.071031" lon="9.150805"><ele>1528.9</ele></trkpt>
      <trkpt lat="42.071100" lon="9.150822"><ele>1530.4</ele></trkpt>
      <trkpt lat="42.071176" lon="9.150749"><ele>1534.6</ele></trkpt>
      <trkpt lat="42.071197" lon="9.150648"><ele>1538.4</ele></trkpt>
      <trkpt lat="42.071209" lon="9.150587"><ele>1540.8</ele></trkpt>
      <trkpt lat="42.071596" lon="9.150551"><ele>1553.4</ele></trkpt>
      <trkpt lat="42.071673" lon="9.150473"><ele>1558.9</ele></trkpt>
      <trkpt lat="42.071816" lon="9.150623"><ele>1559.4</ele></trkpt>
      <trkpt lat="42.071898" lon="9.150846"><ele>1556.2</ele></trkpt>
      <trkpt lat="42.072038" lon="9.150878"><ele>1561.4</ele></trkpt>
      <trkpt lat="42.072113" lon="9.150964"><ele>1562.3</ele></trkpt>
      <trkpt lat="42.072356" lon="9.151092"><ele>1571.0</ele></trkpt>
      <trkpt lat="42.072435" lon="9.151089"><ele>1575.5</ele></trkpt>
      <trkpt lat="42.072691" lon="9.151191"><ele>1588.9</ele></trkpt>
      <trkpt lat="42.072867" lon="9.151684"><ele>1590.0</ele></trkpt>
      <trkpt lat="42.072894" lon="9.151897"><ele>1587.3</ele></trkpt>
      <trkpt lat="42.073024" lon="9.151982"><ele>1594.7</ele></trkpt>
      <trkpt lat="42.073170" lon="9.152585"><ele>1593.8</ele></trkpt>
      <trkpt lat="42.073531" lon="9.153034"><ele>1603.8</ele></trkpt>
      <trkpt lat="42.073612" lon="9.153300"><ele>1599.7</ele></trkpt>
      <trkpt lat="42.073714" lon="9.153301"><ele>1601.1</ele></trkpt>
      <trkpt lat="42.074169" lon="9.152958"><ele>1613.5</ele></trkpt>
      <trkpt lat="42.074354" lon="9.152756"><ele>1620.8</ele></trkpt>
      <trkpt lat="42.074696" lon="9.152499"><ele>1627.2</ele></trkpt>
      <trkpt lat="42.075105" lon="9.152297"><ele>1623.5</ele></trkpt>
      <trkpt lat="42.075231" lon="9.151913"><ele>1630.2</ele></trkpt>
      <trkpt lat="42.075498" lon="9.151639"><ele>1623.3</ele></trkpt>
      <trkpt lat="42.075631" lon="9.151564"><ele>1617.6</ele></trkpt>
      <trkpt lat="42.075736" lon="9.151619"><ele>1610.8</ele></trkpt>
      <trkpt lat="42.075821" lon="9.151537"><ele>1608.1</ele></trkpt>
      <trkpt lat="42.075888" lon="9.151254"><ele>1609.8</ele></trkpt>
      <trkpt lat="42.076069" lon="9.151076"><ele>1604.3</ele></trkpt>
      <trkpt lat="42.076100" lon="9.150885"><ele>1606.1</ele></trkpt>
      <trkpt lat="42.076190" lon="9.150852"><ele>1602.9</ele></trkpt>
      <trkpt lat="42.076274" lon="9.150531"><ele>1604.4</ele></trkpt>
      <trkpt lat="42.076389" lon="9.150434"><ele>1601.7</ele></trkpt>
      <trkpt lat="42.076448" lon="9.150407"><ele>1600.4</ele></trkpt>
      <trkpt lat="42.076512" lon="9.150306"><ele>1600.3</ele></trkpt>
      <trkpt lat="42.076639" lon="9.150027"><ele>1602.3</ele></trkpt>
      <trkpt lat="42.076898" lon="9.150142"><ele>1596.9</ele></trkpt>
      <trkpt lat="42.077051" lon="9.150278"><ele>1591.6</ele></trkpt>
      <trkpt lat="42.077266" lon="9.150173"><ele>1592.3</ele></trkpt>
      <trkpt lat="42.077314" lon="9.150127"><ele>1595.5</ele></trkpt>
      <trkpt lat="42.077442" lon="9.150016"><ele>1604.1</ele></trkpt>
      <trkpt lat="42.077524" lon="9.150020"><ele>1609.2</ele></trkpt>
      <trkpt lat="42.077558" lon="9.150088"><ele>1611.6</ele></trkpt>
      <trkpt lat="42.077611" lon="9.150205"><ele>1614.7</ele></trkpt>
      <trkpt lat="42.077678" lon="9.150372"><ele>1616.9</ele></trkpt>
    <trkpt lat="42.077767" lon="9.150533"><ele>1618.2</ele></trkpt>
      <trkpt lat="42.077781" lon="9.150733"><ele>1615.6</ele></trkpt>
      <trkpt lat="42.077884" lon="9.150993"><ele>1615.5</ele></trkpt>
      <trkpt lat="42.077905" lon="9.151130"><ele>1613.9</ele></trkpt>
      <trkpt lat="42.078055" lon="9.151399"><ele>1616.5</ele></trkpt>
      <trkpt lat="42.078121" lon="9.151435"><ele>1619.2</ele></trkpt>
      <trkpt lat="42.078340" lon="9.151645"><ele>1626.7</ele></trkpt>
      <trkpt lat="42.078437" lon="9.152150"><ele>1620.5</ele></trkpt>
      <trkpt lat="42.078537" lon="9.152368"><ele>1619.3</ele></trkpt>
      <trkpt lat="42.078601" lon="9.152425"><ele>1620.5</ele></trkpt>
      <trkpt lat="42.078718" lon="9.152502"><ele>1623.1</ele></trkpt>
      <trkpt lat="42.078968" lon="9.152722"><ele>1627.0</ele></trkpt>
      <trkpt lat="42.079218" lon="9.152785"><ele>1634.1</ele></trkpt>
      <trkpt lat="42.079521" lon="9.153290"><ele>1632.7</ele></trkpt>
      <trkpt lat="42.079616" lon="9.153333"><ele>1635.0</ele></trkpt>
      <trkpt lat="42.079888" lon="9.153934"><ele>1630.8</ele></trkpt>
      <trkpt lat="42.080112" lon="9.153964"><ele>1637.0</ele></trkpt>
      <trkpt lat="42.080258" lon="9.154167"><ele>1636.1</ele></trkpt>
      <trkpt lat="42.080347" lon="9.154384"><ele>1632.9</ele></trkpt>
      <trkpt lat="42.080444" lon="9.154569"><ele>1630.8</ele></trkpt>
      <trkpt lat="42.080539" lon="9.154670"><ele>1630.5</ele></trkpt>
      <trkpt lat="42.080769" lon="9.154781"><ele>1631.8</ele></trkpt>
      <trkpt lat="42.080847" lon="9.154865"><ele>1630.6</ele></trkpt>
      <trkpt lat="42.080848" lon="9.154972"><ele>1627.7</ele></trkpt>
      <trkpt lat="42.080938" lon="9.155323"><ele>1618.1</ele></trkpt>
      <trkpt lat="42.081212" lon="9.155753"><ele>1605.0</ele></trkpt>
      <trkpt lat="42.081288" lon="9.156265"><ele>1591.7</ele></trkpt>
      <trkpt lat="42.081453" lon="9.156498"><ele>1586.8</ele></trkpt>
      <trkpt lat="42.081595" lon="9.156477"><ele>1584.5</ele></trkpt>
      <trkpt lat="42.081769" lon="9.156120"><ele>1587.7</ele></trkpt>
      <trkpt lat="42.082626" lon="9.155742"><ele>1572.6</ele></trkpt>
      <trkpt lat="42.082941" lon="9.155366"><ele>1569.3</ele></trkpt>
      <trkpt lat="42.083153" lon="9.154812"><ele>1569.7</ele></trkpt>
      <trkpt lat="42.084007" lon="9.154167"><ele>1537.7</ele></trkpt>
      <trkpt lat="42.084419" lon="9.153770"><ele>1523.0</ele></trkpt>
      <trkpt lat="42.084713" lon="9.153877"><ele>1505.6</ele></trkpt>
      <trkpt lat="42.085718" lon="9.154498"><ele>1459.8</ele></trkpt>
      <trkpt lat="42.085803" lon="9.154240"><ele>1468.2</ele></trkpt>
      <trkpt lat="42.086375" lon="9.154745"><ele>1464.0</ele></trkpt>
      <trkpt lat="42.086922" lon="9.155725"><ele>1449.4</ele></trkpt>
      <trkpt lat="42.088490" lon="9.154274"><ele>1462.9</ele></trkpt>
      <trkpt lat="42.089500" lon="9.153811"><ele>1453.0</ele></trkpt>
      <trkpt lat="42.089786" lon="9.153677"><ele>1451.1</ele></trkpt>
      <trkpt lat="42.090100" lon="9.153479"><ele>1449.8</ele></trkpt>
      <trkpt lat="42.090265" lon="9.153285"><ele>1449.8</ele></trkpt>
      <trkpt lat="42.090303" lon="9.153296"><ele>1449.5</ele></trkpt>
      <trkpt lat="42.090316" lon="9.153342"><ele>1449.0</ele></trkpt>
      <trkpt lat="42.090343" lon="9.153524"><ele>1447.4</ele></trkpt>
      <trkpt lat="42.090401" lon="9.153641"><ele>1449.2</ele></trkpt>
      <trkpt lat="42.090497" lon="9.153616"><ele>1455.9</ele></trkpt>
      <trkpt lat="42.090609" lon="9.153000"><ele>1463.0</ele></trkpt>
      <trkpt lat="42.090737" lon="9.153182"><ele>1471.7</ele></trkpt>
      <trkpt lat="42.090962" lon="9.153844"><ele>1482.4</ele></trkpt>
      <trkpt lat="42.090976" lon="9.154612"><ele>1485.8</ele></trkpt>
      <trkpt lat="42.090961" lon="9.155261"><ele>1488.9</ele></trkpt>
      <trkpt lat="42.090831" lon="9.156200"><ele>1486.9</ele></trkpt>
      <trkpt lat="42.090719" lon="9.156707"><ele>1480.4</ele></trkpt>
      <trkpt lat="42.090724" lon="9.157006"><ele>1479.1</ele></trkpt>
      <trkpt lat="42.090785" lon="9.157278"><ele>1479.9</ele></trkpt>
      <trkpt lat="42.090956" lon="9.157583"><ele>1484.9</ele></trkpt>
      <trkpt lat="42.091020" lon="9.157839"><ele>1484.1</ele></trkpt>
      <trkpt lat="42.091154" lon="9.158022"><ele>1486.1</ele></trkpt>
      <trkpt lat="42.091354" lon="9.158148"><ele>1490.2</ele></trkpt>
      <trkpt lat="42.091595" lon="9.158180"><ele>1495.5</ele></trkpt>
      <trkpt lat="42.092200" lon="9.158078"><ele>1500.7</ele></trkpt>
      <trkpt lat="42.092784" lon="9.157433"><ele>1512.8</ele></trkpt>
      <trkpt lat="42.093259" lon="9.157052"><ele>1521.9</ele></trkpt>
      <trkpt lat="42.094192" lon="9.156280"><ele>1537.7</ele></trkpt>
      <trkpt lat="42.094419" lon="9.155724"><ele>1550.9</ele></trkpt>
      <trkpt lat="42.094569" lon="9.155573"><ele>1549.1</ele></trkpt>
      <trkpt lat="42.094763" lon="9.154883"><ele>1559.4</ele></trkpt>
      <trkpt lat="42.095078" lon="9.153955"><ele>1576.1</ele></trkpt>
      <trkpt lat="42.095132" lon="9.153901"><ele>1577.1</ele></trkpt>
      <trkpt lat="42.095138" lon="9.153835"><ele>1579.1</ele></trkpt>
      <trkpt lat="42.095162" lon="9.153842"><ele>1578.7</ele></trkpt>
      <trkpt lat="42.095219" lon="9.153885"><ele>1577.1</ele></trkpt>
      <trkpt lat="42.095249" lon="9.153918"><ele>1575.8</ele></trkpt>
      <trkpt lat="42.095248" lon="9.154010"><ele>1572.8</ele></trkpt>
      <trkpt lat="42.095435" lon="9.154121"><ele>1567.9</ele></trkpt>
      <trkpt lat="42.095607" lon="9.154198"><ele>1564.5</ele></trkpt>
      <trkpt lat="42.095701" lon="9.154298"><ele>1560.7</ele></trkpt>
      <trkpt lat="42.095886" lon="9.154328"><ele>1560.7</ele></trkpt>
      <trkpt lat="42.096050" lon="9.154361"><ele>1561.2</ele></trkpt>
      <trkpt lat="42.096166" lon="9.154315"><ele>1564.7</ele></trkpt>
      <trkpt lat="42.096246" lon="9.154307"><ele>1566.4</ele></trkpt>
      <trkpt lat="42.096353" lon="9.154296"><ele>1568.8</ele></trkpt>
      <trkpt lat="42.096531" lon="9.154491"><ele>1565.4</ele></trkpt>
      <trkpt lat="42.096567" lon="9.154876"><ele>1551.9</ele></trkpt>
      <trkpt lat="42.096606" lon="9.155068"><ele>1545.5</ele></trkpt>
      <trkpt lat="42.096916" lon="9.155221"><ele>1548.3</ele></trkpt>
      <trkpt lat="42.097161" lon="9.155233"><ele>1554.4</ele></trkpt>
      <trkpt lat="42.097420" lon="9.155181"><ele>1564.0</ele></trkpt>
      <trkpt lat="42.097435" lon="9.155264"><ele>1561.6</ele></trkpt>
      <trkpt lat="42.097532" lon="9.155345"><ele>1562.1</ele></trkpt>
      <trkpt lat="42.097676" lon="9.155677"><ele>1556.2</ele></trkpt>
      <trkpt lat="42.097811" lon="9.155758"><ele>1559.0</ele></trkpt>
      <trkpt lat="42.098205" lon="9.156096"><ele>1565.6</ele></trkpt>
      <trkpt lat="42.098216" lon="9.156249"><ele>1562.5</ele></trkpt>
      <trkpt lat="42.098200" lon="9.156373"><ele>1558.9</ele></trkpt>
      <trkpt lat="42.098279" lon="9.156643"><ele>1555.6</ele></trkpt>
      <trkpt lat="42.098369" lon="9.156824"><ele>1554.5</ele></trkpt>
      <trkpt lat="42.098559" lon="9.156930"><ele>1560.3</ele></trkpt>
      <trkpt lat="42.098677" lon="9.157058"><ele>1562.1</ele></trkpt>
      <trkpt lat="42.098831" lon="9.157100"><ele>1567.7</ele></trkpt>
      <trkpt lat="42.098873" lon="9.157258"><ele>1564.7</ele></trkpt>
      <trkpt lat="42.098948" lon="9.157318"><ele>1566.2</ele></trkpt>
      <trkpt lat="42.099115" lon="9.157608"><ele>1564.2</ele></trkpt>
      <trkpt lat="42.099236" lon="9.157763"><ele>1563.6</ele></trkpt>
      <trkpt lat="42.099365" lon="9.157843"><ele>1565.3</ele></trkpt>
      <trkpt lat="42.099408" lon="9.157925"><ele>1563.8</ele></trkpt>
      <trkpt lat="42.099503" lon="9.157950"><ele>1566.3</ele></trkpt>
      <trkpt lat="42.099623" lon="9.158183"><ele>1562.1</ele></trkpt>
      <trkpt lat="42.099693" lon="9.158193"><ele>1564.0</ele></trkpt>
      <trkpt lat="42.099724" lon="9.158277"><ele>1561.8</ele></trkpt>
      <trkpt lat="42.099779" lon="9.158304"><ele>1562.3</ele></trkpt>
      <trkpt lat="42.099889" lon="9.158283"><ele>1566.0</ele></trkpt>
      <trkpt lat="42.099948" lon="9.158396"><ele>1563.0</ele></trkpt>
      <trkpt lat="42.100315" lon="9.158572"><ele>1565.6</ele></trkpt>
      <trkpt lat="42.100410" lon="9.159016"><ele>1554.4</ele></trkpt>
      <trkpt lat="42.100765" lon="9.159439"><ele>1562.8</ele></trkpt>
      <trkpt lat="42.100729" lon="9.159690"><ele>1556.7</ele></trkpt>
      <trkpt lat="42.100833" lon="9.160180"><ele>1560.3</ele></trkpt>
      <trkpt lat="42.100824" lon="9.160427"><ele>1558.3</ele></trkpt>
      <trkpt lat="42.100873" lon="9.160899"><ele>1556.0</ele></trkpt>
      <trkpt lat="42.100877" lon="9.161300"><ele>1549.6</ele></trkpt>
      <trkpt lat="42.100930" lon="9.161601"><ele>1545.4</ele></trkpt>
      <trkpt lat="42.101023" lon="9.161679"><ele>1547.1</ele></trkpt>
      <trkpt lat="42.101138" lon="9.161902"><ele>1544.1</ele></trkpt>
      <trkpt lat="42.101405" lon="9.161789"><ele>1559.2</ele></trkpt>
      <trkpt lat="42.101653" lon="9.161853"><ele>1567.8</ele></trkpt>
      <trkpt lat="42.101773" lon="9.161967"><ele>1569.0</ele></trkpt>
      <trkpt lat="42.101868" lon="9.162116"><ele>1568.2</ele></trkpt>
      <trkpt lat="42.101950" lon="9.162154"><ele>1571.0</ele></trkpt>
      <trkpt lat="42.102048" lon="9.162142"><ele>1576.6</ele></trkpt>
      <trkpt lat="42.102142" lon="9.162362"><ele>1575.1</ele></trkpt>
      <trkpt lat="42.102154" lon="9.162601"><ele>1569.9</ele></trkpt>
      <trkpt lat="42.102226" lon="9.162845"><ele>1569.9</ele></trkpt>
      <trkpt lat="42.102322" lon="9.162957"><ele>1574.8</ele></trkpt>
      <trkpt lat="42.102308" lon="9.163341"><ele>1568.1</ele></trkpt>
      <trkpt lat="42.102338" lon="9.163735"><ele>1564.8</ele></trkpt>
      <trkpt lat="42.102398" lon="9.164506"><ele>1557.7</ele></trkpt>
      <trkpt lat="42.102585" lon="9.164602"><ele>1567.9</ele></trkpt>
      <trkpt lat="42.102825" lon="9.165065"><ele>1567.0</ele></trkpt>
      <trkpt lat="42.102890" lon="9.165554"><ele>1549.7</ele></trkpt>
      <trkpt lat="42.103296" lon="9.165589"><ele>1562.6</ele></trkpt>
      <trkpt lat="42.103516" lon="9.165731"><ele>1563.0</ele></trkpt>
      <trkpt lat="42.103614" lon="9.165738"><ele>1565.7</ele></trkpt>
      <trkpt lat="42.103844" lon="9.165944"><ele>1565.6</ele></trkpt>
      <trkpt lat="42.104116" lon="9.166115"><ele>1570.6</ele></trkpt>
      <trkpt lat="42.104189" lon="9.166239"><ele>1570.8</ele></trkpt>
      <trkpt lat="42.104234" lon="9.166636"><ele>1566.7</ele></trkpt>
      <trkpt lat="42.103921" lon="9.167626"><ele>1542.0</ele></trkpt>
      <trkpt lat="42.103736" lon="9.168329"><ele>1541.6</ele></trkpt>
      <trkpt lat="42.103602" lon="9.168855"><ele>1543.8</ele></trkpt>
      <trkpt lat="42.103481" lon="9.168976"><ele>1539.5</ele></trkpt>
      <trkpt lat="42.103090" lon="9.169554"><ele>1529.8</ele></trkpt>
      <trkpt lat="42.102895" lon="9.169982"><ele>1525.3</ele></trkpt>
      <trkpt lat="42.102730" lon="9.170485"><ele>1521.3</ele></trkpt>
      <trkpt lat="42.102576" lon="9.170872"><ele>1518.2</ele></trkpt>
      <trkpt lat="42.102498" lon="9.171327"><ele>1517.5</ele></trkpt>
      <trkpt lat="42.102527" lon="9.172127"><ele>1514.1</ele></trkpt>
      <trkpt lat="42.102554" lon="9.172287"><ele>1512.6</ele></trkpt>
      <trkpt lat="42.102552" lon="9.172331"><ele>1512.1</ele></trkpt>
      <trkpt lat="42.102566" lon="9.172413"><ele>1511.1</ele></trkpt>
      <trkpt lat="42.102621" lon="9.172509"><ele>1509.8</ele></trkpt>
      <trkpt lat="42.102697" lon="9.172535"><ele>1509.2</ele></trkpt>
      <trkpt lat="42.102719" lon="9.172541"><ele>1509.0</ele></trkpt>
      <trkpt lat="42.102937" lon="9.172376"><ele>1508.7</ele></trkpt>
      <trkpt lat="42.103397" lon="9.171808"><ele>1510.9</ele></trkpt>
      <trkpt lat="42.103911" lon="9.171335"><ele>1518.1</ele></trkpt>
      <trkpt lat="42.104429" lon="9.171003"><ele>1523.7</ele></trkpt>
      <trkpt lat="42.104689" lon="9.170615"><ele>1533.3</ele></trkpt>
      <trkpt lat="42.105088" lon="9.170174"><ele>1530.3</ele></trkpt>
      <trkpt lat="42.105427" lon="9.169503"><ele>1527.1</ele></trkpt>
      <trkpt lat="42.105765" lon="9.169014"><ele>1519.9</ele></trkpt>
      <trkpt lat="42.105886" lon="9.168473"><ele>1530.5</ele></trkpt>
      <trkpt lat="42.106310" lon="9.167579"><ele>1550.5</ele></trkpt>
      <trkpt lat="42.106792" lon="9.167576"><ele>1546.6</ele></trkpt>
      <trkpt lat="42.107114" lon="9.167478"><ele>1552.0</ele></trkpt>
      <trkpt lat="42.107549" lon="9.167152"><ele>1570.2</ele></trkpt>
      <trkpt lat="42.107787" lon="9.167200"><ele>1571.0</ele></trkpt>
      <trkpt lat="42.109154" lon="9.168233"><ele>1539.1</ele></trkpt>
      <trkpt lat="42.109184" lon="9.168197"><ele>1539.1</ele></trkpt>
      <trkpt lat="42.109274" lon="9.167830"><ele>1541.3</ele></trkpt>
      <trkpt lat="42.109303" lon="9.167523"><ele>1543.0</ele></trkpt>
      <trkpt lat="42.109321" lon="9.167092"><ele>1543.8</ele></trkpt>
      <trkpt lat="42.109280" lon="9.166637"><ele>1545.6</ele></trkpt>
      <trkpt lat="42.109165" lon="9.166147"><ele>1550.7</ele></trkpt>
      <trkpt lat="42.108864" lon="9.164543"><ele>1554.0</ele></trkpt>
      <trkpt lat="42.108719" lon="9.163706"><ele>1553.4</ele></trkpt>
      <trkpt lat="42.108719" lon="9.163177"><ele>1546.0</ele></trkpt>
      <trkpt lat="42.108402" lon="9.162471"><ele>1555.0</ele></trkpt>
      <trkpt lat="42.108437" lon="9.162060"><ele>1548.0</ele></trkpt>
      <trkpt lat="42.108340" lon="9.160899"><ele>1548.4</ele></trkpt>
      <trkpt lat="42.108338" lon="9.160372"><ele>1550.6</ele></trkpt>
      <trkpt lat="42.108521" lon="9.159498"><ele>1550.4</ele></trkpt>
      <trkpt lat="42.108562" lon="9.159110"><ele>1552.6</ele></trkpt>
      <trkpt lat="42.108513" lon="9.158881"><ele>1556.8</ele></trkpt>
      <trkpt lat="42.108609" lon="9.158796"><ele>1553.8</ele></trkpt>
      <trkpt lat="42.108714" lon="9.158633"><ele>1551.9</ele></trkpt>
      <trkpt lat="42.108669" lon="9.158481"><ele>1555.9</ele></trkpt>
      <trkpt lat="42.108638" lon="9.158374"><ele>1558.9</ele></trkpt>
      <trkpt lat="42.108605" lon="9.158196"><ele>1563.5</ele></trkpt>
      <trkpt lat="42.108618" lon="9.158030"><ele>1566.5</ele></trkpt>
      <trkpt lat="42.108854" lon="9.158017"><ele>1559.9</ele></trkpt>
      <trkpt lat="42.108962" lon="9.157929"><ele>1559.9</ele></trkpt>
      <trkpt lat="42.109157" lon="9.157400"><ele>1572.5</ele></trkpt>
      <trkpt lat="42.109451" lon="9.156984"><ele>1582.6</ele></trkpt>
      <trkpt lat="42.109585" lon="9.156795"><ele>1586.5</ele></trkpt>
      <trkpt lat="42.109693" lon="9.156792"><ele>1585.9</ele></trkpt>
      <trkpt lat="42.109875" lon="9.156788"><ele>1585.4</ele></trkpt>
      <trkpt lat="42.110211" lon="9.156937"><ele>1585.1</ele></trkpt>
      <trkpt lat="42.110627" lon="9.157068"><ele>1593.2</ele></trkpt>
      <trkpt lat="42.110918" lon="9.157356"><ele>1596.5</ele></trkpt>
      <trkpt lat="42.111338" lon="9.157696"><ele>1599.6</ele></trkpt>
      <trkpt lat="42.111521" lon="9.157728"><ele>1603.8</ele></trkpt>
      <trkpt lat="42.111598" lon="9.157839"><ele>1601.9</ele></trkpt>
      <trkpt lat="42.111774" lon="9.157893"><ele>1604.8</ele></trkpt>
      <trkpt lat="42.112017" lon="9.158101"><ele>1602.4</ele></trkpt>
      <trkpt lat="42.112139" lon="9.158115"><ele>1604.8</ele></trkpt>
      <trkpt lat="42.112571" lon="9.158034"><ele>1618.1</ele></trkpt>
      <trkpt lat="42.112853" lon="9.157943"><ele>1627.7</ele></trkpt>
      <trkpt lat="42.113352" lon="9.157805"><ele>1635.7</ele></trkpt>
      <trkpt lat="42.113691" lon="9.157756"><ele>1634.7</ele></trkpt>
      <trkpt lat="42.113780" lon="9.157707"><ele>1634.4</ele></trkpt>
      <trkpt lat="42.113996" lon="9.157651"><ele>1633.2</ele></trkpt>
      <trkpt lat="42.114043" lon="9.157575"><ele>1633.1</ele></trkpt>
      <trkpt lat="42.114059" lon="9.157482"><ele>1632.9</ele></trkpt>
      <trkpt lat="42.114066" lon="9.157312"><ele>1632.1</ele></trkpt>
      <trkpt lat="42.114069" lon="9.157221"><ele>1631.4</ele></trkpt>
      <trkpt lat="42.114113" lon="9.157059"><ele>1629.2</ele></trkpt>
      <trkpt lat="42.114185" lon="9.156954"><ele>1627.2</ele></trkpt>
      <trkpt lat="42.114342" lon="9.156802"><ele>1623.3</ele></trkpt>
      <trkpt lat="42.114477" lon="9.156582"><ele>1618.3</ele></trkpt>
      <trkpt lat="42.114534" lon="9.156510"><ele>1616.2</ele></trkpt>
      <trkpt lat="42.114575" lon="9.156409"><ele>1614.0</ele></trkpt>
      <trkpt lat="42.114570" lon="9.156267"><ele>1611.9</ele></trkpt>
      <trkpt lat="42.114601" lon="9.156174"><ele>1609.9</ele></trkpt>
      <trkpt lat="42.114621" lon="9.156027"><ele>1607.2</ele></trkpt>
      <trkpt lat="42.114653" lon="9.155880"><ele>1604.4</ele></trkpt>
      <trkpt lat="42.114622" lon="9.155543"><ele>1599.5</ele></trkpt>
      <trkpt lat="42.114570" lon="9.155296"><ele>1595.7</ele></trkpt>
      <trkpt lat="42.114512" lon="9.155124"><ele>1593.3</ele></trkpt>
      <trkpt lat="42.114465" lon="9.154845"><ele>1588.6</ele></trkpt>
      <trkpt lat="42.114278" lon="9.154473"><ele>1586.6</ele></trkpt>
      <trkpt lat="42.114147" lon="9.154389"><ele>1588.8</ele></trkpt>
      <trkpt lat="42.114043" lon="9.154262"><ele>1589.3</ele></trkpt>
      <trkpt lat="42.113942" lon="9.154159"><ele>1590.3</ele></trkpt>
      <trkpt lat="42.113872" lon="9.154042"><ele>1590.2</ele></trkpt>
      <trkpt lat="42.113843" lon="9.154011"><ele>1590.6</ele></trkpt>
      <trkpt lat="42.113715" lon="9.153875"><ele>1592.4</ele></trkpt>
      <trkpt lat="42.113634" lon="9.153736"><ele>1592.5</ele></trkpt>
      <trkpt lat="42.113799" lon="9.153797"><ele>1587.9</ele></trkpt>
      <trkpt lat="42.113856" lon="9.153792"><ele>1585.8</ele></trkpt>
      <trkpt lat="42.113990" lon="9.153858"><ele>1582.2</ele></trkpt>
      <trkpt lat="42.114024" lon="9.153934"><ele>1582.6</ele></trkpt>
      <trkpt lat="42.114244" lon="9.153943"><ele>1576.0</ele></trkpt>
      <trkpt lat="42.114335" lon="9.153977"><ele>1574.5</ele></trkpt>
      <trkpt lat="42.114440" lon="9.153996"><ele>1572.6</ele></trkpt>
      <trkpt lat="42.114488" lon="9.153969"><ele>1570.9</ele></trkpt>
      <trkpt lat="42.114478" lon="9.153942"><ele>1570.5</ele></trkpt>
      <trkpt lat="42.114284" lon="9.153667"><ele>1569.1</ele></trkpt>
      <trkpt lat="42.114254" lon="9.153580"><ele>1568.3</ele></trkpt>
      <trkpt lat="42.114152" lon="9.153430"><ele>1569.1</ele></trkpt>
      <trkpt lat="42.114068" lon="9.153256"><ele>1569.6</ele></trkpt>
      <trkpt lat="42.114057" lon="9.153205"><ele>1569.4</ele></trkpt>
      <trkpt lat="42.114092" lon="9.153229"><ele>1568.5</ele></trkpt>
      <trkpt lat="42.114263" lon="9.153310"><ele>1563.8</ele></trkpt>
      <trkpt lat="42.114416" lon="9.153364"><ele>1560.2</ele></trkpt>
      <trkpt lat="42.114777" lon="9.153427"><ele>1552.1</ele></trkpt>
      <trkpt lat="42.114843" lon="9.153387"><ele>1549.6</ele></trkpt>
      <trkpt lat="42.114862" lon="9.153354"><ele>1548.4</ele></trkpt>
      <trkpt lat="42.114762" lon="9.153177"><ele>1547.2</ele></trkpt>
      <trkpt lat="42.114737" lon="9.153102"><ele>1546.5</ele></trkpt>
      <trkpt lat="42.114707" lon="9.153064"><ele>1546.7</ele></trkpt>
      <trkpt lat="42.114613" lon="9.152758"><ele>1545.9</ele></trkpt>
      <trkpt lat="42.114579" lon="9.152575"><ele>1545.9</ele></trkpt>
      <trkpt lat="42.114571" lon="9.152424"><ele>1545.8</ele></trkpt>
      <trkpt lat="42.114639" lon="9.152197"><ele>1543.7</ele></trkpt>
      <trkpt lat="42.114749" lon="9.151894"><ele>1541.9</ele></trkpt>
      <trkpt lat="42.114991" lon="9.151443"><ele>1538.8</ele></trkpt>
      <trkpt lat="42.115599" lon="9.150727"><ele>1526.0</ele></trkpt>
      <trkpt lat="42.117109" lon="9.148756"><ele>1487.7</ele></trkpt>
      <trkpt lat="42.117179" lon="9.148870"><ele>1483.3</ele></trkpt>
      <trkpt lat="42.117132" lon="9.149051"><ele>1484.0</ele></trkpt>
      <trkpt lat="42.117005" lon="9.149288"><ele>1488.3</ele></trkpt>
      <trkpt lat="42.116874" lon="9.149654"><ele>1490.1</ele></trkpt>
      <trkpt lat="42.116697" lon="9.150281"><ele>1487.7</ele></trkpt>
      <trkpt lat="42.116692" lon="9.150624"><ele>1482.6</ele></trkpt>
      <trkpt lat="42.116782" lon="9.150648"><ele>1478.4</ele></trkpt>
      <trkpt lat="42.117125" lon="9.150055"><ele>1470.4</ele></trkpt>
      <trkpt lat="42.117378" lon="9.149556"><ele>1466.0</ele></trkpt>
      <trkpt lat="42.117860" lon="9.149044"><ele>1454.6</ele></trkpt>
      <trkpt lat="42.118257" lon="9.148834"><ele>1450.3</ele></trkpt>
      <trkpt lat="42.119017" lon="9.149084"><ele>1442.0</ele></trkpt>
      <trkpt lat="42.119126" lon="9.149249"><ele>1437.3</ele></trkpt>
      <trkpt lat="42.118539" lon="9.149524"><ele>1433.9</ele></trkpt>
      <trkpt lat="42.118362" lon="9.149688"><ele>1432.7</ele></trkpt>
      <trkpt lat="42.118329" lon="9.149858"><ele>1429.8</ele></trkpt>
      <trkpt lat="42.118608" lon="9.149750"><ele>1427.9</ele></trkpt>
      <trkpt lat="42.118956" lon="9.149843"><ele>1421.2</ele></trkpt>
      <trkpt lat="42.119723" lon="9.150094"><ele>1400.0</ele></trkpt>
      <trkpt lat="42.120129" lon="9.150294"><ele>1380.1</ele></trkpt>
      <trkpt lat="42.120427" lon="9.150252"><ele>1372.0</ele></trkpt>
      <trkpt lat="42.120455" lon="9.150486"><ele>1361.4</ele></trkpt>
      <trkpt lat="42.120098" lon="9.150915"><ele>1357.9</ele></trkpt>
      <trkpt lat="42.120418" lon="9.150866"><ele>1347.1</ele></trkpt>
      <trkpt lat="42.120850" lon="9.150564"><ele>1342.8</ele></trkpt>
      <trkpt lat="42.121174" lon="9.150294"><ele>1340.2</ele></trkpt>
      <trkpt lat="42.121526" lon="9.150346"><ele>1317.2</ele></trkpt>
      <trkpt lat="42.121967" lon="9.150125"><ele>1318.5</ele></trkpt>
      <trkpt lat="42.122849" lon="9.150073"><ele>1320.3</ele></trkpt>
      <trkpt lat="42.123223" lon="9.150113"><ele>1315.5</ele></trkpt>
      <trkpt lat="42.123697" lon="9.149876"><ele>1321.3</ele></trkpt>
      <trkpt lat="42.124034" lon="9.149939"><ele>1312.9</ele></trkpt>
      <trkpt lat="42.125024" lon="9.149371"><ele>1297.9</ele></trkpt>
      <trkpt lat="42.125185" lon="9.148470"><ele>1318.9</ele></trkpt>
      <trkpt lat="42.125531" lon="9.147956"><ele>1310.9</ele></trkpt>
      <trkpt lat="42.125767" lon="9.147735"><ele>1301.1</ele></trkpt>
      <trkpt lat="42.126010" lon="9.147601"><ele>1291.9</ele></trkpt>
      <trkpt lat="42.126122" lon="9.147462"><ele>1288.5</ele></trkpt>
      <trkpt lat="42.126143" lon="9.147261"><ele>1288.0</ele></trkpt>
      <trkpt lat="42.126133" lon="9.147006"><ele>1287.0</ele></trkpt>
      <trkpt lat="42.126176" lon="9.146744"><ele>1282.4</ele></trkpt>
      <trkpt lat="42.126272" lon="9.146821"><ele>1280.8</ele></trkpt>
      <trkpt lat="42.126765" lon="9.147482"><ele>1273.4</ele></trkpt>
      <trkpt lat="42.127089" lon="9.147824"><ele>1264.9</ele></trkpt>
      <trkpt lat="42.127564" lon="9.148205"><ele>1247.9</ele></trkpt>
      <trkpt lat="42.127899" lon="9.148461"><ele>1237.8</ele></trkpt>
      <trkpt lat="42.128057" lon="9.148593"><ele>1233.3</ele></trkpt>
      <trkpt lat="42.128175" lon="9.148541"><ele>1231.8</ele></trkpt>
      <trkpt lat="42.128447" lon="9.148219"><ele>1228.8</ele></trkpt>
      <trkpt lat="42.128620" lon="9.148047"><ele>1225.4</ele></trkpt>
      <trkpt lat="42.129183" lon="9.147721"><ele>1216.3</ele></trkpt>
      <trkpt lat="42.129306" lon="9.147686"><ele>1214.7</ele></trkpt>
      <trkpt lat="42.129376" lon="9.147567"><ele>1212.7</ele></trkpt>
      <trkpt lat="42.129921" lon="9.147202"><ele>1202.7</ele></trkpt>
      <trkpt lat="42.130150" lon="9.146975"><ele>1195.5</ele></trkpt>
      <trkpt lat="42.130178" lon="9.146842"><ele>1192.6</ele></trkpt>
      <trkpt lat="42.130461" lon="9.146810"><ele>1186.3</ele></trkpt>
      <trkpt lat="42.130543" lon="9.146766"><ele>1183.7</ele></trkpt>
      <trkpt lat="42.130545" lon="9.146527"><ele>1180.0</ele></trkpt>
      <trkpt lat="42.130841" lon="9.146483"><ele>1171.9</ele></trkpt>
      <trkpt lat="42.130896" lon="9.146223"><ele>1167.2</ele></trkpt>
      <trkpt lat="42.131029" lon="9.146084"><ele>1161.9</ele></trkpt>
      <trkpt lat="42.130977" lon="9.145933"><ele>1161.5</ele></trkpt>
      <trkpt lat="42.131163" lon="9.145856"><ele>1155.8</ele></trkpt>
      <trkpt lat="42.131109" lon="9.145711"><ele>1155.6</ele></trkpt>
      <trkpt lat="42.131499" lon="9.145283"><ele>1139.0</ele></trkpt>
      <trkpt lat="42.131476" lon="9.145037"><ele>1135.9</ele></trkpt>
      <trkpt lat="42.131476" lon="9.144859"><ele>1132.7</ele></trkpt>
      <trkpt lat="42.131672" lon="9.144693"><ele>1122.6</ele></trkpt>
      <trkpt lat="42.131567" lon="9.144556"><ele>1123.1</ele></trkpt>
      <trkpt lat="42.131439" lon="9.144411"><ele>1123.3</ele></trkpt>
      <trkpt lat="42.131127" lon="9.144394"><ele>1129.1</ele></trkpt>
      <trkpt lat="42.130892" lon="9.144420"><ele>1130.9</ele></trkpt>
      <trkpt lat="42.130364" lon="9.144453"><ele>1127.5</ele></trkpt>
      <trkpt lat="42.129991" lon="9.144490"><ele>1124.6</ele></trkpt>
      <trkpt lat="42.129728" lon="9.144462"><ele>1121.4</ele></trkpt>
      <trkpt lat="42.129721" lon="9.144367"><ele>1118.2</ele></trkpt>
      <trkpt lat="42.129820" lon="9.144178"><ele>1112.4</ele></trkpt>
      <trkpt lat="42.130017" lon="9.143973"><ele>1107.4</ele></trkpt>
      <trkpt lat="42.130172" lon="9.143795"><ele>1103.4</ele></trkpt>
      <trkpt lat="42.130384" lon="9.143466"><ele>1095.0</ele></trkpt>
      <trkpt lat="42.130699" lon="9.142988"><ele>1079.2</ele></trkpt>
      <trkpt lat="42.130869" lon="9.142788"><ele>1071.2</ele></trkpt>
      <trkpt lat="42.130982" lon="9.142598"><ele>1063.1</ele></trkpt>
      <trkpt lat="42.130970" lon="9.142555"><ele>1061.7</ele></trkpt>
      <trkpt lat="42.130926" lon="9.142546"><ele>1061.7</ele></trkpt>
      <trkpt lat="42.130697" lon="9.142599"><ele>1064.2</ele></trkpt>
      <trkpt lat="42.130513" lon="9.142658"><ele>1065.4</ele></trkpt>
      <trkpt lat="42.130281" lon="9.142684"><ele>1064.4</ele></trkpt>
      <trkpt lat="42.130073" lon="9.142510"><ele>1055.4</ele></trkpt>
      <trkpt lat="42.129985" lon="9.142472"><ele>1052.6</ele></trkpt>
      <trkpt lat="42.129883" lon="9.142450"><ele>1050.3</ele></trkpt>
      <trkpt lat="42.129819" lon="9.142425"><ele>1048.5</ele></trkpt>
      <trkpt lat="42.129748" lon="9.142402"><ele>1046.7</ele></trkpt>
      <trkpt lat="42.129772" lon="9.142365"><ele>1045.8</ele></trkpt>
      <trkpt lat="42.129882" lon="9.142270"><ele>1044.4</ele></trkpt>
      <trkpt lat="42.129979" lon="9.142271"><ele>1046.0</ele></trkpt>
      <trkpt lat="42.130159" lon="9.142281"><ele>1049.1</ele></trkpt>
      <trkpt lat="42.130332" lon="9.142196"><ele>1048.7</ele></trkpt>
      <trkpt lat="42.130572" lon="9.141936"><ele>1042.5</ele></trkpt>
      <trkpt lat="42.130743" lon="9.141820"><ele>1039.3</ele></trkpt>
      <trkpt lat="42.130957" lon="9.141754"><ele>1035.4</ele></trkpt>
      <trkpt lat="42.131005" lon="9.141696"><ele>1032.9</ele></trkpt>
      <trkpt lat="42.130985" lon="9.141642"><ele>1031.7</ele></trkpt>
      <trkpt lat="42.130946" lon="9.141611"><ele>1031.6</ele></trkpt>
      <trkpt lat="42.130848" lon="9.141611"><ele>1032.9</ele></trkpt>
      <trkpt lat="42.130671" lon="9.141694"><ele>1036.3</ele></trkpt>
      <trkpt lat="42.130468" lon="9.141807"><ele>1038.4</ele></trkpt>
      <trkpt lat="42.130296" lon="9.141914"><ele>1039.8</ele></trkpt>
      <trkpt lat="42.130114" lon="9.141906"><ele>1037.0</ele></trkpt>
      <trkpt lat="42.129879" lon="9.141879"><ele>1032.2</ele></trkpt>
      <trkpt lat="42.129687" lon="9.141896"><ele>1030.1</ele></trkpt>
      <trkpt lat="42.129518" lon="9.141935"><ele>1029.6</ele></trkpt>
      <trkpt lat="42.129368" lon="9.142018"><ele>1031.1</ele></trkpt>
      <trkpt lat="42.129225" lon="9.142130"><ele>1034.5</ele></trkpt>
      <trkpt lat="42.129090" lon="9.142116"><ele>1034.9</ele></trkpt>
      <trkpt lat="42.129014" lon="9.141985"><ele>1032.0</ele></trkpt>
      <trkpt lat="42.128927" lon="9.141806"><ele>1028.8</ele></trkpt>
      <trkpt lat="42.128881" lon="9.141530"><ele>1023.2</ele></trkpt>
      <trkpt lat="42.128787" lon="9.141357"><ele>1021.7</ele></trkpt>
      <trkpt lat="42.128617" lon="9.141186"><ele>1023.0</ele></trkpt>
      <trkpt lat="42.128509" lon="9.140959"><ele>1022.1</ele></trkpt>
      <trkpt lat="42.128445" lon="9.140750"><ele>1020.5</ele></trkpt>
      <trkpt lat="42.128406" lon="9.140423"><ele>1017.0</ele></trkpt>
      <trkpt lat="42.128365" lon="9.140298"><ele>1016.7</ele></trkpt>
      <trkpt lat="42.128207" lon="9.139981"><ele>1018.0</ele></trkpt>
      <trkpt lat="42.128061" lon="9.139777"><ele>1020.1</ele></trkpt>
      <trkpt lat="42.127963" lon="9.139494"><ele>1019.5</ele></trkpt>
      <trkpt lat="42.127827" lon="9.139233"><ele>1020.2</ele></trkpt>
      <trkpt lat="42.127747" lon="9.139032"><ele>1019.8</ele></trkpt>
      <trkpt lat="42.127619" lon="9.138857"><ele>1020.8</ele></trkpt>
      <trkpt lat="42.127448" lon="9.138821"><ele>1025.7</ele></trkpt>
      <trkpt lat="42.127302" lon="9.138773"><ele>1029.6</ele></trkpt>
      <trkpt lat="42.127195" lon="9.138688"><ele>1031.3</ele></trkpt>
      <trkpt lat="42.127157" lon="9.138555"><ele>1029.5</ele></trkpt>
      <trkpt lat="42.127112" lon="9.138374"><ele>1026.6</ele></trkpt>
      <trkpt lat="42.126961" lon="9.138118"><ele>1025.1</ele></trkpt>
      <trkpt lat="42.126714" lon="9.137825"><ele>1024.9</ele></trkpt>
      <trkpt lat="42.126455" lon="9.137590"><ele>1025.9</ele></trkpt>
      <trkpt lat="42.126248" lon="9.137395"><ele>1026.5</ele></trkpt>
      <trkpt lat="42.125932" lon="9.137121"><ele>1026.8</ele></trkpt>
      <trkpt lat="42.125841" lon="9.136918"><ele>1023.2</ele></trkpt>
      <trkpt lat="42.125805" lon="9.136753"><ele>1019.5</ele></trkpt>
      <trkpt lat="42.125890" lon="9.136548"><ele>1013.1</ele></trkpt>
      <trkpt lat="42.125878" lon="9.136373"><ele>1009.0</ele></trkpt>
      <trkpt lat="42.125730" lon="9.136152"><ele>1004.6</ele></trkpt>
      <trkpt lat="42.125465" lon="9.135949"><ele>1000.9</ele></trkpt>
      <trkpt lat="42.124790" lon="9.135477"><ele>999.6</ele></trkpt>
      <trkpt lat="42.124438" lon="9.135430"><ele>1001.6</ele></trkpt>
      <trkpt lat="42.124398" lon="9.135387"><ele>1000.1</ele></trkpt>
      <trkpt lat="42.124399" lon="9.135319"><ele>1000.3</ele></trkpt>
      <trkpt lat="42.124480" lon="9.135153"><ele>998.4</ele></trkpt>
      <trkpt lat="42.124659" lon="9.135047"><ele>997.7</ele></trkpt>
      <trkpt lat="42.124913" lon="9.134837"><ele>994.3</ele></trkpt>
      <trkpt lat="42.125189" lon="9.134727"><ele>988.4</ele></trkpt>
      <trkpt lat="42.125592" lon="9.134667"><ele>979.6</ele></trkpt>
      <trkpt lat="42.126080" lon="9.134566"><ele>969.9</ele></trkpt>
      <trkpt lat="42.126214" lon="9.134552"><ele>967.5</ele></trkpt>
      <trkpt lat="42.126289" lon="9.134548"><ele>966.1</ele></trkpt>
      <trkpt lat="42.126333" lon="9.134546"><ele>965.3</ele></trkpt>
      <trkpt lat="42.126276" lon="9.134085"><ele>966.3</ele></trkpt>
      <trkpt lat="42.126289" lon="9.133915"><ele>966.2</ele></trkpt>
      <trkpt lat="42.126377" lon="9.133667"><ele>964.9</ele></trkpt>
      <trkpt lat="42.126519" lon="9.133511"><ele>960.5</ele></trkpt>
      <trkpt lat="42.126533" lon="9.133496"><ele>960.0</ele></trkpt>
      <trkpt lat="42.126653" lon="9.133380"><ele>955.4</ele></trkpt>
      <trkpt lat="42.126763" lon="9.133275"><ele>951.3</ele></trkpt>
      <trkpt lat="42.126930" lon="9.133052"><ele>944.9</ele></trkpt>
      <trkpt lat="42.127041" lon="9.132898"><ele>940.9</ele></trkpt>
    </trkseg></trk></gpx>