<?xml version='1.0' encoding='UTF-8'?>
<gpx xmlns="http://www.topografix.com/GPX/1/1" version="1.1" creator="merge.py"><trk><name>day4-vizzavona-petra-piana</name><trkseg><trkpt lat="42.127041" lon="9.132898"><ele>940.9</ele></trkpt>
      <trkpt lat="42.127133" lon="9.132757"><ele>937.8</ele></trkpt>
      <trkpt lat="42.127037" lon="9.132643"><ele>939.8</ele></trkpt>
      <trkpt lat="42.126996" lon="9.132545"><ele>940.6</ele></trkpt>
      <trkpt lat="42.126947" lon="9.132396"><ele>941.3</ele></trkpt>
      <trkpt lat="42.126860" lon="9.132055"><ele>942.3</ele></trkpt>
      <trkpt lat="42.126792" lon="9.131632"><ele>943.1</ele></trkpt>
      <trkpt lat="42.126702" lon="9.131420"><ele>945.6</ele></trkpt>
      <trkpt lat="42.126596" lon="9.131294"><ele>948.4</ele></trkpt>
      <trkpt lat="42.126402" lon="9.131210"><ele>952.3</ele></trkpt>
      <trkpt lat="42.126249" lon="9.131166"><ele>955.0</ele></trkpt>
      <trkpt lat="42.126052" lon="9.131193"><ele>958.3</ele></trkpt>
      <trkpt lat="42.125769" lon="9.131167"><ele>962.7</ele></trkpt>
      <trkpt lat="42.125690" lon="9.131042"><ele>963.6</ele></trkpt>
      <trkpt lat="42.125675" lon="9.130921"><ele>963.7</ele></trkpt>
      <trkpt lat="42.125712" lon="9.130800"><ele>963.1</ele></trkpt>
      <trkpt lat="42.125789" lon="9.130740"><ele>961.9</ele></trkpt>
      <trkpt lat="42.125998" lon="9.130646"><ele>958.8</ele></trkpt>
      <trkpt lat="42.126128" lon="9.130568"><ele>956.9</ele></trkpt>
      <trkpt lat="42.126292" lon="9.130402"><ele>955.1</ele></trkpt>
      <trkpt lat="42.126452" lon="9.130192"><ele>955.4</ele></trkpt>
      <trkpt lat="42.126463" lon="9.130094"><ele>956.2</ele></trkpt>
      <trkpt lat="42.126385" lon="9.129954"><ele>958.0</ele></trkpt>
      <trkpt lat="42.126251" lon="9.129688"><ele>961.4</ele></trkpt>
      <trkpt lat="42.126274" lon="9.129513"><ele>962.4</ele></trkpt>
      <trkpt lat="42.126353" lon="9.129377"><ele>962.9</ele></trkpt>
      <trkpt lat="42.126508" lon="9.129156"><ele>963.0</ele></trkpt>
      <trkpt lat="42.126564" lon="9.129070"><ele>962.8</ele></trkpt>
      <trkpt lat="42.126092" lon="9.129074"><ele>968.5</ele></trkpt>
      <trkpt lat="42.125082" lon="9.128726"><ele>974.3</ele></trkpt>
      <trkpt lat="42.124513" lon="9.128494"><ele>978.2</ele></trkpt>
      <trkpt lat="42.124249" lon="9.128251"><ele>981.6</ele></trkpt>
      <trkpt lat="42.124136" lon="9.128160"><ele>982.7</ele></trkpt>
      <trkpt lat="42.123976" lon="9.128108"><ele>983.5</ele></trkpt>
      <trkpt lat="42.123773" lon="9.128124"><ele>983.9</ele></trkpt>
      <trkpt lat="42.123665" lon="9.128186"><ele>983.4</ele></trkpt>
      <trkpt lat="42.123484" lon="9.128285"><ele>982.4</ele></trkpt>
      <trkpt lat="42.123303" lon="9.128394"><ele>981.5</ele></trkpt>
      <trkpt lat="42.123042" lon="9.128526"><ele>980.5</ele></trkpt>
      <trkpt lat="42.122720" lon="9.128650"><ele>978.8</ele></trkpt>
      <trkpt lat="42.122599" lon="9.128576"><ele>979.1</ele></trkpt>
      <trkpt lat="42.122452" lon="9.128544"><ele>979.5</ele></trkpt>
      <trkpt lat="42.122316" lon="9.128566"><ele>979.7</ele></trkpt>
      <trkpt lat="42.122200" lon="9.128587"><ele>980.1</ele></trkpt>
      <trkpt lat="42.122137" lon="9.128567"><ele>980.5</ele></trkpt>
      <trkpt lat="42.122011" lon="9.128466"><ele>981.7</ele></trkpt>
      <trkpt lat="42.121826" lon="9.128201"><ele>984.4</ele></trkpt>
      <trkpt lat="42.121725" lon="9.128031"><ele>986.1</ele></trkpt>
      <trkpt lat="42.121656" lon="9.127896"><ele>987.3</ele></trkpt>
      <trkpt lat="42.121234" lon="9.127710"><ele>990.7</ele></trkpt>
      <trkpt lat="42.121049" lon="9.127531"><ele>992.9</ele></trkpt>
      <trkpt lat="42.120572" lon="9.126139"><ele>1005.6</ele></trkpt>
      <trkpt lat="42.120495" lon="9.125718"><ele>1009.3</ele></trkpt>
      <trkpt lat="42.120621" lon="9.125371"><ele>1012.6</ele></trkpt>
      <trkpt lat="42.120759" lon="9.125292"><ele>1014.4</ele></trkpt>
      <trkpt lat="42.120851" lon="9.125187"><ele>1016.5</ele></trkpt>
      <trkpt lat="42.120842" lon="9.125055"><ele>1018.4</ele></trkpt>
      <trkpt lat="42.120754" lon="9.124814"><ele>1020.7</ele></trkpt>
      <trkpt lat="42.120685" lon="9.124450"><ele>1024.5</ele></trkpt>
      <trkpt lat="42.120650" lon="9.124266"><ele>1026.6</ele></trkpt>
      <trkpt lat="42.120440" lon="9.123795"><ele>1032.2</ele></trkpt>
      <trkpt lat="42.120078" lon="9.123325"><ele>1036.3</ele></trkpt>
      <trkpt lat="42.119878" lon="9.123167"><ele>1036.6</ele></trkpt>
      <trkpt lat="42.119634" lon="9.123031"><ele>1037.8</ele></trkpt>
      <trkpt lat="42.119350" lon="9.122611"><ele>1043.9</ele></trkpt>
      <trkpt lat="42.119050" lon="9.121564"><ele>1056.1</ele></trkpt>
      <trkpt lat="42.118975" lon="9.121293"><ele>1059.4</ele></trkpt>
      <trkpt lat="42.118866" lon="9.121061"><ele>1061.8</ele></trkpt>
      <trkpt lat="42.118605" lon="9.120865"><ele>1062.2</ele></trkpt>
      <trkpt lat="42.117922" lon="9.120173"><ele>1071.7</ele></trkpt>
      <trkpt lat="42.117812" lon="9.119899"><ele>1074.0</ele></trkpt>
      <trkpt lat="42.117773" lon="9.119630"><ele>1075.3</ele></trkpt>
      <trkpt lat="42.117496" lon="9.119071"><ele>1077.2</ele></trkpt>
      <trkpt lat="42.117501" lon="9.118630"><ele>1078.3</ele></trkpt>
      <trkpt lat="42.117470" lon="9.117997"><ele>1081.1</ele></trkpt>
      <trkpt lat="42.117377" lon="9.117398"><ele>1084.0</ele></trkpt>
      <trkpt lat="42.117103" lon="9.116883"><ele>1085.8</ele></trkpt>
      <trkpt lat="42.117289" lon="9.116336"><ele>1088.6</ele></trkpt>
      <trkpt lat="42.117398" lon="9.115410"><ele>1098.7</ele></trkpt>
      <trkpt lat="42.117337" lon="9.114790"><ele>1103.0</ele></trkpt>
      <trkpt lat="42.117172" lon="9.114206"><ele>1105.9</ele></trkpt>
      <trkpt lat="42.116955" lon="9.113465"><ele>1107.6</ele></trkpt>
      <trkpt lat="42.116619" lon="9.112600"><ele>1108.7</ele></trkpt>
      <trkpt lat="42.116479" lon="9.112407"><ele>1107.6</ele></trkpt>
      <trkpt lat="42.116413" lon="9.112389"><ele>1107.1</ele></trkpt>
      <trkpt lat="42.116294" lon="9.112375"><ele>1107.4</ele></trkpt>
      <trkpt lat="42.116269" lon="9.112376"><ele>1107.7</ele></trkpt>
      <trkpt lat="42.116233" lon="9.112323"><ele>1108.2</ele></trkpt>
      <trkpt lat="42.116072" lon="9.111845"><ele>1112.2</ele></trkpt>
      <trkpt lat="42.116016" lon="9.111466"><ele>1116.1</ele></trkpt>
      <trkpt lat="42.116102" lon="9.111076"><ele>1119.7</ele></trkpt>
      <trkpt lat="42.116405" lon="9.110505"><ele>1126.6</ele></trkpt>
      <trkpt lat="42.116580" lon="9.110435"><ele>1125.7</ele></trkpt>
      <trkpt lat="42.116577" lon="9.110249"><ele>1129.9</ele></trkpt>
      <trkpt lat="42.116717" lon="9.110140"><ele>1130.9</ele></trkpt>
      <trkpt lat="42.116956" lon="9.110063"><ele>1123.4</ele></trkpt>
      <trkpt lat="42.117577" lon="9.108954"><ele>1163.3</ele></trkpt>
      <trkpt lat="42.117768" lon="9.108855"><ele>1164.8</ele></trkpt>
      <trkpt lat="42.117759" lon="9.108683"><ele>1174.0</ele></trkpt>
      <trkpt lat="42.117750" lon="9.108642"><ele>1176.1</ele></trkpt>
      <trkpt lat="42.117745" lon="9.108439"><ele>1185.6</ele></trkpt>
      <trkpt lat="42.118033" lon="9.107825"><ele>1209.2</ele></trkpt>
      <trkpt lat="42.118239" lon="9.107474"><ele>1221.5</ele></trkpt>
      <trkpt lat="42.118475" lon="9.107418"><ele>1221.2</ele></trkpt>
      <trkpt lat="42.118485" lon="9.107144"><ele>1231.0</ele></trkpt>
      <trkpt lat="42.118763" lon="9.107025"><ele>1229.9</ele></trkpt>
      <trkpt lat="42.119033" lon="9.106512"><ele>1236.3</ele></trkpt>
      <trkpt lat="42.119128" lon="9.106176"><ele>1242.8</ele></trkpt>
      <trkpt lat="42.119064" lon="9.105944"><ele>1249.9</ele></trkpt>
      <trkpt lat="42.119483" lon="9.104053"><ele>1266.7</ele></trkpt>
      <trkpt lat="42.119357" lon="9.103110"><ele>1274.0</ele></trkpt>
      <trkpt lat="42.119487" lon="9.102302"><ele>1271.7</ele></trkpt>
      <trkpt lat="42.119498" lon="9.101894"><ele>1272.0</ele></trkpt>
      <trkpt lat="42.119335" lon="9.101563"><ele>1274.9</ele></trkpt>
      <trkpt lat="42.119111" lon="9.101399"><ele>1280.2</ele></trkpt>
      <trkpt lat="42.119033" lon="9.101129"><ele>1283.4</ele></trkpt>
      <trkpt lat="42.118904" lon="9.100929"><ele>1287.8</ele></trkpt>
      <trkpt lat="42.118812" lon="9.100701"><ele>1291.3</ele></trkpt>
      <trkpt lat="42.118834" lon="9.100452"><ele>1291.1</ele></trkpt>
      <trkpt lat="42.118967" lon="9.100340"><ele>1287.7</ele></trkpt>
      <trkpt lat="42.119001" lon="9.100274"><ele>1287.3</ele></trkpt>
      <trkpt lat="42.118994" lon="9.100152"><ele>1288.3</ele></trkpt>
      <trkpt lat="42.118957" lon="9.099890"><ele>1291.6</ele></trkpt>
      <trkpt lat="42.119008" lon="9.099849"><ele>1290.9</ele></trkpt>
      <trkpt lat="42.119097" lon="9.099863"><ele>1289.1</ele></trkpt>
      <trkpt lat="42.119158" lon="9.099735"><ele>1290.0</ele></trkpt>
      <trkpt lat="42.119436" lon="9.098459"><ele>1311.4</ele></trkpt>
      <trkpt lat="42.119537" lon="9.098172"><ele>1317.2</ele></trkpt>
      <trkpt lat="42.119638" lon="9.097998"><ele>1317.5</ele></trkpt>
      <trkpt lat="42.119700" lon="9.097842"><ele>1318.7</ele></trkpt>
      <trkpt lat="42.119765" lon="9.097625"><ele>1320.7</ele></trkpt>
      <trkpt lat="42.119788" lon="9.097433"><ele>1326.9</ele></trkpt>
      <trkpt lat="42.119861" lon="9.097354"><ele>1328.6</ele></trkpt>
      <trkpt lat="42.119932" lon="9.097192"><ele>1329.4</ele></trkpt>
      <trkpt lat="42.120220" lon="9.096146"><ele>1349.6</ele></trkpt>
      <trkpt lat="42.120384" lon="9.095911"><ele>1353.8</ele></trkpt>
      <trkpt lat="42.120620" lon="9.095634"><ele>1358.7</ele></trkpt>
      <trkpt lat="42.120813" lon="9.095223"><ele>1363.5</ele></trkpt>
      <trkpt lat="42.120901" lon="9.095046"><ele>1366.7</ele></trkpt>
      <trkpt lat="42.121114" lon="9.094928"><ele>1368.2</ele></trkpt>
      <trkpt lat="42.121086" lon="9.094700"><ele>1373.0</ele></trkpt>
      <trkpt lat="42.121108" lon="9.094463"><ele>1375.8</ele></trkpt>
      <trkpt lat="42.121132" lon="9.094263"><ele>1377.9</ele></trkpt>
      <trkpt lat="42.121049" lon="9.093903"><ele>1382.7</ele></trkpt>
      <trkpt lat="42.121060" lon="9.093787"><ele>1384.1</ele></trkpt>
      <trkpt lat="42.121063" lon="9.093600"><ele>1386.9</ele></trkpt>
      <trkpt lat="42.121020" lon="9.093436"><ele>1390.3</ele></trkpt>
      <trkpt lat="42.121356" lon="9.092011"><ele>1420.8</ele></trkpt>
      <trkpt lat="42.121653" lon="9.091647"><ele>1423.4</ele></trkpt>
      <trkpt lat="42.121680" lon="9.091656"><ele>1422.4</ele></trkpt>
      <trkpt lat="42.121918" lon="9.091635"><ele>1415.5</ele></trkpt>
      <trkpt lat="42.122247" lon="9.091351"><ele>1422.7</ele></trkpt>
      <trkpt lat="42.122234" lon="9.091218"><ele>1424.5</ele></trkpt>
      <trkpt lat="42.122322" lon="9.091084"><ele>1426.9</ele></trkpt>
      <trkpt lat="42.122350" lon="9.090902"><ele>1427.1</ele></trkpt>
      <trkpt lat="42.122758" lon="9.090595"><ele>1431.8</ele></trkpt>
      <trkpt lat="42.122785" lon="9.090426"><ele>1433.8</ele></trkpt>
      <trkpt lat="42.122941" lon="9.090459"><ele>1434.8</ele></trkpt>
      <trkpt lat="42.123471" lon="9.090274"><ele>1439.2</ele></trkpt>
      <trkpt lat="42.123707" lon="9.089988"><ele>1446.4</ele></trkpt>
      <trkpt lat="42.123902" lon="9.089999"><ele>1447.5</ele></trkpt>
      <trkpt lat="42.124082" lon="9.089788"><ele>1454.9</ele></trkpt>
      <trkpt lat="42.125132" lon="9.089355"><ele>1494.0</ele></trkpt>
      <trkpt lat="42.125164" lon="9.089070"><ele>1493.6</ele></trkpt>
      <trkpt lat="42.125231" lon="9.089139"><ele>1496.1</ele></trkpt>
      <trkpt lat="42.125265" lon="9.089075"><ele>1496.9</ele></trkpt>
      <trkpt lat="42.125255" lon="9.088804"><ele>1495.1</ele></trkpt>
      <trkpt lat="42.125372" lon="9.088706"><ele>1498.4</ele></trkpt>
      <trkpt lat="42.125463" lon="9.088545"><ele>1500.6</ele></trkpt>
      <trkpt lat="42.125605" lon="9.088139"><ele>1504.5</ele></trkpt>
      <trkpt lat="42.125991" lon="9.087965"><ele>1515.2</ele></trkpt>
      <trkpt lat="42.126263" lon="9.087508"><ele>1516.2</ele></trkpt>
      <trkpt lat="42.126974" lon="9.087626"><ele>1541.5</ele></trkpt>
      <trkpt lat="42.127245" lon="9.087646"><ele>1552.9</ele></trkpt>
      <trkpt lat="42.127432" lon="9.087743"><ele>1559.4</ele></trkpt>
      <trkpt lat="42.127849" lon="9.087689"><ele>1566.6</ele></trkpt>
      <trkpt lat="42.128219" lon="9.087775"><ele>1579.8</ele></trkpt>
      <trkpt lat="42.128481" lon="9.087745"><ele>1585.4</ele></trkpt>
      <trkpt lat="42.128832" lon="9.087485"><ele>1589.6</ele></trkpt>
      <trkpt lat="42.129015" lon="9.087336"><ele>1593.4</ele></trkpt>
      <trkpt lat="42.129344" lon="9.087057"><ele>1600.3</ele></trkpt>
      <trkpt lat="42.129321" lon="9.086537"><ele>1596.7</ele></trkpt>
      <trkpt lat="42.129383" lon="9.086245"><ele>1595.4</ele></trkpt>
      <trkpt lat="42.130506" lon="9.085777"><ele>1625.7</ele></trkpt>
      <trkpt lat="42.130956" lon="9.085848"><ele>1653.4</ele></trkpt>
      <trkpt lat="42.131044" lon="9.085999"><ele>1658.1</ele></trkpt>
      <trkpt lat="42.131245" lon="9.086067"><ele>1666.1</ele></trkpt>
      <trkpt lat="42.131366" lon="9.086101"><ele>1671.2</ele></trkpt>
      <trkpt lat="42.131542" lon="9.086019"><ele>1679.3</ele></trkpt>
      <trkpt lat="42.131514" lon="9.085624"><ele>1682.7</ele></trkpt>
      <trkpt lat="42.131391" lon="9.085396"><ele>1683.9</ele></trkpt>
      <trkpt lat="42.131382" lon="9.084848"><ele>1696.4</ele></trkpt>
      <trkpt lat="42.131566" lon="9.084650"><ele>1714.0</ele></trkpt>
      <trkpt lat="42.131759" lon="9.084687"><ele>1718.3</ele></trkpt>
      <trkpt lat="42.131825" lon="9.084700"><ele>1719.5</ele></trkpt>
      <trkpt lat="42.131931" lon="9.084814"><ele>1719.2</ele></trkpt>
      <trkpt lat="42.132078" lon="9.084824"><ele>1723.5</ele></trkpt>
      <trkpt lat="42.132214" lon="9.084964"><ele>1725.3</ele></trkpt>
      <trkpt lat="42.132447" lon="9.085119"><ele>1731.5</ele></trkpt>
      <trkpt lat="42.132612" lon="9.085043"><ele>1738.6</ele></trkpt>
      <trkpt lat="42.132825" lon="9.084790"><ele>1749.5</ele></trkpt>
      <trkpt lat="42.133007" lon="9.084588"><ele>1760.2</ele></trkpt>
      <trkpt lat="42.133158" lon="9.084507"><ele>1768.7</ele></trkpt>
      <trkpt lat="42.133232" lon="9.084631"><ele>1770.5</ele></trkpt>
      <trkpt lat="42.133240" lon="9.084819"><ele>1768.0</ele></trkpt>
      <trkpt lat="42.133329" lon="9.084980"><ele>1770.0</ele></trkpt>
      <trkpt lat="42.133591" lon="9.085419"><ele>1776.7</ele></trkpt>
      <trkpt lat="42.133838" lon="9.085564"><ele>1787.3</ele></trkpt>
      <trkpt lat="42.133997" lon="9.085226"><ele>1800.4</ele></trkpt>
      <trkpt lat="42.134037" lon="9.084943"><ele>1808.1</ele></trkpt>
      <trkpt lat="42.134148" lon="9.084897"><ele>1815.3</ele></trkpt>
      <trkpt lat="42.134420" lon="9.084492"><ele>1839.7</ele></trkpt>
      <trkpt lat="42.134509" lon="9.084377"><ele>1847.3</ele></trkpt>
      <trkpt lat="42.134591" lon="9.084416"><ele>1851.5</ele></trkpt>
      <trkpt lat="42.134634" lon="9.084580"><ele>1850.8</ele></trkpt>
      <trkpt lat="42.134734" lon="9.084638"><ele>1855.3</ele></trkpt>
      <trkpt lat="42.134951" lon="9.084683"><ele>1866.9</ele></trkpt>
      <trkpt lat="42.135047" lon="9.084220"><ele>1882.0</ele></trkpt>
      <trkpt lat="42.135247" lon="9.084154"><ele>1894.5</ele></trkpt>
      <trkpt lat="42.135558" lon="9.084285"><ele>1909.9</ele></trkpt>
      <trkpt lat="42.135745" lon="9.084259"><ele>1921.1</ele></trkpt>
      <trkpt lat="42.136030" lon="9.084808"><ele>1928.9</ele></trkpt>
      <trkpt lat="42.136124" lon="9.085323"><ele>1924.5</ele></trkpt>
      <trkpt lat="42.136261" lon="9.085470"><ele>1929.5</ele></trkpt>
      <trkpt lat="42.136796" lon="9.085152"><ele>1970.1</ele></trkpt>
      <trkpt lat="42.136991" lon="9.084996"><ele>1987.1</ele></trkpt>
      <trkpt lat="42.137167" lon="9.084654"><ele>2004.0</ele></trkpt>
      <trkpt lat="42.137161" lon="9.084539"><ele>2004.9</ele></trkpt>
      <trkpt lat="42.137146" lon="9.084413"><ele>2005.2</ele></trkpt>
      <trkpt lat="42.137165" lon="9.084288"><ele>2006.8</ele></trkpt>
      <trkpt lat="42.137197" lon="9.084188"><ele>2008.4</ele></trkpt>
      <trkpt lat="42.137198" lon="9.083955"><ele>2008.8</ele></trkpt>
      <trkpt lat="42.137116" lon="9.083270"><ele>2008.9</ele></trkpt>
      <trkpt lat="42.137255" lon="9.082272"><ele>2016.9</ele></trkpt>
      <trkpt lat="42.137034" lon="9.081773"><ele>2021.1</ele></trkpt>
      <trkpt lat="42.136975" lon="9.080948"><ele>2028.8</ele></trkpt>
      <trkpt lat="42.136806" lon="9.080307"><ele>2033.9</ele></trkpt>
      <trkpt lat="42.136744" lon="9.079122"><ele>2044.2</ele></trkpt>
      <trkpt lat="42.136676" lon="9.078714"><ele>2046.1</ele></trkpt>
      <trkpt lat="42.136780" lon="9.078451"><ele>2045.7</ele></trkpt>
      <trkpt lat="42.136862" lon="9.078178"><ele>2044.7</ele></trkpt>
      <trkpt lat="42.136822" lon="9.077978"><ele>2048.1</ele></trkpt>
      <trkpt lat="42.136657" lon="9.077315"><ele>2071.4</ele></trkpt>
      <trkpt lat="42.136804" lon="9.077261"><ele>2068.7</ele></trkpt>
      <trkpt lat="42.136842" lon="9.076978"><ele>2071.6</ele></trkpt>
      <trkpt lat="42.136900" lon="9.076618"><ele>2066.8</ele></trkpt>
      <trkpt lat="42.137037" lon="9.076497"><ele>2055.6</ele></trkpt>
      <trkpt lat="42.137084" lon="9.076475"><ele>2052.0</ele></trkpt>
      <trkpt lat="42.137077" lon="9.076413"><ele>2050.4</ele></trkpt>
      <trkpt lat="42.137022" lon="9.076397"><ele>2053.2</ele></trkpt>
      <trkpt lat="42.136948" lon="9.076330"><ele>2055.0</ele></trkpt>
      <trkpt lat="42.136941" lon="9.076252"><ele>2051.9</ele></trkpt>
      <trkpt lat="42.137011" lon="9.076180"><ele>2044.3</ele></trkpt>
      <trkpt lat="42.137112" lon="9.076143"><ele>2037.2</ele></trkpt>
      <trkpt lat="42.137484" lon="9.076000"><ele>2016.3</ele></trkpt>
      <trkpt lat="42.137492" lon="9.075844"><ele>2010.7</ele></trkpt>
      <trkpt lat="42.137706" lon="9.075661"><ele>1999.2</ele></trkpt>
      <trkpt lat="42.137950" lon="9.075781"><ele>1995.4</ele></trkpt>
      <trkpt lat="42.138168" lon="9.075833"><ele>1988.9</ele></trkpt>
      <trkpt lat="42.138307" lon="9.075749"><ele>1981.2</ele></trkpt>
      <trkpt lat="42.138528" lon="9.075795"><ele>1972.3</ele></trkpt>
      <trkpt lat="42.138604" lon="9.075702"><ele>1967.2</ele></trkpt>
      <trkpt lat="42.138798" lon="9.075609"><ele>1957.1</ele></trkpt>
      <trkpt lat="42.139096" lon="9.075805"><ele>1947.4</ele></trkpt>
      <trkpt lat="42.139165" lon="9.075590"><ele>1943.5</ele></trkpt>
      <trkpt lat="42.139623" lon="9.075459"><ele>1930.3</ele></trkpt>
      <trkpt lat="42.140038" lon="9.075394"><ele>1920.4</ele></trkpt>
      <trkpt lat="42.140142" lon="9.075114"><ele>1914.8</ele></trkpt>
      <trkpt lat="42.140642" lon="9.074935"><ele>1900.5</ele></trkpt>
      <trkpt lat="42.141315" lon="9.074441"><ele>1876.3</ele></trkpt>
      <trkpt lat="42.141966" lon="9.074471"><ele>1855.0</ele></trkpt>
      <trkpt lat="42.142062" lon="9.074218"><ele>1851.7</ele></trkpt>
      <trkpt lat="42.142386" lon="9.074046"><ele>1841.2</ele></trkpt>
      <trkpt lat="42.142715" lon="9.073621"><ele>1832.0</ele></trkpt>
      <trkpt lat="42.143224" lon="9.073669"><ele>1826.5</ele></trkpt>
      <trkpt lat="42.144551" lon="9.073149"><ele>1800.3</ele></trkpt>
      <trkpt lat="42.145051" lon="9.073085"><ele>1781.8</ele></trkpt>
      <trkpt lat="42.145498" lon="9.073066"><ele>1762.9</ele></trkpt>
      <trkpt lat="42.146024" lon="9.073104"><ele>1736.1</ele></trkpt>
      <trkpt lat="42.146183" lon="9.072692"><ele>1725.1</ele></trkpt>
      <trkpt lat="42.146197" lon="9.072656"><ele>1724.0</ele></trkpt>
      <trkpt lat="42.146679" lon="9.072372"><ele>1695.5</ele></trkpt>
      <trkpt lat="42.146816" lon="9.072195"><ele>1687.3</ele></trkpt>
      <trkpt lat="42.147131" lon="9.072047"><ele>1669.6</ele></trkpt>
      <trkpt lat="42.147455" lon="9.071518"><ele>1644.2</ele></trkpt>
      <trkpt lat="42.148687" lon="9.071049"><ele>1604.1</ele></trkpt>
      <trkpt lat="42.149093" lon="9.070712"><ele>1588.1</ele></trkpt>
      <trkpt lat="42.149712" lon="9.070474"><ele>1567.4</ele></trkpt>
      <trkpt lat="42.149975" lon="9.070284"><ele>1555.1</ele></trkpt>
      <trkpt lat="42.150310" lon="9.070536"><ele>1547.1</ele></trkpt>
      <trkpt lat="42.150861" lon="9.070512"><ele>1521.5</ele></trkpt>
      <trkpt lat="42.151182" lon="9.070689"><ele>1510.1</ele></trkpt>
      <trkpt lat="42.151520" lon="9.070661"><ele>1497.2</ele></trkpt>
      <trkpt lat="42.151746" lon="9.070985"><ele>1494.6</ele></trkpt>
      <trkpt lat="42.152165" lon="9.071488"><ele>1484.8</ele></trkpt>
      <trkpt lat="42.152516" lon="9.071546"><ele>1476.6</ele></trkpt>
      <trkpt lat="42.153126" lon="9.071370"><ele>1465.0</ele></trkpt>
      <trkpt lat="42.153657" lon="9.071767"><ele>1454.8</ele></trkpt>
      <trkpt lat="42.153112" lon="9.072118"><ele>1456.0</ele></trkpt>
      <trkpt lat="42.152872" lon="9.072298"><ele>1453.2</ele></trkpt>
      <trkpt lat="42.152664" lon="9.072425"><ele>1451.2</ele></trkpt>
      <trkpt lat="42.152508" lon="9.072520"><ele>1450.3</ele></trkpt>
      <trkpt lat="42.152446" lon="9.072570"><ele>1449.6</ele></trkpt>
      <trkpt lat="42.152397" lon="9.072639"><ele>1448.0</ele></trkpt>
      <trkpt lat="42.152386" lon="9.072690"><ele>1446.3</ele></trkpt>
      <trkpt lat="42.152406" lon="9.072777"><ele>1442.5</ele></trkpt>
      <trkpt lat="42.152572" lon="9.072963"><ele>1431.6</ele></trkpt>
      <trkpt lat="42.152753" lon="9.073050"><ele>1424.6</ele></trkpt>
      <trkpt lat="42.152927" lon="9.073171"><ele>1417.4</ele></trkpt>
      <trkpt lat="42.152971" lon="9.073221"><ele>1415.3</ele></trkpt>
      <trkpt lat="42.152994" lon="9.073307"><ele>1412.2</ele></trkpt>
      <trkpt lat="42.152979" lon="9.073495"><ele>1406.6</ele></trkpt>
      <trkpt lat="42.152997" lon="9.073580"><ele>1404.1</ele></trkpt>
      <trkpt lat="42.153063" lon="9.073698"><ele>1400.3</ele></trkpt>
    <trkpt lat="42.153119" lon="9.073798"><ele>1397.2</ele></trkpt>
      <trkpt lat="42.153145" lon="9.073839"><ele>1396.0</ele></trkpt>
      <trkpt lat="42.153172" lon="9.073880"><ele>1394.7</ele></trkpt>
      <trkpt lat="42.153183" lon="9.073916"><ele>1393.8</ele></trkpt>
      <trkpt lat="42.153194" lon="9.073951"><ele>1392.9</ele></trkpt>
      <trkpt lat="42.153236" lon="9.074043"><ele>1390.5</ele></trkpt>
      <trkpt lat="42.153274" lon="9.074112"><ele>1388.8</ele></trkpt>
      <trkpt lat="42.153321" lon="9.074081"><ele>1388.7</ele></trkpt>
      <trkpt lat="42.153532" lon="9.073961"><ele>1388.6</ele></trkpt>
      <trkpt lat="42.153625" lon="9.074043"><ele>1385.9</ele></trkpt>
      <trkpt lat="42.153719" lon="9.074060"><ele>1384.6</ele></trkpt>
      <trkpt lat="42.153791" lon="9.074063"><ele>1383.7</ele></trkpt>
      <trkpt lat="42.153880" lon="9.074044"><ele>1383.0</ele></trkpt>
      <trkpt lat="42.153926" lon="9.074066"><ele>1382.0</ele></trkpt>
      <trkpt lat="42.154015" lon="9.074147"><ele>1379.2</ele></trkpt>
      <trkpt lat="42.154062" lon="9.074232"><ele>1376.8</ele></trkpt>
      <trkpt lat="42.154168" lon="9.074221"><ele>1375.8</ele></trkpt>
      <trkpt lat="42.154208" lon="9.074238"><ele>1375.0</ele></trkpt>
      <trkpt lat="42.154346" lon="9.074221"><ele>1374.4</ele></trkpt>
      <trkpt lat="42.154609" lon="9.074182"><ele>1374.8</ele></trkpt>
      <trkpt lat="42.154923" lon="9.074252"><ele>1374.4</ele></trkpt>
      <trkpt lat="42.155168" lon="9.074305"><ele>1375.3</ele></trkpt>
      <trkpt lat="42.155361" lon="9.074451"><ele>1373.1</ele></trkpt>
      <trkpt lat="42.155457" lon="9.074588"><ele>1371.0</ele></trkpt>
      <trkpt lat="42.155555" lon="9.074775"><ele>1367.9</ele></trkpt>
      <trkpt lat="42.155686" lon="9.075012"><ele>1363.2</ele></trkpt>
      <trkpt lat="42.155848" lon="9.075262"><ele>1358.2</ele></trkpt>
      <trkpt lat="42.156000" lon="9.075410"><ele>1355.7</ele></trkpt>
      <trkpt lat="42.156210" lon="9.075602"><ele>1351.5</ele></trkpt>
      <trkpt lat="42.156286" lon="9.075667"><ele>1349.8</ele></trkpt>
      <trkpt lat="42.156471" lon="9.075673"><ele>1350.7</ele></trkpt>
      <trkpt lat="42.156651" lon="9.075971"><ele>1340.1</ele></trkpt>
      <trkpt lat="42.157130" lon="9.076679"><ele>1314.6</ele></trkpt>
      <trkpt lat="42.157248" lon="9.076826"><ele>1310.5</ele></trkpt>
      <trkpt lat="42.157593" lon="9.077188"><ele>1299.9</ele></trkpt>
      <trkpt lat="42.158040" lon="9.077626"><ele>1292.9</ele></trkpt>
      <trkpt lat="42.158115" lon="9.077690"><ele>1292.6</ele></trkpt>
      <trkpt lat="42.158366" lon="9.077812"><ele>1294.4</ele></trkpt>
      <trkpt lat="42.158689" lon="9.078048"><ele>1294.1</ele></trkpt>
      <trkpt lat="42.159170" lon="9.078298"><ele>1292.1</ele></trkpt>
      <trkpt lat="42.159442" lon="9.078480"><ele>1289.7</ele></trkpt>
      <trkpt lat="42.159589" lon="9.078596"><ele>1288.1</ele></trkpt>
      <trkpt lat="42.159799" lon="9.078850"><ele>1283.2</ele></trkpt>
      <trkpt lat="42.159951" lon="9.079009"><ele>1280.1</ele></trkpt>
      <trkpt lat="42.160093" lon="9.079338"><ele>1271.0</ele></trkpt>
      <trkpt lat="42.160247" lon="9.079634"><ele>1262.3</ele></trkpt>
      <trkpt lat="42.160438" lon="9.080002"><ele>1251.0</ele></trkpt>
      <trkpt lat="42.160512" lon="9.080265"><ele>1243.4</ele></trkpt>
      <trkpt lat="42.160672" lon="9.080559"><ele>1236.6</ele></trkpt>
      <trkpt lat="42.160829" lon="9.080713"><ele>1233.5</ele></trkpt>
      <trkpt lat="42.160957" lon="9.081141"><ele>1219.9</ele></trkpt>
      <trkpt lat="42.161026" lon="9.081321"><ele>1215.0</ele></trkpt>
      <trkpt lat="42.161135" lon="9.081492"><ele>1213.2</ele></trkpt>
      <trkpt lat="42.161044" lon="9.081591"><ele>1207.4</ele></trkpt>
      <trkpt lat="42.160925" lon="9.081544"><ele>1202.5</ele></trkpt>
      <trkpt lat="42.160768" lon="9.081406"><ele>1202.2</ele></trkpt>
      <trkpt lat="42.160596" lon="9.081459"><ele>1198.7</ele></trkpt>
      <trkpt lat="42.160627" lon="9.082141"><ele>1201.3</ele></trkpt>
      <trkpt lat="42.160570" lon="9.082291"><ele>1201.1</ele></trkpt>
      <trkpt lat="42.160534" lon="9.082420"><ele>1200.1</ele></trkpt>
      <trkpt lat="42.160482" lon="9.082843"><ele>1195.6</ele></trkpt>
      <trkpt lat="42.160388" lon="9.083215"><ele>1194.4</ele></trkpt>
      <trkpt lat="42.160391" lon="9.083343"><ele>1193.1</ele></trkpt>
      <trkpt lat="42.160445" lon="9.083717"><ele>1186.3</ele></trkpt>
      <trkpt lat="42.160489" lon="9.084135"><ele>1178.8</ele></trkpt>
      <trkpt lat="42.160668" lon="9.084333"><ele>1173.1</ele></trkpt>
      <trkpt lat="42.160730" lon="9.084522"><ele>1170.0</ele></trkpt>
      <trkpt lat="42.160741" lon="9.084888"><ele>1166.8</ele></trkpt>
      <trkpt lat="42.160768" lon="9.085023"><ele>1165.6</ele></trkpt>
      <trkpt lat="42.160862" lon="9.085256"><ele>1162.9</ele></trkpt>
      <trkpt lat="42.160943" lon="9.085561"><ele>1159.9</ele></trkpt>
      <trkpt lat="42.160973" lon="9.085798"><ele>1158.1</ele></trkpt>
      <trkpt lat="42.161019" lon="9.085996"><ele>1156.6</ele></trkpt>
      <trkpt lat="42.161036" lon="9.086200"><ele>1155.6</ele></trkpt>
      <trkpt lat="42.161110" lon="9.086508"><ele>1153.3</ele></trkpt>
      <trkpt lat="42.161185" lon="9.087157"><ele>1146.9</ele></trkpt>
      <trkpt lat="42.161224" lon="9.087272"><ele>1145.1</ele></trkpt>
      <trkpt lat="42.161294" lon="9.088795"><ele>1131.5</ele></trkpt>
      <trkpt lat="42.161524" lon="9.089648"><ele>1122.4</ele></trkpt>
      <trkpt lat="42.161659" lon="9.089916"><ele>1118.3</ele></trkpt>
      <trkpt lat="42.161809" lon="9.090302"><ele>1113.2</ele></trkpt>
      <trkpt lat="42.161950" lon="9.090641"><ele>1109.1</ele></trkpt>
      <trkpt lat="42.162061" lon="9.090913"><ele>1105.5</ele></trkpt>
      <trkpt lat="42.162321" lon="9.091443"><ele>1098.1</ele></trkpt>
      <trkpt lat="42.162432" lon="9.091715"><ele>1095.3</ele></trkpt>
      <trkpt lat="42.162541" lon="9.091902"><ele>1092.5</ele></trkpt>
      <trkpt lat="42.162684" lon="9.092255"><ele>1088.0</ele></trkpt>
      <trkpt lat="42.162860" lon="9.092590"><ele>1081.6</ele></trkpt>
      <trkpt lat="42.163051" lon="9.093009"><ele>1074.8</ele></trkpt>
      <trkpt lat="42.163192" lon="9.093194"><ele>1070.9</ele></trkpt>
      <trkpt lat="42.163268" lon="9.093419"><ele>1068.4</ele></trkpt>
      <trkpt lat="42.163321" lon="9.093514"><ele>1066.7</ele></trkpt>
      <trkpt lat="42.163566" lon="9.093767"><ele>1063.1</ele></trkpt>
      <trkpt lat="42.163748" lon="9.093875"><ele>1060.7</ele></trkpt>
      <trkpt lat="42.163819" lon="9.093944"><ele>1059.8</ele></trkpt>
      <trkpt lat="42.163899" lon="9.094068"><ele>1058.5</ele></trkpt>
      <trkpt lat="42.163973" lon="9.094244"><ele>1057.0</ele></trkpt>
      <trkpt lat="42.164252" lon="9.094676"><ele>1052.5</ele></trkpt>
      <trkpt lat="42.164336" lon="9.094875"><ele>1051.1</ele></trkpt>
      <trkpt lat="42.164639" lon="9.095439"><ele>1047.3</ele></trkpt>
      <trkpt lat="42.164928" lon="9.096125"><ele>1044.7</ele></trkpt>
      <trkpt lat="42.165004" lon="9.096540"><ele>1043.1</ele></trkpt>
      <trkpt lat="42.165041" lon="9.096930"><ele>1041.3</ele></trkpt>
      <trkpt lat="42.165055" lon="9.096986"><ele>1041.3</ele></trkpt>
      <trkpt lat="42.165090" lon="9.097260"><ele>1041.1</ele></trkpt>
      <trkpt lat="42.165211" lon="9.097452"><ele>1039.4</ele></trkpt>
      <trkpt lat="42.165258" lon="9.097605"><ele>1038.4</ele></trkpt>
      <trkpt lat="42.165391" lon="9.097899"><ele>1034.9</ele></trkpt>
      <trkpt lat="42.165548" lon="9.098124"><ele>1031.1</ele></trkpt>
      <trkpt lat="42.165608" lon="9.098296"><ele>1029.2</ele></trkpt>
      <trkpt lat="42.165846" lon="9.098759"><ele>1022.7</ele></trkpt>
      <trkpt lat="42.165906" lon="9.098941"><ele>1018.8</ele></trkpt>
      <trkpt lat="42.165947" lon="9.099329"><ele>1012.7</ele></trkpt>
      <trkpt lat="42.166070" lon="9.099857"><ele>1009.3</ele></trkpt>
      <trkpt lat="42.166127" lon="9.099990"><ele>1009.6</ele></trkpt>
      <trkpt lat="42.166364" lon="9.100205"><ele>1003.6</ele></trkpt>
      <trkpt lat="42.166516" lon="9.100323"><ele>1000.3</ele></trkpt>
      <trkpt lat="42.166651" lon="9.100345"><ele>995.7</ele></trkpt>
      <trkpt lat="42.166903" lon="9.100358"><ele>988.4</ele></trkpt>
      <trkpt lat="42.167127" lon="9.100468"><ele>981.8</ele></trkpt>
      <trkpt lat="42.167519" lon="9.100677"><ele>969.8</ele></trkpt>
      <trkpt lat="42.167687" lon="9.100905"><ele>964.8</ele></trkpt>
      <trkpt lat="42.167798" lon="9.100992"><ele>962.0</ele></trkpt>
      <trkpt lat="42.168005" lon="9.101302"><ele>955.6</ele></trkpt>
      <trkpt lat="42.168207" lon="9.100989"><ele>954.9</ele></trkpt>
      <trkpt lat="42.168313" lon="9.100893"><ele>957.3</ele></trkpt>
      <trkpt lat="42.168419" lon="9.100850"><ele>958.5</ele></trkpt>
      <trkpt lat="42.168577" lon="9.100837"><ele>959.6</ele></trkpt>
      <trkpt lat="42.168807" lon="9.100535"><ele>966.2</ele></trkpt>
      <trkpt lat="42.168971" lon="9.100414"><ele>968.5</ele></trkpt>
      <trkpt lat="42.168899" lon="9.100228"><ele>972.4</ele></trkpt>
      <trkpt lat="42.169089" lon="9.099992"><ele>977.6</ele></trkpt>
      <trkpt lat="42.169298" lon="9.099881"><ele>980.3</ele></trkpt>
      <trkpt lat="42.169527" lon="9.099783"><ele>984.4</ele></trkpt>
      <trkpt lat="42.169542" lon="9.099697"><ele>986.6</ele></trkpt>
      <trkpt lat="42.169651" lon="9.099630"><ele>989.4</ele></trkpt>
      <trkpt lat="42.169784" lon="9.099637"><ele>991.1</ele></trkpt>
      <trkpt lat="42.169815" lon="9.099611"><ele>992.1</ele></trkpt>
      <trkpt lat="42.169890" lon="9.099611"><ele>993.1</ele></trkpt>
      <trkpt lat="42.169942" lon="9.099576"><ele>994.5</ele></trkpt>
      <trkpt lat="42.170002" lon="9.099493"><ele>996.9</ele></trkpt>
      <trkpt lat="42.170163" lon="9.099436"><ele>999.8</ele></trkpt>
      <trkpt lat="42.170615" lon="9.099257"><ele>1005.7</ele></trkpt>
      <trkpt lat="42.170671" lon="9.099248"><ele>1006.2</ele></trkpt>
      <trkpt lat="42.171304" lon="9.098458"><ele>1013.6</ele></trkpt>
      <trkpt lat="42.171520" lon="9.098300"><ele>1013.3</ele></trkpt>
      <trkpt lat="42.171680" lon="9.098197"><ele>1013.8</ele></trkpt>
      <trkpt lat="42.171772" lon="9.097738"><ele>1014.2</ele></trkpt>
      <trkpt lat="42.172061" lon="9.097630"><ele>1017.9</ele></trkpt>
      <trkpt lat="42.172182" lon="9.097480"><ele>1019.6</ele></trkpt>
      <trkpt lat="42.172266" lon="9.097466"><ele>1021.1</ele></trkpt>
      <trkpt lat="42.172607" lon="9.097242"><ele>1027.4</ele></trkpt>
      <trkpt lat="42.173414" lon="9.096416"><ele>1040.5</ele></trkpt>
      <trkpt lat="42.173638" lon="9.095744"><ele>1038.5</ele></trkpt>
      <trkpt lat="42.174087" lon="9.095104"><ele>1044.1</ele></trkpt>
      <trkpt lat="42.174468" lon="9.094253"><ele>1048.8</ele></trkpt>
      <trkpt lat="42.174425" lon="9.093970"><ele>1045.6</ele></trkpt>
      <trkpt lat="42.174360" lon="9.093542"><ele>1040.7</ele></trkpt>
      <trkpt lat="42.174406" lon="9.092626"><ele>1036.8</ele></trkpt>
      <trkpt lat="42.174462" lon="9.092255"><ele>1036.4</ele></trkpt>
      <trkpt lat="42.174954" lon="9.091977"><ele>1035.7</ele></trkpt>
      <trkpt lat="42.175020" lon="9.091631"><ele>1034.6</ele></trkpt>
      <trkpt lat="42.175979" lon="9.090529"><ele>1042.8</ele></trkpt>
      <trkpt lat="42.176498" lon="9.089587"><ele>1045.4</ele></trkpt>
      <trkpt lat="42.176728" lon="9.088568"><ele>1040.6</ele></trkpt>
      <trkpt lat="42.176919" lon="9.088054"><ele>1041.9</ele></trkpt>
      <trkpt lat="42.177077" lon="9.087671"><ele>1044.0</ele></trkpt>
      <trkpt lat="42.177440" lon="9.087332"><ele>1050.6</ele></trkpt>
      <trkpt lat="42.177795" lon="9.086887"><ele>1054.4</ele></trkpt>
      <trkpt lat="42.177996" lon="9.086637"><ele>1056.4</ele></trkpt>
      <trkpt lat="42.178062" lon="9.086318"><ele>1056.2</ele></trkpt>
      <trkpt lat="42.178238" lon="9.085513"><ele>1057.6</ele></trkpt>
      <trkpt lat="42.178350" lon="9.084998"><ele>1060.3</ele></trkpt>
      <trkpt lat="42.178520" lon="9.084628"><ele>1062.9</ele></trkpt>
      <trkpt lat="42.178711" lon="9.084189"><ele>1065.3</ele></trkpt>
      <trkpt lat="42.178965" lon="9.083552"><ele>1069.9</ele></trkpt>
      <trkpt lat="42.179219" lon="9.082450"><ele>1073.4</ele></trkpt>
      <trkpt lat="42.179558" lon="9.081160"><ele>1080.8</ele></trkpt>
      <trkpt lat="42.180532" lon="9.080690"><ele>1097.0</ele></trkpt>
      <trkpt lat="42.180733" lon="9.080432"><ele>1102.5</ele></trkpt>
      <trkpt lat="42.181019" lon="9.080056"><ele>1110.3</ele></trkpt>
      <trkpt lat="42.181107" lon="9.079973"><ele>1113.8</ele></trkpt>
      <trkpt lat="42.181334" lon="9.079721"><ele>1122.1</ele></trkpt>
      <trkpt lat="42.181629" lon="9.078758"><ele>1122.3</ele></trkpt>
      <trkpt lat="42.181816" lon="9.078297"><ele>1124.1</ele></trkpt>
      <trkpt lat="42.181974" lon="9.078048"><ele>1127.8</ele></trkpt>
      <trkpt lat="42.182142" lon="9.077824"><ele>1131.1</ele></trkpt>
      <trkpt lat="42.182462" lon="9.077530"><ele>1133.0</ele></trkpt>
      <trkpt lat="42.182684" lon="9.077323"><ele>1135.0</ele></trkpt>
      <trkpt lat="42.183048" lon="9.076915"><ele>1141.3</ele></trkpt>
      <trkpt lat="42.183642" lon="9.076395"><ele>1155.4</ele></trkpt>
      <trkpt lat="42.183819" lon="9.076199"><ele>1156.3</ele></trkpt>
      <trkpt lat="42.183905" lon="9.076189"><ele>1157.5</ele></trkpt>
      <trkpt lat="42.184055" lon="9.076193"><ele>1160.1</ele></trkpt>
      <trkpt lat="42.184493" lon="9.076286"><ele>1169.4</ele></trkpt>
      <trkpt lat="42.185707" lon="9.075580"><ele>1187.9</ele></trkpt>
      <trkpt lat="42.186050" lon="9.075626"><ele>1192.4</ele></trkpt>
      <trkpt lat="42.186413" lon="9.075717"><ele>1194.0</ele></trkpt>
      <trkpt lat="42.186782" lon="9.075629"><ele>1194.6</ele></trkpt>
      <trkpt lat="42.187006" lon="9.075694"><ele>1200.7</ele></trkpt>
      <trkpt lat="42.187391" lon="9.075643"><ele>1203.7</ele></trkpt>
      <trkpt lat="42.187732" lon="9.075473"><ele>1203.9</ele></trkpt>
      <trkpt lat="42.188018" lon="9.075416"><ele>1220.0</ele></trkpt>
      <trkpt lat="42.188163" lon="9.075388"><ele>1222.8</ele></trkpt>
      <trkpt lat="42.188254" lon="9.075371"><ele>1224.6</ele></trkpt>
      <trkpt lat="42.188412" lon="9.075148"><ele>1219.8</ele></trkpt>
      <trkpt lat="42.188633" lon="9.075006"><ele>1237.0</ele></trkpt>
      <trkpt lat="42.188708" lon="9.074621"><ele>1229.7</ele></trkpt>
      <trkpt lat="42.188949" lon="9.074104"><ele>1236.0</ele></trkpt>
      <trkpt lat="42.189140" lon="9.073572"><ele>1239.1</ele></trkpt>
      <trkpt lat="42.189309" lon="9.073009"><ele>1242.6</ele></trkpt>
      <trkpt lat="42.189330" lon="9.072670"><ele>1243.6</ele></trkpt>
      <trkpt lat="42.189340" lon="9.072347"><ele>1247.3</ele></trkpt>
      <trkpt lat="42.189551" lon="9.072059"><ele>1252.7</ele></trkpt>
      <trkpt lat="42.189664" lon="9.071875"><ele>1255.7</ele></trkpt>
      <trkpt lat="42.189835" lon="9.071514"><ele>1259.2</ele></trkpt>
      <trkpt lat="42.189926" lon="9.071117"><ele>1262.1</ele></trkpt>
      <trkpt lat="42.190096" lon="9.071028"><ele>1266.7</ele></trkpt>
      <trkpt lat="42.190213" lon="9.070878"><ele>1268.5</ele></trkpt>
      <trkpt lat="42.190331" lon="9.070728"><ele>1270.9</ele></trkpt>
      <trkpt lat="42.190441" lon="9.070569"><ele>1274.7</ele></trkpt>
      <trkpt lat="42.190506" lon="9.070361"><ele>1276.6</ele></trkpt>
      <trkpt lat="42.190524" lon="9.069818"><ele>1279.0</ele></trkpt>
      <trkpt lat="42.190636" lon="9.069051"><ele>1284.6</ele></trkpt>
      <trkpt lat="42.190664" lon="9.068870"><ele>1285.4</ele></trkpt>
      <trkpt lat="42.190730" lon="9.068646"><ele>1288.0</ele></trkpt>
      <trkpt lat="42.190761" lon="9.068554"><ele>1288.8</ele></trkpt>
      <trkpt lat="42.190754" lon="9.068455"><ele>1288.9</ele></trkpt>
      <trkpt lat="42.190832" lon="9.068383"><ele>1290.4</ele></trkpt>
      <trkpt lat="42.190970" lon="9.068239"><ele>1293.6</ele></trkpt>
      <trkpt lat="42.191100" lon="9.067986"><ele>1293.8</ele></trkpt>
      <trkpt lat="42.191153" lon="9.067922"><ele>1294.5</ele></trkpt>
      <trkpt lat="42.191233" lon="9.067806"><ele>1295.2</ele></trkpt>
      <trkpt lat="42.191355" lon="9.067596"><ele>1292.9</ele></trkpt>
      <trkpt lat="42.191549" lon="9.067357"><ele>1296.5</ele></trkpt>
      <trkpt lat="42.191745" lon="9.067110"><ele>1298.7</ele></trkpt>
      <trkpt lat="42.191929" lon="9.066890"><ele>1303.9</ele></trkpt>
      <trkpt lat="42.192500" lon="9.066161"><ele>1335.9</ele></trkpt>
      <trkpt lat="42.192792" lon="9.065601"><ele>1342.5</ele></trkpt>
      <trkpt lat="42.192866" lon="9.065511"><ele>1346.1</ele></trkpt>
      <trkpt lat="42.192947" lon="9.065467"><ele>1350.9</ele></trkpt>
      <trkpt lat="42.193043" lon="9.065243"><ele>1353.4</ele></trkpt>
      <trkpt lat="42.193041" lon="9.065076"><ele>1351.0</ele></trkpt>
      <trkpt lat="42.193018" lon="9.065050"><ele>1349.6</ele></trkpt>
      <trkpt lat="42.193075" lon="9.064888"><ele>1349.3</ele></trkpt>
      <trkpt lat="42.193120" lon="9.064791"><ele>1350.1</ele></trkpt>
      <trkpt lat="42.193419" lon="9.063997"><ele>1354.2</ele></trkpt>
      <trkpt lat="42.193447" lon="9.063964"><ele>1355.2</ele></trkpt>
      <trkpt lat="42.193484" lon="9.063793"><ele>1355.2</ele></trkpt>
      <trkpt lat="42.193554" lon="9.063692"><ele>1356.5</ele></trkpt>
      <trkpt lat="42.193767" lon="9.063613"><ele>1360.8</ele></trkpt>
      <trkpt lat="42.193959" lon="9.063561"><ele>1363.9</ele></trkpt>
      <trkpt lat="42.194073" lon="9.063644"><ele>1368.9</ele></trkpt>
      <trkpt lat="42.194234" lon="9.063518"><ele>1369.9</ele></trkpt>
      <trkpt lat="42.194410" lon="9.063463"><ele>1372.3</ele></trkpt>
      <trkpt lat="42.194579" lon="9.063490"><ele>1378.1</ele></trkpt>
      <trkpt lat="42.194818" lon="9.063482"><ele>1390.0</ele></trkpt>
      <trkpt lat="42.194976" lon="9.063466"><ele>1397.0</ele></trkpt>
      <trkpt lat="42.195074" lon="9.063354"><ele>1396.0</ele></trkpt>
      <trkpt lat="42.195320" lon="9.063415"><ele>1411.4</ele></trkpt>
      <trkpt lat="42.195425" lon="9.063451"><ele>1420.7</ele></trkpt>
      <trkpt lat="42.195575" lon="9.063386"><ele>1421.4</ele></trkpt>
      <trkpt lat="42.195635" lon="9.063367"><ele>1420.5</ele></trkpt>
      <trkpt lat="42.195850" lon="9.063325"><ele>1443.4</ele></trkpt>
      <trkpt lat="42.195941" lon="9.063282"><ele>1453.1</ele></trkpt>
      <trkpt lat="42.196070" lon="9.063287"><ele>1461.4</ele></trkpt>
      <trkpt lat="42.196103" lon="9.063278"><ele>1463.5</ele></trkpt>
      <trkpt lat="42.196163" lon="9.063106"><ele>1470.9</ele></trkpt>
      <trkpt lat="42.196168" lon="9.063068"><ele>1472.3</ele></trkpt>
      <trkpt lat="42.196182" lon="9.063023"><ele>1474.4</ele></trkpt>
      <trkpt lat="42.196128" lon="9.062935"><ele>1472.0</ele></trkpt>
      <trkpt lat="42.196169" lon="9.062698"><ele>1477.2</ele></trkpt>
      <trkpt lat="42.196155" lon="9.062391"><ele>1474.2</ele></trkpt>
      <trkpt lat="42.196233" lon="9.062087"><ele>1477.7</ele></trkpt>
      <trkpt lat="42.196263" lon="9.061964"><ele>1479.5</ele></trkpt>
      <trkpt lat="42.196231" lon="9.061907"><ele>1477.8</ele></trkpt>
      <trkpt lat="42.196148" lon="9.061858"><ele>1473.3</ele></trkpt>
      <trkpt lat="42.196098" lon="9.061735"><ele>1471.4</ele></trkpt>
      <trkpt lat="42.196067" lon="9.061571"><ele>1471.6</ele></trkpt>
      <trkpt lat="42.195933" lon="9.061395"><ele>1468.0</ele></trkpt>
      <trkpt lat="42.195792" lon="9.061261"><ele>1464.5</ele></trkpt>
      <trkpt lat="42.195624" lon="9.061031"><ele>1463.3</ele></trkpt>
      <trkpt lat="42.195626" lon="9.060857"><ele>1467.4</ele></trkpt>
      <trkpt lat="42.195615" lon="9.060670"><ele>1471.5</ele></trkpt>
      <trkpt lat="42.195579" lon="9.060291"><ele>1479.7</ele></trkpt>
      <trkpt lat="42.195574" lon="9.060102"><ele>1484.0</ele></trkpt>
      <trkpt lat="42.195539" lon="9.059955"><ele>1486.7</ele></trkpt>
      <trkpt lat="42.195566" lon="9.059823"><ele>1490.3</ele></trkpt>
      <trkpt lat="42.195612" lon="9.059578"><ele>1497.1</ele></trkpt>
      <trkpt lat="42.195572" lon="9.059530"><ele>1497.5</ele></trkpt>
      <trkpt lat="42.195536" lon="9.059488"><ele>1498.0</ele></trkpt>
      <trkpt lat="42.195287" lon="9.059508"><ele>1492.4</ele></trkpt>
      <trkpt lat="42.195227" lon="9.059410"><ele>1492.4</ele></trkpt>
      <trkpt lat="42.195235" lon="9.059255"><ele>1495.5</ele></trkpt>
      <trkpt lat="42.195242" lon="9.059065"><ele>1499.6</ele></trkpt>
      <trkpt lat="42.195259" lon="9.058955"><ele>1503.2</ele></trkpt>
      <trkpt lat="42.195303" lon="9.058860"><ele>1508.7</ele></trkpt>
      <trkpt lat="42.195357" lon="9.058818"><ele>1513.4</ele></trkpt>
      <trkpt lat="42.195282" lon="9.058647"><ele>1514.4</ele></trkpt>
      <trkpt lat="42.195315" lon="9.058505"><ele>1522.0</ele></trkpt>
      <trkpt lat="42.195338" lon="9.058319"><ele>1530.2</ele></trkpt>
      <trkpt lat="42.195256" lon="9.057993"><ele>1535.8</ele></trkpt>
      <trkpt lat="42.195206" lon="9.057872"><ele>1536.5</ele></trkpt>
      <trkpt lat="42.195213" lon="9.057825"><ele>1538.7</ele></trkpt>
      <trkpt lat="42.195182" lon="9.057783"><ele>1537.8</ele></trkpt>
      <trkpt lat="42.195212" lon="9.057718"><ele>1542.4</ele></trkpt>
      <trkpt lat="42.195185" lon="9.057680"><ele>1541.5</ele></trkpt>
      <trkpt lat="42.195210" lon="9.057664"><ele>1544.0</ele></trkpt>
      <trkpt lat="42.195199" lon="9.057632"><ele>1544.2</ele></trkpt>
      <trkpt lat="42.195229" lon="9.057612"><ele>1547.3</ele></trkpt>
      <trkpt lat="42.195241" lon="9.057543"><ele>1550.5</ele></trkpt>
      <trkpt lat="42.195319" lon="9.057583"><ele>1556.2</ele></trkpt>
      <trkpt lat="42.195365" lon="9.057471"><ele>1563.7</ele></trkpt>
      <trkpt lat="42.195450" lon="9.057490"><ele>1568.3</ele></trkpt>
      <trkpt lat="42.195447" lon="9.057374"><ele>1571.9</ele></trkpt>
      <trkpt lat="42.195414" lon="9.057277"><ele>1573.0</ele></trkpt>
      <trkpt lat="42.195433" lon="9.057112"><ele>1577.3</ele></trkpt>
      <trkpt lat="42.195377" lon="9.057014"><ele>1575.3</ele></trkpt>
      <trkpt lat="42.195366" lon="9.056900"><ele>1576.1</ele></trkpt>
      <trkpt lat="42.195360" lon="9.056832"><ele>1576.4</ele></trkpt>
      <trkpt lat="42.195342" lon="9.056730"><ele>1575.5</ele></trkpt>
      <trkpt lat="42.195322" lon="9.056702"><ele>1573.5</ele></trkpt>
      <trkpt lat="42.195315" lon="9.056625"><ele>1573.3</ele></trkpt>
      <trkpt lat="42.195359" lon="9.056672"><ele>1577.8</ele></trkpt>
      <trkpt lat="42.195380" lon="9.056646"><ele>1580.2</ele></trkpt>
      <trkpt lat="42.195356" lon="9.056576"><ele>1578.6</ele></trkpt>
      <trkpt lat="42.195339" lon="9.056497"><ele>1577.8</ele></trkpt>
      <trkpt lat="42.195354" lon="9.056433"><ele>1580.3</ele></trkpt>
      <trkpt lat="42.195346" lon="9.056401"><ele>1580.1</ele></trkpt>
      <trkpt lat="42.195323" lon="9.056376"><ele>1578.4</ele></trkpt>
      <trkpt lat="42.195343" lon="9.056245"><ele>1583.2</ele></trkpt>
      <trkpt lat="42.195360" lon="9.056140"><ele>1587.6</ele></trkpt>
      <trkpt lat="42.195409" lon="9.056074"><ele>1593.5</ele></trkpt>
      <trkpt lat="42.195410" lon="9.055991"><ele>1595.7</ele></trkpt>
      <trkpt lat="42.195436" lon="9.055859"><ele>1601.5</ele></trkpt>
      <trkpt lat="42.195418" lon="9.055795"><ele>1601.3</ele></trkpt>
      <trkpt lat="42.195413" lon="9.055735"><ele>1601.3</ele></trkpt>
      <trkpt lat="42.195409" lon="9.055640"><ele>1599.2</ele></trkpt>
      <trkpt lat="42.195378" lon="9.055555"><ele>1594.2</ele></trkpt>
      <trkpt lat="42.195378" lon="9.055497"><ele>1592.5</ele></trkpt>
      <trkpt lat="42.195363" lon="9.055418"><ele>1591.4</ele></trkpt>
      <trkpt lat="42.195297" lon="9.055371"><ele>1593.7</ele></trkpt>
      <trkpt lat="42.195146" lon="9.055399"><ele>1601.9</ele></trkpt>
      <trkpt lat="42.195019" lon="9.055410"><ele>1603.2</ele></trkpt>
      <trkpt lat="42.194939" lon="9.055357"><ele>1605.5</ele></trkpt>
      <trkpt lat="42.194904" lon="9.055225"><ele>1610.7</ele></trkpt>
      <trkpt lat="42.194876" lon="9.055122"><ele>1614.1</ele></trkpt>
      <trkpt lat="42.194909" lon="9.054850"><ele>1621.1</ele></trkpt>
      <trkpt lat="42.194940" lon="9.054741"><ele>1623.5</ele></trkpt>
      <trkpt lat="42.194928" lon="9.054700"><ele>1624.6</ele></trkpt>
      <trkpt lat="42.194941" lon="9.054659"><ele>1625.4</ele></trkpt>
      <trkpt lat="42.194926" lon="9.054537"><ele>1628.3</ele></trkpt>
      <trkpt lat="42.195035" lon="9.054362"><ele>1632.2</ele></trkpt>
      <trkpt lat="42.195041" lon="9.054149"><ele>1638.9</ele></trkpt>
      <trkpt lat="42.195064" lon="9.053819"><ele>1648.5</ele></trkpt>
      <trkpt lat="42.195118" lon="9.053608"><ele>1654.0</ele></trkpt>
      <trkpt lat="42.195207" lon="9.053362"><ele>1662.7</ele></trkpt>
      <trkpt lat="42.195319" lon="9.053234"><ele>1671.1</ele></trkpt>
      <trkpt lat="42.195457" lon="9.053117"><ele>1679.9</ele></trkpt>
      <trkpt lat="42.195696" lon="9.052910"><ele>1695.8</ele></trkpt>
      <trkpt lat="42.195613" lon="9.052844"><ele>1694.9</ele></trkpt>
      <trkpt lat="42.195603" lon="9.052594"><ele>1700.2</ele></trkpt>
      <trkpt lat="42.195616" lon="9.052565"><ele>1701.5</ele></trkpt>
      <trkpt lat="42.195715" lon="9.052587"><ele>1706.0</ele></trkpt>
      <trkpt lat="42.195761" lon="9.052534"><ele>1709.4</ele></trkpt>
      <trkpt lat="42.195799" lon="9.052362"><ele>1715.2</ele></trkpt>
      <trkpt lat="42.195852" lon="9.052346"><ele>1718.3</ele></trkpt>
      <trkpt lat="42.195949" lon="9.052136"><ele>1728.4</ele></trkpt>
      <trkpt lat="42.195957" lon="9.052119"><ele>1729.2</ele></trkpt>
      <trkpt lat="42.195998" lon="9.052100"><ele>1731.7</ele></trkpt>
      <trkpt lat="42.196014" lon="9.052028"><ele>1734.2</ele></trkpt>
      <trkpt lat="42.196069" lon="9.052007"><ele>1737.5</ele></trkpt>
      <trkpt lat="42.196089" lon="9.051923"><ele>1740.4</ele></trkpt>
      <trkpt lat="42.196151" lon="9.051842"><ele>1745.6</ele></trkpt>
      <trkpt lat="42.196176" lon="9.051595"><ele>1752.1</ele></trkpt>
      <trkpt lat="42.196328" lon="9.051286"><ele>1767.3</ele></trkpt>
      <trkpt lat="42.196505" lon="9.051220"><ele>1779.0</ele></trkpt>
      <trkpt lat="42.196695" lon="9.050789"><ele>1797.1</ele></trkpt>
      <trkpt lat="42.196716" lon="9.050797"><ele>1798.1</ele></trkpt>
      <trkpt lat="42.196871" lon="9.050853"><ele>1806.0</ele></trkpt>
      <trkpt lat="42.196971" lon="9.050889"><ele>1811.2</ele></trkpt>
      <trkpt lat="42.197027" lon="9.051082"><ele>1811.2</ele></trkpt>
      <trkpt lat="42.197114" lon="9.051169"><ele>1814.8</ele></trkpt>
      <trkpt lat="42.197121" lon="9.050963"><ele>1818.8</ele></trkpt>
      <trkpt lat="42.197126" lon="9.050835"><ele>1821.3</ele></trkpt>
      <trkpt lat="42.197230" lon="9.051011"><ele>1824.3</ele></trkpt>
      <trkpt lat="42.197221" lon="9.050814"><ele>1827.1</ele></trkpt>
      <trkpt lat="42.197176" lon="9.050661"><ele>1827.2</ele></trkpt>
      <trkpt lat="42.197266" lon="9.050669"><ele>1832.1</ele></trkpt>
      <trkpt lat="42.197234" lon="9.050582"><ele>1831.8</ele></trkpt>
      <trkpt lat="42.197293" lon="9.050607"><ele>1834.7</ele></trkpt>
      <trkpt lat="42.197256" lon="9.050495"><ele>1834.5</ele></trkpt>
      <trkpt lat="42.197349" lon="9.050573"><ele>1838.3</ele></trkpt>
      <trkpt lat="42.197304" lon="9.050403"><ele>1838.6</ele></trkpt>
      <trkpt lat="42.197309" lon="9.050275"><ele>1841.0</ele></trkpt>
      <trkpt lat="42.197299" lon="9.050232"><ele>1841.2</ele></trkpt>
      <trkpt lat="42.197279" lon="9.050141"><ele>1841.7</ele></trkpt>
      <trkpt lat="42.197308" lon="9.050136"><ele>1843.4</ele></trkpt>
      <trkpt lat="42.197328" lon="9.050077"><ele>1845.6</ele></trkpt>
      <trkpt lat="42.197321" lon="9.050003"><ele>1846.7</ele></trkpt>
      <trkpt lat="42.197406" lon="9.050143"><ele>1848.6</ele></trkpt>
      <trkpt lat="42.197418" lon="9.050022"><ele>1851.7</ele></trkpt>
      <trkpt lat="42.197577" lon="9.050463"><ele>1853.1</ele></trkpt>
      <trkpt lat="42.197581" lon="9.050532"><ele>1852.3</ele></trkpt>
      <trkpt lat="42.197583" lon="9.050557"><ele>1852.0</ele></trkpt>
      <trkpt lat="42.197656" lon="9.050667"><ele>1854.4</ele></trkpt>
      <trkpt lat="42.197696" lon="9.050793"><ele>1854.6</ele></trkpt>
      <trkpt lat="42.197766" lon="9.050866"><ele>1856.9</ele></trkpt>
      <trkpt lat="42.197795" lon="9.050987"><ele>1856.3</ele></trkpt>
      <trkpt lat="42.197785" lon="9.051232"><ele>1851.6</ele></trkpt>
      <trkpt lat="42.197955" lon="9.051329"><ele>1857.0</ele></trkpt>
    </trkseg></trk></gpx>