<?xml version='1.0' encoding='UTF-8'?>
<gpx xmlns="http://www.topografix.com/GPX/1/1" version="1.1" creator="merge.py"><trk><name>day6-ciottulu-carrozzu</name><trkseg><trkpt lat="42.334982" lon="8.867956"><ele>1993.9</ele></trkpt>
      <trkpt lat="42.335049" lon="8.868122"><ele>1992.3</ele></trkpt>
      <trkpt lat="42.335127" lon="8.868299"><ele>1990.8</ele></trkpt>
      <trkpt lat="42.335186" lon="8.868385"><ele>1990.6</ele></trkpt>
      <trkpt lat="42.335326" lon="8.868577"><ele>1990.8</ele></trkpt>
      <trkpt lat="42.335361" lon="8.868659"><ele>1990.7</ele></trkpt>
      <trkpt lat="42.335387" lon="8.868722"><ele>1990.9</ele></trkpt>
      <trkpt lat="42.335427" lon="8.868856"><ele>1991.0</ele></trkpt>
      <trkpt lat="42.335486" lon="8.868980"><ele>1992.1</ele></trkpt>
      <trkpt lat="42.335504" lon="8.869122"><ele>1992.4</ele></trkpt>
      <trkpt lat="42.335490" lon="8.869165"><ele>1992.1</ele></trkpt>
      <trkpt lat="42.335478" lon="8.869255"><ele>1991.9</ele></trkpt>
      <trkpt lat="42.335487" lon="8.869520"><ele>1993.6</ele></trkpt>
      <trkpt lat="42.335461" lon="8.869690"><ele>1994.3</ele></trkpt>
      <trkpt lat="42.335434" lon="8.869822"><ele>1994.8</ele></trkpt>
      <trkpt lat="42.335420" lon="8.869964"><ele>1995.9</ele></trkpt>
      <trkpt lat="42.335421" lon="8.870171"><ele>1998.4</ele></trkpt>
      <trkpt lat="42.335397" lon="8.870267"><ele>1998.8</ele></trkpt>
      <trkpt lat="42.335401" lon="8.870342"><ele>2000.1</ele></trkpt>
      <trkpt lat="42.335363" lon="8.870449"><ele>2000.6</ele></trkpt>
      <trkpt lat="42.335357" lon="8.870482"><ele>2001.0</ele></trkpt>
      <trkpt lat="42.335298" lon="8.870539"><ele>2000.0</ele></trkpt>
      <trkpt lat="42.335256" lon="8.870673"><ele>2000.9</ele></trkpt>
      <trkpt lat="42.335228" lon="8.870844"><ele>2003.2</ele></trkpt>
      <trkpt lat="42.335155" lon="8.871048"><ele>2004.2</ele></trkpt>
      <trkpt lat="42.335133" lon="8.871178"><ele>2005.6</ele></trkpt>
      <trkpt lat="42.335115" lon="8.871305"><ele>2007.2</ele></trkpt>
      <trkpt lat="42.335126" lon="8.871349"><ele>2008.6</ele></trkpt>
      <trkpt lat="42.335087" lon="8.871467"><ele>2009.2</ele></trkpt>
      <trkpt lat="42.335049" lon="8.871578"><ele>2009.9</ele></trkpt>
      <trkpt lat="42.335025" lon="8.871599"><ele>2009.3</ele></trkpt>
      <trkpt lat="42.335019" lon="8.871651"><ele>2010.2</ele></trkpt>
      <trkpt lat="42.335066" lon="8.871726"><ele>2014.0</ele></trkpt>
      <trkpt lat="42.335082" lon="8.871795"><ele>2016.3</ele></trkpt>
      <trkpt lat="42.335061" lon="8.871917"><ele>2018.3</ele></trkpt>
      <trkpt lat="42.335009" lon="8.872054"><ele>2019.7</ele></trkpt>
      <trkpt lat="42.334766" lon="8.872954"><ele>2037.6</ele></trkpt>
      <trkpt lat="42.334759" lon="8.872979"><ele>2038.1</ele></trkpt>
      <trkpt lat="42.334736" lon="8.873431"><ele>2047.7</ele></trkpt>
      <trkpt lat="42.334515" lon="8.873810"><ele>2046.2</ele></trkpt>
      <trkpt lat="42.334384" lon="8.874138"><ele>2044.5</ele></trkpt>
      <trkpt lat="42.334318" lon="8.874215"><ele>2042.0</ele></trkpt>
      <trkpt lat="42.333907" lon="8.874910"><ele>2022.6</ele></trkpt>
      <trkpt lat="42.333791" lon="8.875264"><ele>2014.1</ele></trkpt>
      <trkpt lat="42.333726" lon="8.875459"><ele>2009.2</ele></trkpt>
      <trkpt lat="42.333507" lon="8.875772"><ele>1997.4</ele></trkpt>
      <trkpt lat="42.333335" lon="8.875982"><ele>1988.9</ele></trkpt>
      <trkpt lat="42.333188" lon="8.876240"><ele>1980.1</ele></trkpt>
      <trkpt lat="42.333062" lon="8.876433"><ele>1973.2</ele></trkpt>
      <trkpt lat="42.332585" lon="8.876541"><ele>1959.4</ele></trkpt>
      <trkpt lat="42.332598" lon="8.876678"><ele>1957.1</ele></trkpt>
      <trkpt lat="42.332610" lon="8.876794"><ele>1955.0</ele></trkpt>
      <trkpt lat="42.332771" lon="8.876996"><ele>1953.5</ele></trkpt>
      <trkpt lat="42.332853" lon="8.877345"><ele>1944.9</ele></trkpt>
      <trkpt lat="42.332867" lon="8.877441"><ele>1942.2</ele></trkpt>
      <trkpt lat="42.332878" lon="8.877512"><ele>1940.1</ele></trkpt>
      <trkpt lat="42.332888" lon="8.877574"><ele>1938.3</ele></trkpt>
      <trkpt lat="42.332896" lon="8.877637"><ele>1936.4</ele></trkpt>
      <trkpt lat="42.332948" lon="8.877681"><ele>1935.8</ele></trkpt>
      <trkpt lat="42.332947" lon="8.877751"><ele>1933.5</ele></trkpt>
      <trkpt lat="42.333025" lon="8.877852"><ele>1931.5</ele></trkpt>
      <trkpt lat="42.333045" lon="8.877915"><ele>1929.6</ele></trkpt>
      <trkpt lat="42.333184" lon="8.878029"><ele>1927.6</ele></trkpt>
      <trkpt lat="42.333272" lon="8.878133"><ele>1924.6</ele></trkpt>
      <trkpt lat="42.333307" lon="8.878171"><ele>1923.6</ele></trkpt>
      <trkpt lat="42.333392" lon="8.878210"><ele>1923.3</ele></trkpt>
      <trkpt lat="42.333472" lon="8.878196"><ele>1925.3</ele></trkpt>
      <trkpt lat="42.333527" lon="8.878224"><ele>1925.3</ele></trkpt>
      <trkpt lat="42.333576" lon="8.878320"><ele>1922.1</ele></trkpt>
      <trkpt lat="42.333614" lon="8.878462"><ele>1916.6</ele></trkpt>
      <trkpt lat="42.333699" lon="8.878553"><ele>1914.3</ele></trkpt>
      <trkpt lat="42.334009" lon="8.878863"><ele>1909.0</ele></trkpt>
      <trkpt lat="42.334042" lon="8.878975"><ele>1905.0</ele></trkpt>
      <trkpt lat="42.334078" lon="8.879020"><ele>1904.2</ele></trkpt>
      <trkpt lat="42.334102" lon="8.879076"><ele>1902.6</ele></trkpt>
      <trkpt lat="42.334118" lon="8.879167"><ele>1899.1</ele></trkpt>
      <trkpt lat="42.334156" lon="8.879249"><ele>1896.9</ele></trkpt>
      <trkpt lat="42.334228" lon="8.879411"><ele>1892.7</ele></trkpt>
      <trkpt lat="42.334257" lon="8.879521"><ele>1889.3</ele></trkpt>
      <trkpt lat="42.334255" lon="8.879596"><ele>1886.1</ele></trkpt>
      <trkpt lat="42.334251" lon="8.879686"><ele>1882.3</ele></trkpt>
      <trkpt lat="42.334230" lon="8.879751"><ele>1878.7</ele></trkpt>
      <trkpt lat="42.334155" lon="8.879804"><ele>1873.3</ele></trkpt>
      <trkpt lat="42.334066" lon="8.879838"><ele>1868.5</ele></trkpt>
      <trkpt lat="42.334037" lon="8.879834"><ele>1867.7</ele></trkpt>
      <trkpt lat="42.334013" lon="8.879820"><ele>1867.5</ele></trkpt>
      <trkpt lat="42.333997" lon="8.879854"><ele>1865.7</ele></trkpt>
      <trkpt lat="42.333945" lon="8.879881"><ele>1863.2</ele></trkpt>
      <trkpt lat="42.333896" lon="8.879934"><ele>1859.8</ele></trkpt>
      <trkpt lat="42.333887" lon="8.880004"><ele>1856.7</ele></trkpt>
      <trkpt lat="42.333895" lon="8.880081"><ele>1853.6</ele></trkpt>
      <trkpt lat="42.333898" lon="8.880164"><ele>1850.2</ele></trkpt>
      <trkpt lat="42.333943" lon="8.880259"><ele>1847.5</ele></trkpt>
      <trkpt lat="42.333991" lon="8.880325"><ele>1846.4</ele></trkpt>
      <trkpt lat="42.334091" lon="8.880488"><ele>1844.1</ele></trkpt>
      <trkpt lat="42.334007" lon="8.880797"><ele>1828.8</ele></trkpt>
      <trkpt lat="42.334082" lon="8.880889"><ele>1828.1</ele></trkpt>
      <trkpt lat="42.333974" lon="8.881123"><ele>1814.6</ele></trkpt>
      <trkpt lat="42.333840" lon="8.881324"><ele>1800.6</ele></trkpt>
      <trkpt lat="42.333957" lon="8.881416"><ele>1802.2</ele></trkpt>
      <trkpt lat="42.333936" lon="8.881564"><ele>1795.4</ele></trkpt>
      <trkpt lat="42.333908" lon="8.881605"><ele>1792.5</ele></trkpt>
      <trkpt lat="42.333861" lon="8.881575"><ele>1791.4</ele></trkpt>
      <trkpt lat="42.333824" lon="8.881588"><ele>1788.4</ele></trkpt>
      <trkpt lat="42.333824" lon="8.881634"><ele>1786.5</ele></trkpt>
      <trkpt lat="42.333855" lon="8.881707"><ele>1785.5</ele></trkpt>
      <trkpt lat="42.333837" lon="8.881757"><ele>1782.1</ele></trkpt>
      <trkpt lat="42.333813" lon="8.881821"><ele>1777.0</ele></trkpt>
      <trkpt lat="42.333837" lon="8.881914"><ele>1772.9</ele></trkpt>
      <trkpt lat="42.333931" lon="8.882008"><ele>1772.1</ele></trkpt>
      <trkpt lat="42.333973" lon="8.882088"><ele>1769.7</ele></trkpt>
      <trkpt lat="42.333999" lon="8.882123"><ele>1769.5</ele></trkpt>
      <trkpt lat="42.334047" lon="8.882157"><ele>1771.4</ele></trkpt>
      <trkpt lat="42.334046" lon="8.882190"><ele>1769.6</ele></trkpt>
      <trkpt lat="42.334050" lon="8.882292"><ele>1764.8</ele></trkpt>
      <trkpt lat="42.334092" lon="8.882339"><ele>1765.8</ele></trkpt>
      <trkpt lat="42.334102" lon="8.882440"><ele>1761.7</ele></trkpt>
      <trkpt lat="42.334127" lon="8.882523"><ele>1759.5</ele></trkpt>
      <trkpt lat="42.334161" lon="8.882570"><ele>1759.5</ele></trkpt>
      <trkpt lat="42.334189" lon="8.882645"><ele>1757.5</ele></trkpt>
      <trkpt lat="42.334241" lon="8.882812"><ele>1752.5</ele></trkpt>
      <trkpt lat="42.334277" lon="8.882934"><ele>1748.8</ele></trkpt>
      <trkpt lat="42.334323" lon="8.883043"><ele>1746.6</ele></trkpt>
      <trkpt lat="42.334328" lon="8.883140"><ele>1742.6</ele></trkpt>
      <trkpt lat="42.334341" lon="8.883322"><ele>1735.4</ele></trkpt>
      <trkpt lat="42.334383" lon="8.883490"><ele>1730.8</ele></trkpt>
      <trkpt lat="42.334398" lon="8.883551"><ele>1729.1</ele></trkpt>
      <trkpt lat="42.334469" lon="8.883794"><ele>1723.6</ele></trkpt>
      <trkpt lat="42.334535" lon="8.884077"><ele>1715.6</ele></trkpt>
      <trkpt lat="42.334538" lon="8.884129"><ele>1713.4</ele></trkpt>
      <trkpt lat="42.334513" lon="8.884171"><ele>1709.7</ele></trkpt>
      <trkpt lat="42.334516" lon="8.884257"><ele>1706.0</ele></trkpt>
      <trkpt lat="42.334564" lon="8.884313"><ele>1706.4</ele></trkpt>
      <trkpt lat="42.334571" lon="8.884412"><ele>1702.0</ele></trkpt>
      <trkpt lat="42.334594" lon="8.884533"><ele>1697.4</ele></trkpt>
      <trkpt lat="42.334603" lon="8.884639"><ele>1692.9</ele></trkpt>
      <trkpt lat="42.334657" lon="8.884728"><ele>1691.6</ele></trkpt>
      <trkpt lat="42.334741" lon="8.884921"><ele>1686.8</ele></trkpt>
      <trkpt lat="42.334796" lon="8.885053"><ele>1682.9</ele></trkpt>
      <trkpt lat="42.334808" lon="8.885136"><ele>1679.5</ele></trkpt>
      <trkpt lat="42.334801" lon="8.885233"><ele>1674.8</ele></trkpt>
      <trkpt lat="42.334713" lon="8.885354"><ele>1666.2</ele></trkpt>
      <trkpt lat="42.334667" lon="8.885592"><ele>1655.7</ele></trkpt>
      <trkpt lat="42.334777" lon="8.885874"><ele>1649.9</ele></trkpt>
      <trkpt lat="42.334904" lon="8.886035"><ele>1648.3</ele></trkpt>
      <trkpt lat="42.334957" lon="8.886091"><ele>1647.9</ele></trkpt>
      <trkpt lat="42.334965" lon="8.886112"><ele>1647.5</ele></trkpt>
      <trkpt lat="42.334981" lon="8.886185"><ele>1645.8</ele></trkpt>
      <trkpt lat="42.335002" lon="8.886307"><ele>1642.9</ele></trkpt>
      <trkpt lat="42.335412" lon="8.887118"><ele>1603.3</ele></trkpt>
      <trkpt lat="42.335604" lon="8.887219"><ele>1603.6</ele></trkpt>
      <trkpt lat="42.335631" lon="8.887451"><ele>1602.0</ele></trkpt>
      <trkpt lat="42.335626" lon="8.887670"><ele>1600.7</ele></trkpt>
      <trkpt lat="42.335578" lon="8.887878"><ele>1597.0</ele></trkpt>
      <trkpt lat="42.335590" lon="8.887997"><ele>1594.9</ele></trkpt>
      <trkpt lat="42.335631" lon="8.888254"><ele>1591.1</ele></trkpt>
      <trkpt lat="42.335667" lon="8.888625"><ele>1582.6</ele></trkpt>
      <trkpt lat="42.335614" lon="8.888763"><ele>1571.6</ele></trkpt>
      <trkpt lat="42.335489" lon="8.889211"><ele>1549.3</ele></trkpt>
      <trkpt lat="42.335429" lon="8.889384"><ele>1542.4</ele></trkpt>
      <trkpt lat="42.335437" lon="8.889568"><ele>1537.4</ele></trkpt>
      <trkpt lat="42.335424" lon="8.889836"><ele>1528.5</ele></trkpt>
      <trkpt lat="42.335418" lon="8.890006"><ele>1523.4</ele></trkpt>
      <trkpt lat="42.335403" lon="8.890137"><ele>1518.7</ele></trkpt>
      <trkpt lat="42.335366" lon="8.890317"><ele>1511.9</ele></trkpt>
      <trkpt lat="42.335392" lon="8.890622"><ele>1503.8</ele></trkpt>
      <trkpt lat="42.335416" lon="8.890734"><ele>1501.2</ele></trkpt>
      <trkpt lat="42.335520" lon="8.890901"><ele>1498.5</ele></trkpt>
      <trkpt lat="42.335521" lon="8.891053"><ele>1494.2</ele></trkpt>
      <trkpt lat="42.335537" lon="8.891333"><ele>1486.7</ele></trkpt>
      <trkpt lat="42.335601" lon="8.891581"><ele>1481.6</ele></trkpt>
      <trkpt lat="42.335738" lon="8.891883"><ele>1477.3</ele></trkpt>
      <trkpt lat="42.335763" lon="8.892169"><ele>1470.7</ele></trkpt>
      <trkpt lat="42.335838" lon="8.892595"><ele>1461.9</ele></trkpt>
      <trkpt lat="42.335880" lon="8.892955"><ele>1454.5</ele></trkpt>
      <trkpt lat="42.335923" lon="8.893349"><ele>1447.3</ele></trkpt>
      <trkpt lat="42.336047" lon="8.893858"><ele>1441.1</ele></trkpt>
      <trkpt lat="42.336254" lon="8.894476"><ele>1434.0</ele></trkpt>
      <trkpt lat="42.336210" lon="8.894842"><ele>1425.2</ele></trkpt>
      <trkpt lat="42.336351" lon="8.896314"><ele>1414.4</ele></trkpt>
      <trkpt lat="42.336506" lon="8.896633"><ele>1417.2</ele></trkpt>
      <trkpt lat="42.336732" lon="8.897050"><ele>1423.2</ele></trkpt>
      <trkpt lat="42.336868" lon="8.897629"><ele>1421.1</ele></trkpt>
      <trkpt lat="42.337026" lon="8.898029"><ele>1422.9</ele></trkpt>
      <trkpt lat="42.337282" lon="8.898368"><ele>1431.4</ele></trkpt>
      <trkpt lat="42.337510" lon="8.898828"><ele>1432.5</ele></trkpt>
      <trkpt lat="42.337674" lon="8.899279"><ele>1429.6</ele></trkpt>
      <trkpt lat="42.337887" lon="8.899669"><ele>1432.6</ele></trkpt>
      <trkpt lat="42.337984" lon="8.900003"><ele>1428.0</ele></trkpt>
      <trkpt lat="42.338052" lon="8.900460"><ele>1421.3</ele></trkpt>
      <trkpt lat="42.338158" lon="8.901042"><ele>1412.9</ele></trkpt>
      <trkpt lat="42.338591" lon="8.902172"><ele>1398.8</ele></trkpt>
      <trkpt lat="42.338968" lon="8.902373"><ele>1396.2</ele></trkpt>
      <trkpt lat="42.339306" lon="8.902326"><ele>1396.5</ele></trkpt>
      <trkpt lat="42.340659" lon="8.902024"><ele>1404.7</ele></trkpt>
      <trkpt lat="42.341434" lon="8.902127"><ele>1397.5</ele></trkpt>
      <trkpt lat="42.341564" lon="8.901991"><ele>1396.7</ele></trkpt>
      <trkpt lat="42.342185" lon="8.901600"><ele>1380.0</ele></trkpt>
      <trkpt lat="42.342537" lon="8.901115"><ele>1382.2</ele></trkpt>
      <trkpt lat="42.342722" lon="8.900640"><ele>1388.0</ele></trkpt>
      <trkpt lat="42.343204" lon="8.900396"><ele>1382.0</ele></trkpt>
      <trkpt lat="42.343297" lon="8.900348"><ele>1381.4</ele></trkpt>
      <trkpt lat="42.343408" lon="8.900560"><ele>1379.7</ele></trkpt>
      <trkpt lat="42.343730" lon="8.901165"><ele>1386.5</ele></trkpt>
      <trkpt lat="42.344011" lon="8.901368"><ele>1394.0</ele></trkpt>
      <trkpt lat="42.344209" lon="8.901937"><ele>1394.8</ele></trkpt>
      <trkpt lat="42.344416" lon="8.902578"><ele>1392.5</ele></trkpt>
      <trkpt lat="42.344683" lon="8.903251"><ele>1389.3</ele></trkpt>
      <trkpt lat="42.345059" lon="8.903640"><ele>1395.0</ele></trkpt>
      <trkpt lat="42.345623" lon="8.903876"><ele>1407.1</ele></trkpt>
      <trkpt lat="42.346032" lon="8.904102"><ele>1414.6</ele></trkpt>
      <trkpt lat="42.346322" lon="8.904621"><ele>1414.0</ele></trkpt>
      <trkpt lat="42.346734" lon="8.905043"><ele>1420.5</ele></trkpt>
      <trkpt lat="42.347456" lon="8.905487"><ele>1434.6</ele></trkpt>
      <trkpt lat="42.347868" lon="8.905938"><ele>1429.5</ele></trkpt>
      <trkpt lat="42.348137" lon="8.906258"><ele>1420.7</ele></trkpt>
      <trkpt lat="42.348498" lon="8.906425"><ele>1417.1</ele></trkpt>
      <trkpt lat="42.349057" lon="8.906436"><ele>1419.6</ele></trkpt>
      <trkpt lat="42.349469" lon="8.906626"><ele>1414.5</ele></trkpt>
      <trkpt lat="42.349852" lon="8.906802"><ele>1413.9</ele></trkpt>
      <trkpt lat="42.350280" lon="8.906642"><ele>1425.1</ele></trkpt>
      <trkpt lat="42.350765" lon="8.906644"><ele>1433.8</ele></trkpt>
      <trkpt lat="42.351332" lon="8.907142"><ele>1425.5</ele></trkpt>
      <trkpt lat="42.351800" lon="8.907184"><ele>1435.7</ele></trkpt>
      <trkpt lat="42.352329" lon="8.907403"><ele>1441.9</ele></trkpt>
      <trkpt lat="42.352821" lon="8.907589"><ele>1453.0</ele></trkpt>
      <trkpt lat="42.352948" lon="8.907704"><ele>1454.3</ele></trkpt>
      <trkpt lat="42.353003" lon="8.907812"><ele>1454.3</ele></trkpt>
      <trkpt lat="42.353168" lon="8.907905"><ele>1458.0</ele></trkpt>
      <trkpt lat="42.353249" lon="8.907893"><ele>1460.9</ele></trkpt>
      <trkpt lat="42.353311" lon="8.908089"><ele>1460.6</ele></trkpt>
      <trkpt lat="42.353418" lon="8.908130"><ele>1463.7</ele></trkpt>
      <trkpt lat="42.353600" lon="8.908158"><ele>1470.0</ele></trkpt>
      <trkpt lat="42.353689" lon="8.908238"><ele>1472.0</ele></trkpt>
      <trkpt lat="42.353935" lon="8.908794"><ele>1472.8</ele></trkpt>
      <trkpt lat="42.354041" lon="8.908920"><ele>1474.3</ele></trkpt>
      <trkpt lat="42.354243" lon="8.909038"><ele>1478.0</ele></trkpt>
      <trkpt lat="42.354394" lon="8.909166"><ele>1480.5</ele></trkpt>
      <trkpt lat="42.354521" lon="8.909389"><ele>1481.2</ele></trkpt>
      <trkpt lat="42.354906" lon="8.909501"><ele>1487.5</ele></trkpt>
      <trkpt lat="42.355231" lon="8.909620"><ele>1492.6</ele></trkpt>
      <trkpt lat="42.355329" lon="8.909618"><ele>1494.8</ele></trkpt>
      <trkpt lat="42.355449" lon="8.909615"><ele>1497.1</ele></trkpt>
      <trkpt lat="42.355678" lon="8.909595"><ele>1501.2</ele></trkpt>
      <trkpt lat="42.355748" lon="8.909636"><ele>1501.7</ele></trkpt>
      <trkpt lat="42.355966" lon="8.909630"><ele>1505.5</ele></trkpt>
      <trkpt lat="42.356124" lon="8.909606"><ele>1508.2</ele></trkpt>
      <trkpt lat="42.356284" lon="8.909714"><ele>1507.6</ele></trkpt>
      <trkpt lat="42.356405" lon="8.909675"><ele>1509.3</ele></trkpt>
      <trkpt lat="42.356494" lon="8.909673"><ele>1509.7</ele></trkpt>
      <trkpt lat="42.356644" lon="8.909574"><ele>1513.1</ele></trkpt>
      <trkpt lat="42.356772" lon="8.909575"><ele>1513.5</ele></trkpt>
      <trkpt lat="42.356970" lon="8.909504"><ele>1516.0</ele></trkpt>
      <trkpt lat="42.357043" lon="8.909449"><ele>1515.9</ele></trkpt>
      <trkpt lat="42.357203" lon="8.909397"><ele>1515.1</ele></trkpt>
      <trkpt lat="42.357305" lon="8.909429"><ele>1514.4</ele></trkpt>
      <trkpt lat="42.357321" lon="8.909454"><ele>1513.6</ele></trkpt>
      <trkpt lat="42.357444" lon="8.909676"><ele>1515.1</ele></trkpt>
      <trkpt lat="42.357733" lon="8.909761"><ele>1522.3</ele></trkpt>
      <trkpt lat="42.357874" lon="8.909715"><ele>1524.0</ele></trkpt>
      <trkpt lat="42.357946" lon="8.909802"><ele>1527.6</ele></trkpt>
      <trkpt lat="42.358067" lon="8.909803"><ele>1531.1</ele></trkpt>
      <trkpt lat="42.358167" lon="8.909688"><ele>1530.2</ele></trkpt>
      <trkpt lat="42.358367" lon="8.909659"><ele>1539.6</ele></trkpt>
      <trkpt lat="42.358415" lon="8.909737"><ele>1543.2</ele></trkpt>
      <trkpt lat="42.358717" lon="8.909784"><ele>1555.4</ele></trkpt>
      <trkpt lat="42.358980" lon="8.909909"><ele>1566.8</ele></trkpt>
      <trkpt lat="42.359110" lon="8.909886"><ele>1570.7</ele></trkpt>
      <trkpt lat="42.359243" lon="8.909869"><ele>1574.4</ele></trkpt>
      <trkpt lat="42.359398" lon="8.909958"><ele>1581.8</ele></trkpt>
      <trkpt lat="42.359620" lon="8.909980"><ele>1591.1</ele></trkpt>
      <trkpt lat="42.359900" lon="8.909904"><ele>1596.4</ele></trkpt>
      <trkpt lat="42.360100" lon="8.909778"><ele>1593.7</ele></trkpt>
      <trkpt lat="42.360298" lon="8.909598"><ele>1597.0</ele></trkpt>
      <trkpt lat="42.360339" lon="8.909552"><ele>1601.1</ele></trkpt>
      <trkpt lat="42.360402" lon="8.909403"><ele>1607.3</ele></trkpt>
      <trkpt lat="42.360542" lon="8.909349"><ele>1613.1</ele></trkpt>
      <trkpt lat="42.360748" lon="8.909459"><ele>1621.5</ele></trkpt>
      <trkpt lat="42.360810" lon="8.909690"><ele>1625.4</ele></trkpt>
      <trkpt lat="42.360848" lon="8.909799"><ele>1627.5</ele></trkpt>
      <trkpt lat="42.360971" lon="8.909916"><ele>1632.3</ele></trkpt>
      <trkpt lat="42.361190" lon="8.909998"><ele>1639.1</ele></trkpt>
      <trkpt lat="42.361386" lon="8.909974"><ele>1646.7</ele></trkpt>
      <trkpt lat="42.361505" lon="8.910017"><ele>1652.0</ele></trkpt>
      <trkpt lat="42.361562" lon="8.910108"><ele>1654.5</ele></trkpt>
      <trkpt lat="42.361648" lon="8.910119"><ele>1657.6</ele></trkpt>
      <trkpt lat="42.361852" lon="8.910010"><ele>1665.7</ele></trkpt>
      <trkpt lat="42.362013" lon="8.910002"><ele>1672.9</ele></trkpt>
      <trkpt lat="42.362139" lon="8.909963"><ele>1678.7</ele></trkpt>
    <trkpt lat="42.362242" lon="8.909984"><ele>1683.8</ele></trkpt>
      <trkpt lat="42.362272" lon="8.910247"><ele>1685.4</ele></trkpt>
      <trkpt lat="42.362208" lon="8.910652"><ele>1682.0</ele></trkpt>
      <trkpt lat="42.362201" lon="8.911016"><ele>1682.1</ele></trkpt>
      <trkpt lat="42.362252" lon="8.911240"><ele>1685.2</ele></trkpt>
      <trkpt lat="42.362279" lon="8.911437"><ele>1687.1</ele></trkpt>
      <trkpt lat="42.362281" lon="8.911534"><ele>1687.5</ele></trkpt>
      <trkpt lat="42.362216" lon="8.911650"><ele>1685.1</ele></trkpt>
      <trkpt lat="42.362192" lon="8.911765"><ele>1684.4</ele></trkpt>
      <trkpt lat="42.362275" lon="8.911870"><ele>1688.2</ele></trkpt>
      <trkpt lat="42.362306" lon="8.911934"><ele>1689.8</ele></trkpt>
      <trkpt lat="42.362404" lon="8.912150"><ele>1694.5</ele></trkpt>
      <trkpt lat="42.362472" lon="8.912326"><ele>1697.6</ele></trkpt>
      <trkpt lat="42.362666" lon="8.912460"><ele>1706.1</ele></trkpt>
      <trkpt lat="42.362826" lon="8.912866"><ele>1712.7</ele></trkpt>
      <trkpt lat="42.362961" lon="8.913130"><ele>1717.0</ele></trkpt>
      <trkpt lat="42.362960" lon="8.913227"><ele>1715.6</ele></trkpt>
      <trkpt lat="42.363092" lon="8.913417"><ele>1720.3</ele></trkpt>
      <trkpt lat="42.363277" lon="8.913597"><ele>1732.0</ele></trkpt>
      <trkpt lat="42.363355" lon="8.913811"><ele>1735.1</ele></trkpt>
      <trkpt lat="42.363607" lon="8.913943"><ele>1743.7</ele></trkpt>
      <trkpt lat="42.363638" lon="8.913973"><ele>1744.9</ele></trkpt>
      <trkpt lat="42.363706" lon="8.914036"><ele>1747.7</ele></trkpt>
      <trkpt lat="42.363805" lon="8.914048"><ele>1751.2</ele></trkpt>
      <trkpt lat="42.363818" lon="8.914146"><ele>1752.0</ele></trkpt>
      <trkpt lat="42.363995" lon="8.914248"><ele>1756.4</ele></trkpt>
      <trkpt lat="42.364134" lon="8.914412"><ele>1759.5</ele></trkpt>
      <trkpt lat="42.364270" lon="8.914479"><ele>1762.3</ele></trkpt>
      <trkpt lat="42.364454" lon="8.914479"><ele>1766.0</ele></trkpt>
      <trkpt lat="42.364797" lon="8.914732"><ele>1775.9</ele></trkpt>
      <trkpt lat="42.364971" lon="8.915197"><ele>1789.3</ele></trkpt>
      <trkpt lat="42.365022" lon="8.915280"><ele>1793.6</ele></trkpt>
      <trkpt lat="42.365022" lon="8.915321"><ele>1794.4</ele></trkpt>
      <trkpt lat="42.364998" lon="8.915379"><ele>1794.3</ele></trkpt>
      <trkpt lat="42.364985" lon="8.915461"><ele>1795.2</ele></trkpt>
      <trkpt lat="42.364990" lon="8.915573"><ele>1797.7</ele></trkpt>
      <trkpt lat="42.364979" lon="8.915658"><ele>1798.7</ele></trkpt>
      <trkpt lat="42.365005" lon="8.915683"><ele>1800.6</ele></trkpt>
      <trkpt lat="42.365024" lon="8.915776"><ele>1802.8</ele></trkpt>
      <trkpt lat="42.365149" lon="8.916034"><ele>1810.6</ele></trkpt>
      <trkpt lat="42.365373" lon="8.916473"><ele>1830.3</ele></trkpt>
      <trkpt lat="42.365568" lon="8.916553"><ele>1843.4</ele></trkpt>
      <trkpt lat="42.365773" lon="8.917024"><ele>1855.9</ele></trkpt>
      <trkpt lat="42.365920" lon="8.917363"><ele>1863.7</ele></trkpt>
      <trkpt lat="42.366325" lon="8.917969"><ele>1886.0</ele></trkpt>
      <trkpt lat="42.366551" lon="8.918167"><ele>1900.2</ele></trkpt>
      <trkpt lat="42.366667" lon="8.918335"><ele>1907.5</ele></trkpt>
      <trkpt lat="42.366685" lon="8.918468"><ele>1908.8</ele></trkpt>
      <trkpt lat="42.366789" lon="8.918545"><ele>1915.5</ele></trkpt>
      <trkpt lat="42.366904" lon="8.918553"><ele>1922.4</ele></trkpt>
      <trkpt lat="42.367049" lon="8.918562"><ele>1931.2</ele></trkpt>
      <trkpt lat="42.367104" lon="8.918577"><ele>1934.6</ele></trkpt>
      <trkpt lat="42.367169" lon="8.918645"><ele>1938.6</ele></trkpt>
      <trkpt lat="42.367181" lon="8.918871"><ele>1938.8</ele></trkpt>
      <trkpt lat="42.367215" lon="8.919143"><ele>1941.1</ele></trkpt>
      <trkpt lat="42.367326" lon="8.919189"><ele>1948.0</ele></trkpt>
      <trkpt lat="42.367500" lon="8.919176"><ele>1956.1</ele></trkpt>
      <trkpt lat="42.367613" lon="8.919355"><ele>1961.7</ele></trkpt>
      <trkpt lat="42.367669" lon="8.919551"><ele>1964.8</ele></trkpt>
      <trkpt lat="42.367699" lon="8.919731"><ele>1967.0</ele></trkpt>
      <trkpt lat="42.367946" lon="8.920245"><ele>1982.8</ele></trkpt>
      <trkpt lat="42.367950" lon="8.920357"><ele>1984.7</ele></trkpt>
      <trkpt lat="42.367939" lon="8.920467"><ele>1986.2</ele></trkpt>
      <trkpt lat="42.367898" lon="8.920554"><ele>1986.3</ele></trkpt>
      <trkpt lat="42.367946" lon="8.920719"><ele>1991.8</ele></trkpt>
      <trkpt lat="42.367869" lon="8.920978"><ele>1995.8</ele></trkpt>
      <trkpt lat="42.367890" lon="8.921081"><ele>1999.7</ele></trkpt>
      <trkpt lat="42.367990" lon="8.921123"><ele>2004.6</ele></trkpt>
      <trkpt lat="42.368100" lon="8.921135"><ele>2009.3</ele></trkpt>
      <trkpt lat="42.368148" lon="8.921220"><ele>2013.8</ele></trkpt>
      <trkpt lat="42.368243" lon="8.921371"><ele>2022.3</ele></trkpt>
      <trkpt lat="42.368291" lon="8.921571"><ele>2030.4</ele></trkpt>
      <trkpt lat="42.368226" lon="8.921785"><ele>2034.8</ele></trkpt>
      <trkpt lat="42.368237" lon="8.921937"><ele>2039.9</ele></trkpt>
      <trkpt lat="42.368437" lon="8.922292"><ele>2057.2</ele></trkpt>
      <trkpt lat="42.368722" lon="8.922649"><ele>2078.8</ele></trkpt>
      <trkpt lat="42.368879" lon="8.923153"><ele>2099.1</ele></trkpt>
      <trkpt lat="42.368974" lon="8.923272"><ele>2106.9</ele></trkpt>
      <trkpt lat="42.369039" lon="8.923689"><ele>2120.5</ele></trkpt>
      <trkpt lat="42.369160" lon="8.923803"><ele>2130.0</ele></trkpt>
      <trkpt lat="42.369300" lon="8.923570"><ele>2133.0</ele></trkpt>
      <trkpt lat="42.369476" lon="8.923736"><ele>2147.5</ele></trkpt>
      <trkpt lat="42.369631" lon="8.924385"><ele>2170.0</ele></trkpt>
      <trkpt lat="42.369677" lon="8.924828"><ele>2182.5</ele></trkpt>
      <trkpt lat="42.370003" lon="8.925263"><ele>2206.8</ele></trkpt>
      <trkpt lat="42.369951" lon="8.925427"><ele>2209.3</ele></trkpt>
      <trkpt lat="42.369983" lon="8.925698"><ele>2219.7</ele></trkpt>
      <trkpt lat="42.370059" lon="8.925863"><ele>2228.8</ele></trkpt>
      <trkpt lat="42.370349" lon="8.925862"><ele>2240.5</ele></trkpt>
      <trkpt lat="42.370537" lon="8.926050"><ele>2255.8</ele></trkpt>
      <trkpt lat="42.370702" lon="8.926122"><ele>2265.5</ele></trkpt>
      <trkpt lat="42.370958" lon="8.926130"><ele>2275.6</ele></trkpt>
      <trkpt lat="42.371047" lon="8.926265"><ele>2283.8</ele></trkpt>
      <trkpt lat="42.371250" lon="8.926296"><ele>2291.2</ele></trkpt>
      <trkpt lat="42.371298" lon="8.926410"><ele>2297.0</ele></trkpt>
      <trkpt lat="42.371436" lon="8.926453"><ele>2302.5</ele></trkpt>
      <trkpt lat="42.371520" lon="8.926432"><ele>2304.1</ele></trkpt>
      <trkpt lat="42.371580" lon="8.926592"><ele>2311.5</ele></trkpt>
      <trkpt lat="42.371730" lon="8.926677"><ele>2318.8</ele></trkpt>
      <trkpt lat="42.371821" lon="8.926717"><ele>2323.0</ele></trkpt>
      <trkpt lat="42.371969" lon="8.927150"><ele>2343.9</ele></trkpt>
      <trkpt lat="42.372093" lon="8.927567"><ele>2365.0</ele></trkpt>
      <trkpt lat="42.372053" lon="8.927766"><ele>2371.3</ele></trkpt>
      <trkpt lat="42.371955" lon="8.927952"><ele>2376.3</ele></trkpt>
      <trkpt lat="42.371915" lon="8.928311"><ele>2393.6</ele></trkpt>
      <trkpt lat="42.371889" lon="8.928543"><ele>2404.5</ele></trkpt>
      <trkpt lat="42.371622" lon="8.928815"><ele>2408.6</ele></trkpt>
      <trkpt lat="42.371657" lon="8.928890"><ele>2412.4</ele></trkpt>
      <trkpt lat="42.371560" lon="8.928971"><ele>2412.5</ele></trkpt>
      <trkpt lat="42.371557" lon="8.929056"><ele>2415.0</ele></trkpt>
      <trkpt lat="42.371457" lon="8.929161"><ele>2414.8</ele></trkpt>
      <trkpt lat="42.371351" lon="8.929314"><ele>2414.7</ele></trkpt>
      <trkpt lat="42.371334" lon="8.929417"><ele>2415.4</ele></trkpt>
      <trkpt lat="42.371339" lon="8.929481"><ele>2416.1</ele></trkpt>
      <trkpt lat="42.371388" lon="8.929528"><ele>2417.7</ele></trkpt>
      <trkpt lat="42.371485" lon="8.929691"><ele>2421.2</ele></trkpt>
      <trkpt lat="42.371509" lon="8.929810"><ele>2421.7</ele></trkpt>
      <trkpt lat="42.371552" lon="8.929912"><ele>2422.5</ele></trkpt>
      <trkpt lat="42.371686" lon="8.930009"><ele>2426.4</ele></trkpt>
      <trkpt lat="42.371837" lon="8.930097"><ele>2431.5</ele></trkpt>
      <trkpt lat="42.371969" lon="8.930110"><ele>2436.9</ele></trkpt>
      <trkpt lat="42.372233" lon="8.930185"><ele>2445.5</ele></trkpt>
      <trkpt lat="42.372457" lon="8.930363"><ele>2450.5</ele></trkpt>
      <trkpt lat="42.372777" lon="8.931160"><ele>2459.4</ele></trkpt>
      <trkpt lat="42.372809" lon="8.931378"><ele>2460.1</ele></trkpt>
      <trkpt lat="42.372928" lon="8.931595"><ele>2464.6</ele></trkpt>
      <trkpt lat="42.372939" lon="8.931646"><ele>2464.8</ele></trkpt>
      <trkpt lat="42.372985" lon="8.931665"><ele>2466.8</ele></trkpt>
      <trkpt lat="42.373043" lon="8.931761"><ele>2468.7</ele></trkpt>
      <trkpt lat="42.373207" lon="8.931942"><ele>2472.9</ele></trkpt>
      <trkpt lat="42.373252" lon="8.931947"><ele>2472.9</ele></trkpt>
      <trkpt lat="42.373431" lon="8.932253"><ele>2466.7</ele></trkpt>
      <trkpt lat="42.373618" lon="8.932512"><ele>2472.4</ele></trkpt>
      <trkpt lat="42.373823" lon="8.932832"><ele>2480.0</ele></trkpt>
      <trkpt lat="42.373926" lon="8.932990"><ele>2480.8</ele></trkpt>
      <trkpt lat="42.374083" lon="8.933173"><ele>2480.3</ele></trkpt>
      <trkpt lat="42.374128" lon="8.933195"><ele>2480.4</ele></trkpt>
      <trkpt lat="42.374152" lon="8.933258"><ele>2480.1</ele></trkpt>
      <trkpt lat="42.374197" lon="8.933320"><ele>2480.1</ele></trkpt>
      <trkpt lat="42.374311" lon="8.933358"><ele>2481.0</ele></trkpt>
      <trkpt lat="42.374404" lon="8.933470"><ele>2482.3</ele></trkpt>
      <trkpt lat="42.374575" lon="8.933637"><ele>2486.3</ele></trkpt>
      <trkpt lat="42.374623" lon="8.933763"><ele>2488.9</ele></trkpt>
      <trkpt lat="42.374660" lon="8.933764"><ele>2489.6</ele></trkpt>
      <trkpt lat="42.374677" lon="8.933830"><ele>2491.1</ele></trkpt>
      <trkpt lat="42.374711" lon="8.933884"><ele>2492.8</ele></trkpt>
      <trkpt lat="42.374778" lon="8.934081"><ele>2498.3</ele></trkpt>
      <trkpt lat="42.374850" lon="8.934102"><ele>2500.5</ele></trkpt>
      <trkpt lat="42.374891" lon="8.934046"><ele>2500.0</ele></trkpt>
      <trkpt lat="42.374992" lon="8.934026"><ele>2501.0</ele></trkpt>
      <trkpt lat="42.375029" lon="8.934073"><ele>2502.8</ele></trkpt>
      <trkpt lat="42.375150" lon="8.934013"><ele>2501.5</ele></trkpt>
      <trkpt lat="42.375163" lon="8.934056"><ele>2502.9</ele></trkpt>
      <trkpt lat="42.375225" lon="8.934038"><ele>2502.0</ele></trkpt>
      <trkpt lat="42.375254" lon="8.934073"><ele>2503.1</ele></trkpt>
      <trkpt lat="42.375296" lon="8.934108"><ele>2503.9</ele></trkpt>
      <trkpt lat="42.375298" lon="8.934151"><ele>2505.4</ele></trkpt>
      <trkpt lat="42.375351" lon="8.934245"><ele>2508.1</ele></trkpt>
      <trkpt lat="42.375329" lon="8.934385"><ele>2512.8</ele></trkpt>
      <trkpt lat="42.375310" lon="8.934697"><ele>2521.5</ele></trkpt>
      <trkpt lat="42.375333" lon="8.935015"><ele>2529.8</ele></trkpt>
      <trkpt lat="42.375462" lon="8.935224"><ele>2534.6</ele></trkpt>
      <trkpt lat="42.375527" lon="8.935433"><ele>2539.3</ele></trkpt>
      <trkpt lat="42.375539" lon="8.935534"><ele>2541.7</ele></trkpt>
      <trkpt lat="42.375593" lon="8.935626"><ele>2543.8</ele></trkpt>
      <trkpt lat="42.375616" lon="8.935932"><ele>2551.2</ele></trkpt>
      <trkpt lat="42.375795" lon="8.936212"><ele>2558.3</ele></trkpt>
      <trkpt lat="42.375793" lon="8.936305"><ele>2560.3</ele></trkpt>
      <trkpt lat="42.375836" lon="8.936366"><ele>2561.9</ele></trkpt>
      <trkpt lat="42.375935" lon="8.936598"><ele>2567.0</ele></trkpt>
      <trkpt lat="42.375915" lon="8.936744"><ele>2569.0</ele></trkpt>
      <trkpt lat="42.375980" lon="8.936802"><ele>2570.4</ele></trkpt>
      <trkpt lat="42.376025" lon="8.936960"><ele>2572.7</ele></trkpt>
      <trkpt lat="42.376365" lon="8.937491"><ele>2577.6</ele></trkpt>
      <trkpt lat="42.376422" lon="8.937572"><ele>2577.1</ele></trkpt>
      <trkpt lat="42.376428" lon="8.937676"><ele>2578.3</ele></trkpt>
      <trkpt lat="42.376464" lon="8.937734"><ele>2578.2</ele></trkpt>
      <trkpt lat="42.376504" lon="8.937829"><ele>2578.5</ele></trkpt>
      <trkpt lat="42.376566" lon="8.937901"><ele>2577.5</ele></trkpt>
      <trkpt lat="42.376605" lon="8.937888"><ele>2575.5</ele></trkpt>
      <trkpt lat="42.376647" lon="8.937960"><ele>2575.0</ele></trkpt>
      <trkpt lat="42.376696" lon="8.937925"><ele>2571.8</ele></trkpt>
      <trkpt lat="42.376742" lon="8.937944"><ele>2569.7</ele></trkpt>
      <trkpt lat="42.376946" lon="8.938110"><ele>2561.2</ele></trkpt>
      <trkpt lat="42.377063" lon="8.938218"><ele>2556.6</ele></trkpt>
      <trkpt lat="42.377150" lon="8.938276"><ele>2552.2</ele></trkpt>
      <trkpt lat="42.377188" lon="8.938216"><ele>2546.9</ele></trkpt>
      <trkpt lat="42.377289" lon="8.938219"><ele>2538.8</ele></trkpt>
      <trkpt lat="42.377330" lon="8.938161"><ele>2533.1</ele></trkpt>
      <trkpt lat="42.377367" lon="8.938228"><ele>2532.6</ele></trkpt>
      <trkpt lat="42.377479" lon="8.938327"><ele>2527.3</ele></trkpt>
      <trkpt lat="42.377553" lon="8.938484"><ele>2527.5</ele></trkpt>
      <trkpt lat="42.377604" lon="8.938490"><ele>2523.2</ele></trkpt>
      <trkpt lat="42.377655" lon="8.938448"><ele>2517.0</ele></trkpt>
      <trkpt lat="42.377688" lon="8.938376"><ele>2511.1</ele></trkpt>
      <trkpt lat="42.377798" lon="8.938306"><ele>2498.9</ele></trkpt>
      <trkpt lat="42.377877" lon="8.938311"><ele>2492.2</ele></trkpt>
      <trkpt lat="42.377871" lon="8.938380"><ele>2495.2</ele></trkpt>
      <trkpt lat="42.377962" lon="8.938419"><ele>2488.4</ele></trkpt>
      <trkpt lat="42.377963" lon="8.938337"><ele>2485.5</ele></trkpt>
      <trkpt lat="42.378034" lon="8.938403"><ele>2481.2</ele></trkpt>
      <trkpt lat="42.378095" lon="8.938397"><ele>2475.2</ele></trkpt>
      <trkpt lat="42.378163" lon="8.938445"><ele>2470.1</ele></trkpt>
      <trkpt lat="42.378197" lon="8.938533"><ele>2469.6</ele></trkpt>
      <trkpt lat="42.378262" lon="8.938605"><ele>2465.3</ele></trkpt>
      <trkpt lat="42.378364" lon="8.938694"><ele>2457.5</ele></trkpt>
      <trkpt lat="42.378388" lon="8.938769"><ele>2457.4</ele></trkpt>
      <trkpt lat="42.378445" lon="8.938826"><ele>2453.0</ele></trkpt>
      <trkpt lat="42.378581" lon="8.938962"><ele>2442.0</ele></trkpt>
      <trkpt lat="42.378635" lon="8.939020"><ele>2437.6</ele></trkpt>
      <trkpt lat="42.378671" lon="8.939029"><ele>2433.8</ele></trkpt>
      <trkpt lat="42.378720" lon="8.939077"><ele>2429.7</ele></trkpt>
      <trkpt lat="42.378793" lon="8.939050"><ele>2420.8</ele></trkpt>
      <trkpt lat="42.378904" lon="8.939032"><ele>2408.2</ele></trkpt>
      <trkpt lat="42.378948" lon="8.939090"><ele>2405.3</ele></trkpt>
      <trkpt lat="42.379021" lon="8.939072"><ele>2397.5</ele></trkpt>
      <trkpt lat="42.379112" lon="8.939184"><ele>2391.9</ele></trkpt>
      <trkpt lat="42.379143" lon="8.939128"><ele>2387.6</ele></trkpt>
      <trkpt lat="42.379205" lon="8.939138"><ele>2382.4</ele></trkpt>
      <trkpt lat="42.379227" lon="8.939095"><ele>2379.4</ele></trkpt>
      <trkpt lat="42.379269" lon="8.939132"><ele>2376.8</ele></trkpt>
      <trkpt lat="42.379284" lon="8.939103"><ele>2374.9</ele></trkpt>
      <trkpt lat="42.379355" lon="8.939163"><ele>2370.7</ele></trkpt>
      <trkpt lat="42.379516" lon="8.939268"><ele>2360.9</ele></trkpt>
      <trkpt lat="42.379583" lon="8.939274"><ele>2356.2</ele></trkpt>
      <trkpt lat="42.379611" lon="8.939299"><ele>2354.7</ele></trkpt>
      <trkpt lat="42.379637" lon="8.939242"><ele>2351.9</ele></trkpt>
      <trkpt lat="42.379728" lon="8.939269"><ele>2346.4</ele></trkpt>
      <trkpt lat="42.379792" lon="8.939280"><ele>2342.6</ele></trkpt>
      <trkpt lat="42.379825" lon="8.939272"><ele>2340.5</ele></trkpt>
      <trkpt lat="42.379863" lon="8.939260"><ele>2338.1</ele></trkpt>
      <trkpt lat="42.379952" lon="8.939329"><ele>2334.0</ele></trkpt>
      <trkpt lat="42.380052" lon="8.939368"><ele>2329.2</ele></trkpt>
      <trkpt lat="42.380037" lon="8.939272"><ele>2328.6</ele></trkpt>
      <trkpt lat="42.380013" lon="8.939144"><ele>2328.1</ele></trkpt>
      <trkpt lat="42.379981" lon="8.939008"><ele>2328.1</ele></trkpt>
      <trkpt lat="42.379984" lon="8.938915"><ele>2326.8</ele></trkpt>
      <trkpt lat="42.380059" lon="8.938930"><ele>2323.1</ele></trkpt>
      <trkpt lat="42.380091" lon="8.939002"><ele>2322.2</ele></trkpt>
      <trkpt lat="42.380154" lon="8.939105"><ele>2320.1</ele></trkpt>
      <trkpt lat="42.380214" lon="8.939168"><ele>2317.9</ele></trkpt>
      <trkpt lat="42.380198" lon="8.939238"><ele>2319.7</ele></trkpt>
      <trkpt lat="42.380192" lon="8.939402"><ele>2322.4</ele></trkpt>
      <trkpt lat="42.380298" lon="8.939599"><ele>2320.4</ele></trkpt>
      <trkpt lat="42.380387" lon="8.939791"><ele>2319.7</ele></trkpt>
      <trkpt lat="42.380607" lon="8.940079"><ele>2316.5</ele></trkpt>
      <trkpt lat="42.380663" lon="8.940098"><ele>2315.0</ele></trkpt>
      <trkpt lat="42.380688" lon="8.940145"><ele>2315.1</ele></trkpt>
      <trkpt lat="42.380724" lon="8.940161"><ele>2314.2</ele></trkpt>
      <trkpt lat="42.380780" lon="8.940211"><ele>2313.3</ele></trkpt>
      <trkpt lat="42.380816" lon="8.940298"><ele>2313.6</ele></trkpt>
      <trkpt lat="42.380863" lon="8.940586"><ele>2315.5</ele></trkpt>
      <trkpt lat="42.380896" lon="8.940646"><ele>2315.1</ele></trkpt>
      <trkpt lat="42.380960" lon="8.940694"><ele>2313.7</ele></trkpt>
      <trkpt lat="42.381071" lon="8.940687"><ele>2310.2</ele></trkpt>
      <trkpt lat="42.381205" lon="8.940853"><ele>2306.7</ele></trkpt>
      <trkpt lat="42.381243" lon="8.940874"><ele>2305.5</ele></trkpt>
      <trkpt lat="42.381260" lon="8.940916"><ele>2305.2</ele></trkpt>
      <trkpt lat="42.381357" lon="8.940979"><ele>2302.3</ele></trkpt>
      <trkpt lat="42.381391" lon="8.940898"><ele>2300.0</ele></trkpt>
      <trkpt lat="42.381462" lon="8.940921"><ele>2297.3</ele></trkpt>
      <trkpt lat="42.381544" lon="8.940963"><ele>2294.4</ele></trkpt>
      <trkpt lat="42.381626" lon="8.941050"><ele>2292.1</ele></trkpt>
      <trkpt lat="42.381664" lon="8.941039"><ele>2290.2</ele></trkpt>
      <trkpt lat="42.381667" lon="8.941087"><ele>2290.8</ele></trkpt>
      <trkpt lat="42.381709" lon="8.941100"><ele>2289.1</ele></trkpt>
      <trkpt lat="42.381846" lon="8.941283"><ele>2285.9</ele></trkpt>
      <trkpt lat="42.381941" lon="8.941287"><ele>2282.0</ele></trkpt>
      <trkpt lat="42.382004" lon="8.941331"><ele>2280.2</ele></trkpt>
      <trkpt lat="42.382043" lon="8.941379"><ele>2279.6</ele></trkpt>
      <trkpt lat="42.382096" lon="8.941366"><ele>2277.2</ele></trkpt>
      <trkpt lat="42.382197" lon="8.941332"><ele>2272.5</ele></trkpt>
      <trkpt lat="42.382387" lon="8.941407"><ele>2266.6</ele></trkpt>
      <trkpt lat="42.382429" lon="8.941414"><ele>2265.1</ele></trkpt>
      <trkpt lat="42.382449" lon="8.941312"><ele>2261.7</ele></trkpt>
      <trkpt lat="42.382437" lon="8.941155"><ele>2257.8</ele></trkpt>
      <trkpt lat="42.382452" lon="8.941138"><ele>2256.7</ele></trkpt>
      <trkpt lat="42.382417" lon="8.940996"><ele>2254.0</ele></trkpt>
      <trkpt lat="42.382483" lon="8.940966"><ele>2250.1</ele></trkpt>
      <trkpt lat="42.382497" lon="8.940894"><ele>2247.2</ele></trkpt>
      <trkpt lat="42.382549" lon="8.940837"><ele>2242.9</ele></trkpt>
      <trkpt lat="42.382583" lon="8.940820"><ele>2240.8</ele></trkpt>
      <trkpt lat="42.382601" lon="8.940775"><ele>2238.4</ele></trkpt>
      <trkpt lat="42.382574" lon="8.940685"><ele>2236.6</ele></trkpt>
      <trkpt lat="42.382623" lon="8.940621"><ele>2232.1</ele></trkpt>
      <trkpt lat="42.382656" lon="8.940551"><ele>2228.3</ele></trkpt>
      <trkpt lat="42.382743" lon="8.940519"><ele>2223.3</ele></trkpt>
      <trkpt lat="42.382767" lon="8.940438"><ele>2219.7</ele></trkpt>
      <trkpt lat="42.382888" lon="8.940377"><ele>2212.7</ele></trkpt>
      <trkpt lat="42.382867" lon="8.940157"><ele>2206.9</ele></trkpt>
      <trkpt lat="42.382911" lon="8.940092"><ele>2203.1</ele></trkpt>
      <trkpt lat="42.382992" lon="8.940138"><ele>2201.0</ele></trkpt>
      <trkpt lat="42.383001" lon="8.940080"><ele>2198.9</ele></trkpt>
      <trkpt lat="42.383066" lon="8.940048"><ele>2195.2</ele></trkpt>
      <trkpt lat="42.383136" lon="8.939991"><ele>2190.6</ele></trkpt>
      <trkpt lat="42.383120" lon="8.939894"><ele>2188.5</ele></trkpt>
      <trkpt lat="42.383158" lon="8.939882"><ele>2186.6</ele></trkpt>
      <trkpt lat="42.383146" lon="8.939778"><ele>2184.2</ele></trkpt>
      <trkpt lat="42.383163" lon="8.939739"><ele>2182.5</ele></trkpt>
      <trkpt lat="42.383210" lon="8.939764"><ele>2181.3</ele></trkpt>
      <trkpt lat="42.383222" lon="8.939648"><ele>2177.9</ele></trkpt>
      <trkpt lat="42.383287" lon="8.939667"><ele>2176.0</ele></trkpt>
      <trkpt lat="42.383322" lon="8.939600"><ele>2173.0</ele></trkpt>
      <trkpt lat="42.383377" lon="8.939625"><ele>2171.7</ele></trkpt>
      <trkpt lat="42.383465" lon="8.939668"><ele>2169.8</ele></trkpt>
      <trkpt lat="42.383479" lon="8.939607"><ele>2167.8</ele></trkpt>
      <trkpt lat="42.383512" lon="8.939632"><ele>2167.4</ele></trkpt>
      <trkpt lat="42.383522" lon="8.939571"><ele>2165.6</ele></trkpt>
      <trkpt lat="42.383568" lon="8.939589"><ele>2164.7</ele></trkpt>
      <trkpt lat="42.383584" lon="8.939547"><ele>2163.2</ele></trkpt>
      <trkpt lat="42.383686" lon="8.939590"><ele>2161.5</ele></trkpt>
      <trkpt lat="42.383712" lon="8.939502"><ele>2158.6</ele></trkpt>
      <trkpt lat="42.383819" lon="8.939501"><ele>2155.8</ele></trkpt>
      <trkpt lat="42.383862" lon="8.939404"><ele>2152.3</ele></trkpt>
      <trkpt lat="42.383875" lon="8.939352"><ele>2150.7</ele></trkpt>
      <trkpt lat="42.383933" lon="8.939376"><ele>2150.1</ele></trkpt>
      <trkpt lat="42.383995" lon="8.939304"><ele>2147.2</ele></trkpt>
      <trkpt lat="42.384055" lon="8.939331"><ele>2146.8</ele></trkpt>
      <trkpt lat="42.384128" lon="8.939267"><ele>2144.2</ele></trkpt>
      <trkpt lat="42.384216" lon="8.939214"><ele>2142.0</ele></trkpt>
      <trkpt lat="42.384243" lon="8.939151"><ele>2140.4</ele></trkpt>
      <trkpt lat="42.384287" lon="8.939137"><ele>2139.8</ele></trkpt>
      <trkpt lat="42.384397" lon="8.939156"><ele>2139.9</ele></trkpt>
      <trkpt lat="42.384453" lon="8.939117"><ele>2139.0</ele></trkpt>
      <trkpt lat="42.384570" lon="8.939074"><ele>2138.2</ele></trkpt>
      <trkpt lat="42.384675" lon="8.938987"><ele>2136.7</ele></trkpt>
      <trkpt lat="42.384736" lon="8.938851"><ele>2133.5</ele></trkpt>
      <trkpt lat="42.384836" lon="8.938806"><ele>2133.0</ele></trkpt>
      <trkpt lat="42.384883" lon="8.938655"><ele>2128.6</ele></trkpt>
      <trkpt lat="42.384880" lon="8.938569"><ele>2125.8</ele></trkpt>
      <trkpt lat="42.384960" lon="8.938528"><ele>2124.7</ele></trkpt>
      <trkpt lat="42.385090" lon="8.938375"><ele>2119.9</ele></trkpt>
      <trkpt lat="42.385431" lon="8.938237"><ele>2117.2</ele></trkpt>
      <trkpt lat="42.385479" lon="8.938184"><ele>2115.4</ele></trkpt>
      <trkpt lat="42.385534" lon="8.938177"><ele>2115.8</ele></trkpt>
      <trkpt lat="42.385564" lon="8.938139"><ele>2114.4</ele></trkpt>
      <trkpt lat="42.385626" lon="8.938143"><ele>2115.3</ele></trkpt>
      <trkpt lat="42.385651" lon="8.938148"><ele>2115.9</ele></trkpt>
      <trkpt lat="42.385781" lon="8.938007"><ele>2110.9</ele></trkpt>
      <trkpt lat="42.385770" lon="8.937899"><ele>2105.3</ele></trkpt>
      <trkpt lat="42.385856" lon="8.937862"><ele>2104.5</ele></trkpt>
      <trkpt lat="42.385851" lon="8.937816"><ele>2102.1</ele></trkpt>
      <trkpt lat="42.385878" lon="8.937793"><ele>2101.2</ele></trkpt>
      <trkpt lat="42.385917" lon="8.937786"><ele>2101.2</ele></trkpt>
      <trkpt lat="42.385960" lon="8.937780"><ele>2101.4</ele></trkpt>
      <trkpt lat="42.386083" lon="8.937760"><ele>2101.9</ele></trkpt>
      <trkpt lat="42.386097" lon="8.937686"><ele>2097.8</ele></trkpt>
      <trkpt lat="42.386166" lon="8.937570"><ele>2092.1</ele></trkpt>
      <trkpt lat="42.386159" lon="8.937532"><ele>2090.0</ele></trkpt>
      <trkpt lat="42.386201" lon="8.937397"><ele>2083.2</ele></trkpt>
      <trkpt lat="42.386229" lon="8.937377"><ele>2082.3</ele></trkpt>
      <trkpt lat="42.386237" lon="8.937352"><ele>2081.1</ele></trkpt>
      <trkpt lat="42.386216" lon="8.937299"><ele>2078.3</ele></trkpt>
      <trkpt lat="42.386273" lon="8.937250"><ele>2076.1</ele></trkpt>
      <trkpt lat="42.386244" lon="8.937174"><ele>2072.4</ele></trkpt>
      <trkpt lat="42.386276" lon="8.937154"><ele>2071.5</ele></trkpt>
      <trkpt lat="42.386279" lon="8.937119"><ele>2069.8</ele></trkpt>
      <trkpt lat="42.386304" lon="8.937097"><ele>2068.8</ele></trkpt>
      <trkpt lat="42.386302" lon="8.937044"><ele>2066.4</ele></trkpt>
      <trkpt lat="42.386331" lon="8.936985"><ele>2063.7</ele></trkpt>
      <trkpt lat="42.386387" lon="8.936845"><ele>2057.5</ele></trkpt>
      <trkpt lat="42.386469" lon="8.936633"><ele>2048.2</ele></trkpt>
      <trkpt lat="42.386538" lon="8.936546"><ele>2044.3</ele></trkpt>
      <trkpt lat="42.386520" lon="8.936447"><ele>2040.3</ele></trkpt>
      <trkpt lat="42.386623" lon="8.936239"><ele>2031.7</ele></trkpt>
      <trkpt lat="42.386750" lon="8.936035"><ele>2023.7</ele></trkpt>
      <trkpt lat="42.386873" lon="8.935872"><ele>2017.7</ele></trkpt>
      <trkpt lat="42.386941" lon="8.935851"><ele>2017.4</ele></trkpt>
      <trkpt lat="42.386976" lon="8.935747"><ele>2013.5</ele></trkpt>
      <trkpt lat="42.386978" lon="8.935704"><ele>2011.8</ele></trkpt>
      <trkpt lat="42.386949" lon="8.935684"><ele>2010.7</ele></trkpt>
      <trkpt lat="42.386957" lon="8.935658"><ele>2009.7</ele></trkpt>
      <trkpt lat="42.386951" lon="8.935563"><ele>2005.9</ele></trkpt>
      <trkpt lat="42.386969" lon="8.935498"><ele>2003.5</ele></trkpt>
      <trkpt lat="42.387003" lon="8.935484"><ele>2003.2</ele></trkpt>
      <trkpt lat="42.387048" lon="8.935498"><ele>2004.3</ele></trkpt>
      <trkpt lat="42.387099" lon="8.935477"><ele>2004.4</ele></trkpt>
      <trkpt lat="42.387148" lon="8.935404"><ele>2002.7</ele></trkpt>
      <trkpt lat="42.387207" lon="8.935234"><ele>1997.4</ele></trkpt>
      <trkpt lat="42.387426" lon="8.934871"><ele>1989.2</ele></trkpt>
      <trkpt lat="42.387486" lon="8.934802"><ele>1988.4</ele></trkpt>
      <trkpt lat="42.387577" lon="8.934634"><ele>1984.6</ele></trkpt>
      <trkpt lat="42.387591" lon="8.934509"><ele>1979.9</ele></trkpt>
      <trkpt lat="42.387610" lon="8.934283"><ele>1971.3</ele></trkpt>
      <trkpt lat="42.387605" lon="8.934120"><ele>1964.4</ele></trkpt>
      <trkpt lat="42.387670" lon="8.934071"><ele>1964.4</ele></trkpt>
      <trkpt lat="42.387715" lon="8.933853"><ele>1956.6</ele></trkpt>
      <trkpt lat="42.387748" lon="8.933570"><ele>1945.1</ele></trkpt>
      <trkpt lat="42.387856" lon="8.933164"><ele>1930.6</ele></trkpt>
      <trkpt lat="42.387960" lon="8.932740"><ele>1917.5</ele></trkpt>
      <trkpt lat="42.388030" lon="8.932396"><ele>1906.5</ele></trkpt>
      <trkpt lat="42.388113" lon="8.932208"><ele>1902.8</ele></trkpt>
      <trkpt lat="42.388146" lon="8.932100"><ele>1900.5</ele></trkpt>
      <trkpt lat="42.388171" lon="8.932001"><ele>1898.3</ele></trkpt>
      <trkpt lat="42.388219" lon="8.931955"><ele>1898.9</ele></trkpt>
      <trkpt lat="42.388270" lon="8.931798"><ele>1896.2</ele></trkpt>
      <trkpt lat="42.388307" lon="8.931730"><ele>1896.0</ele></trkpt>
      <trkpt lat="42.388351" lon="8.931704"><ele>1897.5</ele></trkpt>
      <trkpt lat="42.388382" lon="8.931643"><ele>1897.1</ele></trkpt>
      <trkpt lat="42.388382" lon="8.931513"><ele>1892.5</ele></trkpt>
      <trkpt lat="42.388360" lon="8.931426"><ele>1888.0</ele></trkpt>
      <trkpt lat="42.388378" lon="8.931323"><ele>1885.1</ele></trkpt>
      <trkpt lat="42.388407" lon="8.931298"><ele>1885.8</ele></trkpt>
      <trkpt lat="42.388448" lon="8.931239"><ele>1885.8</ele></trkpt>
      <trkpt lat="42.388567" lon="8.931081"><ele>1886.3</ele></trkpt>
      <trkpt lat="42.388500" lon="8.930957"><ele>1878.0</ele></trkpt>
      <trkpt lat="42.388489" lon="8.930834"><ele>1873.1</ele></trkpt>
      <trkpt lat="42.388396" lon="8.930638"><ele>1861.3</ele></trkpt>
      <trkpt lat="42.388334" lon="8.930652"><ele>1858.2</ele></trkpt>
      <trkpt lat="42.388353" lon="8.930503"><ele>1854.4</ele></trkpt>
      <trkpt lat="42.388371" lon="8.930455"><ele>1853.9</ele></trkpt>
      <trkpt lat="42.388353" lon="8.930423"><ele>1851.9</ele></trkpt>
      <trkpt lat="42.388365" lon="8.930336"><ele>1849.9</ele></trkpt>
      <trkpt lat="42.388389" lon="8.930266"><ele>1849.1</ele></trkpt>
      <trkpt lat="42.388386" lon="8.930184"><ele>1846.5</ele></trkpt>
      <trkpt lat="42.388435" lon="8.930148"><ele>1848.0</ele></trkpt>
      <trkpt lat="42.388443" lon="8.929820"><ele>1837.6</ele></trkpt>
      <trkpt lat="42.388423" lon="8.929428"><ele>1821.9</ele></trkpt>
      <trkpt lat="42.388433" lon="8.929356"><ele>1819.5</ele></trkpt>
      <trkpt lat="42.388453" lon="8.929317"><ele>1819.0</ele></trkpt>
      <trkpt lat="42.388446" lon="8.929254"><ele>1816.1</ele></trkpt>
      <trkpt lat="42.388453" lon="8.929189"><ele>1813.7</ele></trkpt>
      <trkpt lat="42.388401" lon="8.929094"><ele>1807.3</ele></trkpt>
      <trkpt lat="42.388390" lon="8.928996"><ele>1802.7</ele></trkpt>
      <trkpt lat="42.388388" lon="8.928838"><ele>1795.9</ele></trkpt>
      <trkpt lat="42.388360" lon="8.928787"><ele>1792.6</ele></trkpt>
      <trkpt lat="42.388331" lon="8.928766"><ele>1790.6</ele></trkpt>
      <trkpt lat="42.388293" lon="8.928778"><ele>1789.6</ele></trkpt>
      <trkpt lat="42.388242" lon="8.928814"><ele>1788.9</ele></trkpt>
      <trkpt lat="42.388203" lon="8.928806"><ele>1786.8</ele></trkpt>
      <trkpt lat="42.388181" lon="8.928764"><ele>1784.2</ele></trkpt>
      <trkpt lat="42.388169" lon="8.928666"><ele>1779.7</ele></trkpt>
      <trkpt lat="42.388192" lon="8.928543"><ele>1775.3</ele></trkpt>
      <trkpt lat="42.388240" lon="8.928451"><ele>1773.1</ele></trkpt>
      <trkpt lat="42.388142" lon="8.928256"><ele>1760.3</ele></trkpt>
      <trkpt lat="42.388238" lon="8.928067"><ele>1754.1</ele></trkpt>
      <trkpt lat="42.388246" lon="8.927972"><ele>1749.5</ele></trkpt>
      <trkpt lat="42.388126" lon="8.927847"><ele>1741.5</ele></trkpt>
      <trkpt lat="42.388149" lon="8.927702"><ele>1735.1</ele></trkpt>
      <trkpt lat="42.388158" lon="8.927591"><ele>1729.6</ele></trkpt>
      <trkpt lat="42.388042" lon="8.927340"><ele>1715.5</ele></trkpt>
      <trkpt lat="42.388132" lon="8.927175"><ele>1705.6</ele></trkpt>
      <trkpt lat="42.388073" lon="8.927084"><ele>1700.2</ele></trkpt>
      <trkpt lat="42.388026" lon="8.927009"><ele>1696.0</ele></trkpt>
      <trkpt lat="42.387978" lon="8.927048"><ele>1698.5</ele></trkpt>
      <trkpt lat="42.387922" lon="8.927044"><ele>1698.3</ele></trkpt>
      <trkpt lat="42.387904" lon="8.927021"><ele>1696.9</ele></trkpt>
      <trkpt lat="42.387919" lon="8.926989"><ele>1695.1</ele></trkpt>
      <trkpt lat="42.387941" lon="8.926950"><ele>1692.8</ele></trkpt>
      <trkpt lat="42.387993" lon="8.926966"><ele>1693.6</ele></trkpt>
      <trkpt lat="42.388069" lon="8.926871"><ele>1687.3</ele></trkpt>
      <trkpt lat="42.388222" lon="8.926777"><ele>1679.7</ele></trkpt>
      <trkpt lat="42.388228" lon="8.926654"><ele>1672.2</ele></trkpt>
      <trkpt lat="42.388090" lon="8.926509"><ele>1666.0</ele></trkpt>
      <trkpt lat="42.387991" lon="8.926444"><ele>1663.7</ele></trkpt>
      <trkpt lat="42.387857" lon="8.926356"><ele>1660.5</ele></trkpt>
      <trkpt lat="42.387822" lon="8.926302"><ele>1658.1</ele></trkpt>
      <trkpt lat="42.387820" lon="8.926213"><ele>1653.7</ele></trkpt>
      <trkpt lat="42.387870" lon="8.926149"><ele>1650.2</ele></trkpt>
      <trkpt lat="42.387955" lon="8.925996"><ele>1642.2</ele></trkpt>
      <trkpt lat="42.388019" lon="8.925940"><ele>1638.5</ele></trkpt>
      <trkpt lat="42.387997" lon="8.925866"><ele>1635.6</ele></trkpt>
      <trkpt lat="42.388049" lon="8.925849"><ele>1633.8</ele></trkpt>
      <trkpt lat="42.388058" lon="8.925803"><ele>1631.5</ele></trkpt>
      <trkpt lat="42.388014" lon="8.925711"><ele>1628.4</ele></trkpt>
      <trkpt lat="42.388059" lon="8.925696"><ele>1626.7</ele></trkpt>
      <trkpt lat="42.388078" lon="8.925643"><ele>1623.9</ele></trkpt>
      <trkpt lat="42.388108" lon="8.925667"><ele>1624.4</ele></trkpt>
      <trkpt lat="42.388120" lon="8.925634"><ele>1622.6</ele></trkpt>
      <trkpt lat="42.388183" lon="8.925655"><ele>1622.3</ele></trkpt>
      <trkpt lat="42.388205" lon="8.925566"><ele>1617.5</ele></trkpt>
      <trkpt lat="42.388424" lon="8.925407"><ele>1603.9</ele></trkpt>
      <trkpt lat="42.388572" lon="8.925371"><ele>1597.5</ele></trkpt>
      <trkpt lat="42.388623" lon="8.925370"><ele>1595.7</ele></trkpt>
      <trkpt lat="42.388643" lon="8.925410"><ele>1596.9</ele></trkpt>
      <trkpt lat="42.388682" lon="8.925421"><ele>1596.1</ele></trkpt>
      <trkpt lat="42.388729" lon="8.925346"><ele>1590.6</ele></trkpt>
      <trkpt lat="42.388790" lon="8.925351"><ele>1588.7</ele></trkpt>
      <trkpt lat="42.388835" lon="8.925313"><ele>1585.2</ele></trkpt>
      <trkpt lat="42.388936" lon="8.925296"><ele>1580.8</ele></trkpt>
      <trkpt lat="42.389010" lon="8.925294"><ele>1578.1</ele></trkpt>
      <trkpt lat="42.389074" lon="8.925318"><ele>1577.0</ele></trkpt>
      <trkpt lat="42.389113" lon="8.925291"><ele>1574.6</ele></trkpt>
      <trkpt lat="42.389149" lon="8.925267"><ele>1572.3</ele></trkpt>
      <trkpt lat="42.389188" lon="8.925252"><ele>1570.4</ele></trkpt>
      <trkpt lat="42.389300" lon="8.925295"><ele>1568.6</ele></trkpt>
      <trkpt lat="42.389555" lon="8.925189"><ele>1556.1</ele></trkpt>
      <trkpt lat="42.389759" lon="8.925041"><ele>1544.3</ele></trkpt>
      <trkpt lat="42.389845" lon="8.924992"><ele>1540.4</ele></trkpt>
      <trkpt lat="42.389911" lon="8.924972"><ele>1538.3</ele></trkpt>
      <trkpt lat="42.389932" lon="8.924937"><ele>1536.8</ele></trkpt>
      <trkpt lat="42.389910" lon="8.924904"><ele>1536.3</ele></trkpt>
      <trkpt lat="42.389871" lon="8.924846"><ele>1535.6</ele></trkpt>
      <trkpt lat="42.389945" lon="8.924797"><ele>1532.7</ele></trkpt>
      <trkpt lat="42.390022" lon="8.924770"><ele>1530.3</ele></trkpt>
      <trkpt lat="42.390065" lon="8.924754"><ele>1529.1</ele></trkpt>
      <trkpt lat="42.390079" lon="8.924722"><ele>1528.0</ele></trkpt>
      <trkpt lat="42.390075" lon="8.924679"><ele>1527.1</ele></trkpt>
      <trkpt lat="42.390019" lon="8.924686"><ele>1528.4</ele></trkpt>
      <trkpt lat="42.389963" lon="8.924666"><ele>1529.3</ele></trkpt>
      <trkpt lat="42.389895" lon="8.924609"><ele>1529.7</ele></trkpt>
      <trkpt lat="42.389885" lon="8.924559"><ele>1529.0</ele></trkpt>
      <trkpt lat="42.389913" lon="8.924471"><ele>1527.0</ele></trkpt>
      <trkpt lat="42.390079" lon="8.924190"><ele>1520.7</ele></trkpt>
      <trkpt lat="42.390172" lon="8.924131"><ele>1518.1</ele></trkpt>
      <trkpt lat="42.390191" lon="8.924084"><ele>1517.1</ele></trkpt>
      <trkpt lat="42.390188" lon="8.924031"><ele>1516.9</ele></trkpt>
      <trkpt lat="42.390193" lon="8.923996"><ele>1516.7</ele></trkpt>
      <trkpt lat="42.390224" lon="8.923943"><ele>1515.8</ele></trkpt>
      <trkpt lat="42.390317" lon="8.923898"><ele>1513.0</ele></trkpt>
      <trkpt lat="42.390313" lon="8.923868"><ele>1513.3</ele></trkpt>
      <trkpt lat="42.390348" lon="8.923818"><ele>1511.8</ele></trkpt>
      <trkpt lat="42.390374" lon="8.923768"><ele>1510.1</ele></trkpt>
      <trkpt lat="42.390410" lon="8.923757"><ele>1507.5</ele></trkpt>
      <trkpt lat="42.390481" lon="8.923766"><ele>1502.0</ele></trkpt>
      <trkpt lat="42.390674" lon="8.923747"><ele>1497.5</ele></trkpt>
      <trkpt lat="42.390712" lon="8.923599"><ele>1499.8</ele></trkpt>
      <trkpt lat="42.390723" lon="8.923508"><ele>1501.6</ele></trkpt>
      <trkpt lat="42.390728" lon="8.923471"><ele>1502.2</ele></trkpt>
      <trkpt lat="42.390703" lon="8.923353"><ele>1505.1</ele></trkpt>
      <trkpt lat="42.390722" lon="8.923271"><ele>1506.1</ele></trkpt>
      <trkpt lat="42.390788" lon="8.923267"><ele>1504.3</ele></trkpt>
      <trkpt lat="42.390873" lon="8.923217"><ele>1503.0</ele></trkpt>
      <trkpt lat="42.390923" lon="8.923257"><ele>1500.9</ele></trkpt>
      <trkpt lat="42.390974" lon="8.923258"><ele>1499.6</ele></trkpt>
      <trkpt lat="42.391019" lon="8.923253"><ele>1498.5</ele></trkpt>
      <trkpt lat="42.391085" lon="8.923240"><ele>1497.0</ele></trkpt>
      <trkpt lat="42.391142" lon="8.923259"><ele>1495.3</ele></trkpt>
      <trkpt lat="42.391196" lon="8.923290"><ele>1493.7</ele></trkpt>
      <trkpt lat="42.391221" lon="8.923306"><ele>1492.9</ele></trkpt>
      <trkpt lat="42.391263" lon="8.923326"><ele>1491.6</ele></trkpt>
      <trkpt lat="42.391296" lon="8.923296"><ele>1490.9</ele></trkpt>
      <trkpt lat="42.391350" lon="8.923303"><ele>1489.3</ele></trkpt>
      <trkpt lat="42.391435" lon="8.923287"><ele>1487.1</ele></trkpt>
      <trkpt lat="42.391490" lon="8.923266"><ele>1485.8</ele></trkpt>
      <trkpt lat="42.391539" lon="8.923289"><ele>1484.2</ele></trkpt>
      <trkpt lat="42.391599" lon="8.923373"><ele>1482.0</ele></trkpt>
      <trkpt lat="42.391649" lon="8.923336"><ele>1480.8</ele></trkpt>
      <trkpt lat="42.391692" lon="8.923265"><ele>1480.2</ele></trkpt>
      <trkpt lat="42.391727" lon="8.923182"><ele>1480.1</ele></trkpt>
      <trkpt lat="42.391795" lon="8.923175"><ele>1478.4</ele></trkpt>
      <trkpt lat="42.391864" lon="8.923123"><ele>1477.1</ele></trkpt>
      <trkpt lat="42.391899" lon="8.923148"><ele>1476.0</ele></trkpt>
      <trkpt lat="42.391961" lon="8.923160"><ele>1474.3</ele></trkpt>
      <trkpt lat="42.392078" lon="8.923136"><ele>1471.6</ele></trkpt>
      <trkpt lat="42.392108" lon="8.923071"><ele>1471.7</ele></trkpt>
      <trkpt lat="42.392220" lon="8.923062"><ele>1469.2</ele></trkpt>
      <trkpt lat="42.392259" lon="8.923040"><ele>1468.6</ele></trkpt>
      <trkpt lat="42.392356" lon="8.923028"><ele>1466.6</ele></trkpt>
      <trkpt lat="42.392379" lon="8.923070"><ele>1465.5</ele></trkpt>
      <trkpt lat="42.392388" lon="8.923122"><ele>1464.6</ele></trkpt>
      <trkpt lat="42.392412" lon="8.923141"><ele>1463.8</ele></trkpt>
      <trkpt lat="42.392449" lon="8.923235"><ele>1461.9</ele></trkpt>
      <trkpt lat="42.392480" lon="8.923315"><ele>1460.5</ele></trkpt>
      <trkpt lat="42.392527" lon="8.923330"><ele>1459.4</ele></trkpt>
      <trkpt lat="42.392551" lon="8.923259"><ele>1459.5</ele></trkpt>
      <trkpt lat="42.392610" lon="8.923240"><ele>1458.4</ele></trkpt>
      <trkpt lat="42.392659" lon="8.923170"><ele>1458.1</ele></trkpt>
      <trkpt lat="42.392809" lon="8.923067"><ele>1456.2</ele></trkpt>
      <trkpt lat="42.392895" lon="8.922967"><ele>1456.1</ele></trkpt>
      <trkpt lat="42.392995" lon="8.922972"><ele>1453.9</ele></trkpt>
      <trkpt lat="42.393118" lon="8.922850"><ele>1453.7</ele></trkpt>
      <trkpt lat="42.393293" lon="8.922681"><ele>1453.9</ele></trkpt>
      <trkpt lat="42.393411" lon="8.922649"><ele>1452.3</ele></trkpt>
      <trkpt lat="42.393494" lon="8.922566"><ele>1453.2</ele></trkpt>
      <trkpt lat="42.393605" lon="8.922536"><ele>1451.8</ele></trkpt>
      <trkpt lat="42.394020" lon="8.922580"><ele>1445.4</ele></trkpt>
      <trkpt lat="42.394202" lon="8.922699"><ele>1440.1</ele></trkpt>
      <trkpt lat="42.394430" lon="8.922745"><ele>1436.7</ele></trkpt>
      <trkpt lat="42.394515" lon="8.922868"><ele>1433.0</ele></trkpt>
      <trkpt lat="42.394660" lon="8.922746"><ele>1433.5</ele></trkpt>
      <trkpt lat="42.394755" lon="8.922735"><ele>1431.9</ele></trkpt>
      <trkpt lat="42.394867" lon="8.922744"><ele>1429.5</ele></trkpt>
      <trkpt lat="42.394991" lon="8.922654"><ele>1429.3</ele></trkpt>
      <trkpt lat="42.395105" lon="8.922572"><ele>1429.4</ele></trkpt>
      <trkpt lat="42.395279" lon="8.922513"><ele>1427.9</ele></trkpt>
      <trkpt lat="42.395345" lon="8.922466"><ele>1428.0</ele></trkpt>
      <trkpt lat="42.395614" lon="8.922269"><ele>1429.0</ele></trkpt>
      <trkpt lat="42.395671" lon="8.922185"><ele>1430.6</ele></trkpt>
      <trkpt lat="42.395850" lon="8.922057"><ele>1431.9</ele></trkpt>
      <trkpt lat="42.395983" lon="8.922056"><ele>1429.7</ele></trkpt>
      <trkpt lat="42.396130" lon="8.921933"><ele>1432.5</ele></trkpt>
      <trkpt lat="42.396576" lon="8.921763"><ele>1435.7</ele></trkpt>
      <trkpt lat="42.396686" lon="8.921767"><ele>1432.0</ele></trkpt>
      <trkpt lat="42.396866" lon="8.921664"><ele>1426.1</ele></trkpt>
      <trkpt lat="42.396932" lon="8.921677"><ele>1421.4</ele></trkpt>
      <trkpt lat="42.396981" lon="8.921605"><ele>1421.0</ele></trkpt>
      <trkpt lat="42.397197" lon="8.921591"><ele>1423.3</ele></trkpt>
      <trkpt lat="42.397249" lon="8.921523"><ele>1429.3</ele></trkpt>
      <trkpt lat="42.397467" lon="8.921580"><ele>1440.5</ele></trkpt>
      <trkpt lat="42.397667" lon="8.921544"><ele>1446.0</ele></trkpt>
      <trkpt lat="42.398108" lon="8.921592"><ele>1448.1</ele></trkpt>
      <trkpt lat="42.399035" lon="8.921918"><ele>1442.7</ele></trkpt>
      <trkpt lat="42.399255" lon="8.922076"><ele>1439.2</ele></trkpt>
      <trkpt lat="42.399394" lon="8.922026"><ele>1443.9</ele></trkpt>
      <trkpt lat="42.399626" lon="8.922135"><ele>1442.6</ele></trkpt>
      <trkpt lat="42.399697" lon="8.922207"><ele>1440.5</ele></trkpt>
      <trkpt lat="42.399834" lon="8.922215"><ele>1442.7</ele></trkpt>
      <trkpt lat="42.399918" lon="8.922250"><ele>1442.7</ele></trkpt>
      <trkpt lat="42.400158" lon="8.922265"><ele>1446.5</ele></trkpt>
      <trkpt lat="42.400340" lon="8.922391"><ele>1444.7</ele></trkpt>
      <trkpt lat="42.400450" lon="8.922366"><ele>1448.0</ele></trkpt>
      <trkpt lat="42.400995" lon="8.922571"><ele>1451.3</ele></trkpt>
      <trkpt lat="42.401146" lon="8.922753"><ele>1446.0</ele></trkpt>
      <trkpt lat="42.401342" lon="8.922869"><ele>1442.8</ele></trkpt>
      <trkpt lat="42.401487" lon="8.922837"><ele>1444.6</ele></trkpt>
      <trkpt lat="42.401604" lon="8.922922"><ele>1442.2</ele></trkpt>
      <trkpt lat="42.401940" lon="8.923049"><ele>1441.2</ele></trkpt>
      <trkpt lat="42.402619" lon="8.923773"><ele>1428.3</ele></trkpt>
      <trkpt lat="42.402992" lon="8.924124"><ele>1425.5</ele></trkpt>
      <trkpt lat="42.403087" lon="8.924149"><ele>1424.6</ele></trkpt>
      <trkpt lat="42.403151" lon="8.924107"><ele>1424.7</ele></trkpt>
      <trkpt lat="42.403240" lon="8.923941"><ele>1425.9</ele></trkpt>
      <trkpt lat="42.403299" lon="8.923797"><ele>1426.8</ele></trkpt>
      <trkpt lat="42.403287" lon="8.923373"><ele>1430.2</ele></trkpt>
      <trkpt lat="42.403252" lon="8.923238"><ele>1431.4</ele></trkpt>
      <trkpt lat="42.403212" lon="8.923056"><ele>1433.1</ele></trkpt>
      <trkpt lat="42.403477" lon="8.922791"><ele>1434.3</ele></trkpt>
      <trkpt lat="42.403500" lon="8.922777"><ele>1434.3</ele></trkpt>
      <trkpt lat="42.403551" lon="8.922756"><ele>1434.4</ele></trkpt>
      <trkpt lat="42.403584" lon="8.922745"><ele>1434.4</ele></trkpt>
      <trkpt lat="42.403639" lon="8.922732"><ele>1434.5</ele></trkpt>
      <trkpt lat="42.403591" lon="8.922605"><ele>1436.6</ele></trkpt>
      <trkpt lat="42.403402" lon="8.922429"><ele>1440.3</ele></trkpt>
      <trkpt lat="42.403385" lon="8.922305"><ele>1442.9</ele></trkpt>
    <trkpt lat="42.403365" lon="8.922213"><ele>1444.9</ele></trkpt>
      <trkpt lat="42.403410" lon="8.922104"><ele>1447.5</ele></trkpt>
      <trkpt lat="42.403405" lon="8.922061"><ele>1448.5</ele></trkpt>
      <trkpt lat="42.403360" lon="8.922031"><ele>1449.1</ele></trkpt>
      <trkpt lat="42.403353" lon="8.921938"><ele>1451.3</ele></trkpt>
      <trkpt lat="42.403326" lon="8.921844"><ele>1453.5</ele></trkpt>
      <trkpt lat="42.403304" lon="8.921781"><ele>1454.9</ele></trkpt>
      <trkpt lat="42.403313" lon="8.921739"><ele>1456.1</ele></trkpt>
      <trkpt lat="42.403239" lon="8.921678"><ele>1457.2</ele></trkpt>
      <trkpt lat="42.403109" lon="8.921533"><ele>1460.1</ele></trkpt>
      <trkpt lat="42.403051" lon="8.921468"><ele>1461.2</ele></trkpt>
      <trkpt lat="42.403040" lon="8.921384"><ele>1462.9</ele></trkpt>
      <trkpt lat="42.403121" lon="8.921176"><ele>1468.9</ele></trkpt>
      <trkpt lat="42.403273" lon="8.921102"><ele>1473.4</ele></trkpt>
      <trkpt lat="42.403490" lon="8.921119"><ele>1477.2</ele></trkpt>
      <trkpt lat="42.403613" lon="8.921037"><ele>1482.9</ele></trkpt>
      <trkpt lat="42.404040" lon="8.920967"><ele>1496.9</ele></trkpt>
      <trkpt lat="42.404165" lon="8.920807"><ele>1506.5</ele></trkpt>
      <trkpt lat="42.404357" lon="8.920780"><ele>1511.2</ele></trkpt>
      <trkpt lat="42.404396" lon="8.920735"><ele>1513.2</ele></trkpt>
      <trkpt lat="42.404351" lon="8.920702"><ele>1513.9</ele></trkpt>
      <trkpt lat="42.404378" lon="8.920631"><ele>1516.5</ele></trkpt>
      <trkpt lat="42.404353" lon="8.920553"><ele>1518.8</ele></trkpt>
      <trkpt lat="42.404382" lon="8.920526"><ele>1519.9</ele></trkpt>
      <trkpt lat="42.404403" lon="8.920437"><ele>1522.8</ele></trkpt>
      <trkpt lat="42.404449" lon="8.920423"><ele>1523.5</ele></trkpt>
      <trkpt lat="42.404436" lon="8.920318"><ele>1526.2</ele></trkpt>
      <trkpt lat="42.404351" lon="8.920118"><ele>1530.8</ele></trkpt>
      <trkpt lat="42.404344" lon="8.919920"><ele>1535.5</ele></trkpt>
      <trkpt lat="42.404294" lon="8.919743"><ele>1539.6</ele></trkpt>
      <trkpt lat="42.404283" lon="8.919597"><ele>1543.3</ele></trkpt>
      <trkpt lat="42.404210" lon="8.919390"><ele>1548.8</ele></trkpt>
      <trkpt lat="42.404252" lon="8.919233"><ele>1553.9</ele></trkpt>
      <trkpt lat="42.404238" lon="8.919049"><ele>1559.9</ele></trkpt>
      <trkpt lat="42.404263" lon="8.918851"><ele>1567.1</ele></trkpt>
      <trkpt lat="42.404304" lon="8.918814"><ele>1568.4</ele></trkpt>
      <trkpt lat="42.404304" lon="8.918728"><ele>1571.7</ele></trkpt>
      <trkpt lat="42.404264" lon="8.918645"><ele>1575.2</ele></trkpt>
      <trkpt lat="42.404539" lon="8.918433"><ele>1583.6</ele></trkpt>
      <trkpt lat="42.404574" lon="8.918215"><ele>1593.9</ele></trkpt>
      <trkpt lat="42.404916" lon="8.917873"><ele>1611.6</ele></trkpt>
      <trkpt lat="42.405034" lon="8.917473"><ele>1632.9</ele></trkpt>
      <trkpt lat="42.405103" lon="8.917153"><ele>1648.3</ele></trkpt>
      <trkpt lat="42.405127" lon="8.916649"><ele>1672.6</ele></trkpt>
      <trkpt lat="42.405367" lon="8.916270"><ele>1688.1</ele></trkpt>
      <trkpt lat="42.405420" lon="8.916071"><ele>1695.9</ele></trkpt>
      <trkpt lat="42.405496" lon="8.915555"><ele>1716.1</ele></trkpt>
      <trkpt lat="42.405688" lon="8.915281"><ele>1736.1</ele></trkpt>
      <trkpt lat="42.405720" lon="8.915175"><ele>1744.5</ele></trkpt>
      <trkpt lat="42.405764" lon="8.914856"><ele>1767.9</ele></trkpt>
      <trkpt lat="42.405847" lon="8.914551"><ele>1789.9</ele></trkpt>
      <trkpt lat="42.405907" lon="8.914088"><ele>1817.6</ele></trkpt>
      <trkpt lat="42.406109" lon="8.914343"><ele>1806.0</ele></trkpt>
      <trkpt lat="42.406387" lon="8.914335"><ele>1807.3</ele></trkpt>
      <trkpt lat="42.406550" lon="8.914175"><ele>1814.9</ele></trkpt>
      <trkpt lat="42.406592" lon="8.914025"><ele>1821.8</ele></trkpt>
      <trkpt lat="42.406765" lon="8.914031"><ele>1823.7</ele></trkpt>
      <trkpt lat="42.406846" lon="8.913814"><ele>1835.7</ele></trkpt>
      <trkpt lat="42.406919" lon="8.913837"><ele>1836.5</ele></trkpt>
      <trkpt lat="42.406945" lon="8.913778"><ele>1840.2</ele></trkpt>
      <trkpt lat="42.406895" lon="8.913487"><ele>1853.6</ele></trkpt>
      <trkpt lat="42.406877" lon="8.913405"><ele>1857.3</ele></trkpt>
      <trkpt lat="42.406840" lon="8.913353"><ele>1859.0</ele></trkpt>
      <trkpt lat="42.406794" lon="8.913266"><ele>1862.1</ele></trkpt>
      <trkpt lat="42.406812" lon="8.913206"><ele>1865.7</ele></trkpt>
      <trkpt lat="42.406731" lon="8.913159"><ele>1865.8</ele></trkpt>
      <trkpt lat="42.406746" lon="8.913099"><ele>1869.2</ele></trkpt>
      <trkpt lat="42.406737" lon="8.913036"><ele>1872.1</ele></trkpt>
      <trkpt lat="42.406728" lon="8.912888"><ele>1879.2</ele></trkpt>
      <trkpt lat="42.406670" lon="8.912672"><ele>1888.1</ele></trkpt>
      <trkpt lat="42.406613" lon="8.912536"><ele>1892.9</ele></trkpt>
      <trkpt lat="42.406689" lon="8.912361"><ele>1902.3</ele></trkpt>
      <trkpt lat="42.406665" lon="8.912307"><ele>1904.0</ele></trkpt>
      <trkpt lat="42.406764" lon="8.912226"><ele>1909.7</ele></trkpt>
      <trkpt lat="42.406810" lon="8.912122"><ele>1915.1</ele></trkpt>
      <trkpt lat="42.406794" lon="8.912033"><ele>1917.9</ele></trkpt>
      <trkpt lat="42.406817" lon="8.911906"><ele>1923.3</ele></trkpt>
      <trkpt lat="42.406739" lon="8.911785"><ele>1925.2</ele></trkpt>
      <trkpt lat="42.406781" lon="8.911690"><ele>1929.7</ele></trkpt>
      <trkpt lat="42.406945" lon="8.911660"><ele>1936.4</ele></trkpt>
      <trkpt lat="42.407027" lon="8.911512"><ele>1944.3</ele></trkpt>
      <trkpt lat="42.407012" lon="8.911410"><ele>1946.6</ele></trkpt>
      <trkpt lat="42.406933" lon="8.911276"><ele>1947.2</ele></trkpt>
      <trkpt lat="42.406968" lon="8.911180"><ele>1950.6</ele></trkpt>
      <trkpt lat="42.406898" lon="8.911102"><ele>1950.2</ele></trkpt>
      <trkpt lat="42.406875" lon="8.911019"><ele>1951.5</ele></trkpt>
      <trkpt lat="42.406926" lon="8.910913"><ele>1955.2</ele></trkpt>
      <trkpt lat="42.407017" lon="8.910832"><ele>1959.2</ele></trkpt>
      <trkpt lat="42.407150" lon="8.910835"><ele>1963.4</ele></trkpt>
      <trkpt lat="42.407211" lon="8.910880"><ele>1965.2</ele></trkpt>
      <trkpt lat="42.407377" lon="8.910862"><ele>1972.9</ele></trkpt>
      <trkpt lat="42.407347" lon="8.910772"><ele>1972.1</ele></trkpt>
      <trkpt lat="42.407537" lon="8.910716"><ele>1981.1</ele></trkpt>
      <trkpt lat="42.407575" lon="8.910624"><ele>1982.0</ele></trkpt>
      <trkpt lat="42.407652" lon="8.910436"><ele>1981.7</ele></trkpt>
      <trkpt lat="42.407659" lon="8.910403"><ele>1981.1</ele></trkpt>
      <trkpt lat="42.407672" lon="8.910326"><ele>1979.4</ele></trkpt>
      <trkpt lat="42.407774" lon="8.910268"><ele>1980.7</ele></trkpt>
      <trkpt lat="42.407894" lon="8.910082"><ele>1976.8</ele></trkpt>
      <trkpt lat="42.408015" lon="8.909992"><ele>1976.4</ele></trkpt>
      <trkpt lat="42.408169" lon="8.909772"><ele>1970.8</ele></trkpt>
      <trkpt lat="42.408187" lon="8.909615"><ele>1962.2</ele></trkpt>
      <trkpt lat="42.408410" lon="8.909383"><ele>1958.2</ele></trkpt>
      <trkpt lat="42.408607" lon="8.909094"><ele>1949.5</ele></trkpt>
      <trkpt lat="42.408695" lon="8.908891"><ele>1940.2</ele></trkpt>
      <trkpt lat="42.408841" lon="8.908792"><ele>1939.9</ele></trkpt>
      <trkpt lat="42.408926" lon="8.908679"><ele>1936.1</ele></trkpt>
      <trkpt lat="42.409019" lon="8.908480"><ele>1927.5</ele></trkpt>
      <trkpt lat="42.409098" lon="8.908463"><ele>1929.9</ele></trkpt>
      <trkpt lat="42.409208" lon="8.908581"><ele>1942.0</ele></trkpt>
      <trkpt lat="42.409373" lon="8.908484"><ele>1943.8</ele></trkpt>
      <trkpt lat="42.409572" lon="8.908379"><ele>1947.5</ele></trkpt>
      <trkpt lat="42.409678" lon="8.908191"><ele>1942.9</ele></trkpt>
      <trkpt lat="42.409782" lon="8.908153"><ele>1946.3</ele></trkpt>
      <trkpt lat="42.409782" lon="8.908032"><ele>1940.6</ele></trkpt>
      <trkpt lat="42.409870" lon="8.908001"><ele>1943.2</ele></trkpt>
      <trkpt lat="42.409881" lon="8.907945"><ele>1941.1</ele></trkpt>
      <trkpt lat="42.410000" lon="8.907963"><ele>1946.5</ele></trkpt>
      <trkpt lat="42.410050" lon="8.907853"><ele>1943.8</ele></trkpt>
      <trkpt lat="42.410100" lon="8.907874"><ele>1946.3</ele></trkpt>
      <trkpt lat="42.410186" lon="8.907677"><ele>1941.4</ele></trkpt>
      <trkpt lat="42.410293" lon="8.907743"><ele>1946.5</ele></trkpt>
      <trkpt lat="42.410334" lon="8.907619"><ele>1943.0</ele></trkpt>
      <trkpt lat="42.410602" lon="8.907577"><ele>1945.1</ele></trkpt>
      <trkpt lat="42.410461" lon="8.907766"><ele>1950.0</ele></trkpt>
      <trkpt lat="42.410400" lon="8.907974"><ele>1956.3</ele></trkpt>
      <trkpt lat="42.410416" lon="8.908144"><ele>1962.0</ele></trkpt>
      <trkpt lat="42.410468" lon="8.908266"><ele>1965.7</ele></trkpt>
      <trkpt lat="42.410571" lon="8.908221"><ele>1964.5</ele></trkpt>
      <trkpt lat="42.410526" lon="8.908343"><ele>1967.7</ele></trkpt>
      <trkpt lat="42.410708" lon="8.908424"><ele>1967.7</ele></trkpt>
      <trkpt lat="42.410757" lon="8.908510"><ele>1968.3</ele></trkpt>
      <trkpt lat="42.410930" lon="8.908496"><ele>1963.5</ele></trkpt>
      <trkpt lat="42.411008" lon="8.908589"><ele>1962.4</ele></trkpt>
      <trkpt lat="42.411091" lon="8.908594"><ele>1958.9</ele></trkpt>
      <trkpt lat="42.411186" lon="8.908489"><ele>1951.2</ele></trkpt>
      <trkpt lat="42.411316" lon="8.908476"><ele>1942.8</ele></trkpt>
      <trkpt lat="42.411355" lon="8.908546"><ele>1942.1</ele></trkpt>
      <trkpt lat="42.411594" lon="8.908369"><ele>1922.0</ele></trkpt>
      <trkpt lat="42.411803" lon="8.908378"><ele>1908.5</ele></trkpt>
      <trkpt lat="42.411923" lon="8.908176"><ele>1899.2</ele></trkpt>
      <trkpt lat="42.412059" lon="8.908128"><ele>1891.7</ele></trkpt>
      <trkpt lat="42.412110" lon="8.907984"><ele>1888.9</ele></trkpt>
      <trkpt lat="42.412287" lon="8.907820"><ele>1882.0</ele></trkpt>
      <trkpt lat="42.412441" lon="8.907735"><ele>1876.6</ele></trkpt>
      <trkpt lat="42.412528" lon="8.907853"><ele>1873.2</ele></trkpt>
      <trkpt lat="42.412684" lon="8.907879"><ele>1867.3</ele></trkpt>
      <trkpt lat="42.412956" lon="8.907905"><ele>1855.8</ele></trkpt>
      <trkpt lat="42.413061" lon="8.907995"><ele>1851.6</ele></trkpt>
      <trkpt lat="42.413135" lon="8.908025"><ele>1848.5</ele></trkpt>
      <trkpt lat="42.413350" lon="8.908167"><ele>1841.2</ele></trkpt>
      <trkpt lat="42.413394" lon="8.908116"><ele>1839.0</ele></trkpt>
      <trkpt lat="42.413468" lon="8.907980"><ele>1834.5</ele></trkpt>
      <trkpt lat="42.413618" lon="8.908013"><ele>1828.4</ele></trkpt>
      <trkpt lat="42.413704" lon="8.907914"><ele>1823.2</ele></trkpt>
      <trkpt lat="42.413730" lon="8.907822"><ele>1820.6</ele></trkpt>
      <trkpt lat="42.413763" lon="8.907706"><ele>1817.1</ele></trkpt>
      <trkpt lat="42.413715" lon="8.907573"><ele>1817.1</ele></trkpt>
      <trkpt lat="42.413660" lon="8.907427"><ele>1817.6</ele></trkpt>
      <trkpt lat="42.413642" lon="8.907249"><ele>1815.9</ele></trkpt>
      <trkpt lat="42.413535" lon="8.907196"><ele>1820.9</ele></trkpt>
      <trkpt lat="42.413496" lon="8.907054"><ele>1821.2</ele></trkpt>
      <trkpt lat="42.413541" lon="8.906987"><ele>1817.8</ele></trkpt>
      <trkpt lat="42.413630" lon="8.907051"><ele>1813.6</ele></trkpt>
      <trkpt lat="42.413825" lon="8.907017"><ele>1801.4</ele></trkpt>
      <trkpt lat="42.413947" lon="8.906841"><ele>1789.4</ele></trkpt>
      <trkpt lat="42.414028" lon="8.906766"><ele>1781.4</ele></trkpt>
      <trkpt lat="42.414094" lon="8.906680"><ele>1773.9</ele></trkpt>
      <trkpt lat="42.414036" lon="8.906616"><ele>1777.5</ele></trkpt>
      <trkpt lat="42.413936" lon="8.906632"><ele>1785.9</ele></trkpt>
      <trkpt lat="42.413899" lon="8.906498"><ele>1786.1</ele></trkpt>
      <trkpt lat="42.413948" lon="8.906293"><ele>1777.8</ele></trkpt>
      <trkpt lat="42.414063" lon="8.906354"><ele>1770.0</ele></trkpt>
      <trkpt lat="42.414274" lon="8.906122"><ele>1748.1</ele></trkpt>
      <trkpt lat="42.414251" lon="8.905867"><ele>1744.8</ele></trkpt>
      <trkpt lat="42.414565" lon="8.905524"><ele>1718.6</ele></trkpt>
      <trkpt lat="42.414729" lon="8.905475"><ele>1709.6</ele></trkpt>
      <trkpt lat="42.415014" lon="8.905168"><ele>1693.5</ele></trkpt>
      <trkpt lat="42.415189" lon="8.904942"><ele>1683.4</ele></trkpt>
      <trkpt lat="42.415275" lon="8.904653"><ele>1675.3</ele></trkpt>
      <trkpt lat="42.415389" lon="8.904516"><ele>1667.3</ele></trkpt>
      <trkpt lat="42.415535" lon="8.904422"><ele>1657.0</ele></trkpt>
      <trkpt lat="42.415658" lon="8.904223"><ele>1645.9</ele></trkpt>
      <trkpt lat="42.415865" lon="8.904226"><ele>1631.2</ele></trkpt>
      <trkpt lat="42.415895" lon="8.904030"><ele>1627.0</ele></trkpt>
      <trkpt lat="42.415623" lon="8.903695"><ele>1643.8</ele></trkpt>
      <trkpt lat="42.415685" lon="8.903201"><ele>1638.4</ele></trkpt>
      <trkpt lat="42.415752" lon="8.902345"><ele>1637.6</ele></trkpt>
      <trkpt lat="42.415865" lon="8.902155"><ele>1630.5</ele></trkpt>
      <trkpt lat="42.415854" lon="8.901776"><ele>1634.7</ele></trkpt>
      <trkpt lat="42.416064" lon="8.901492"><ele>1622.4</ele></trkpt>
      <trkpt lat="42.416109" lon="8.901604"><ele>1618.2</ele></trkpt>
      <trkpt lat="42.416255" lon="8.901573"><ele>1608.9</ele></trkpt>
      <trkpt lat="42.416391" lon="8.901253"><ele>1606.6</ele></trkpt>
      <trkpt lat="42.417115" lon="8.901259"><ele>1582.6</ele></trkpt>
      <trkpt lat="42.417499" lon="8.901325"><ele>1572.8</ele></trkpt>
      <trkpt lat="42.417602" lon="8.901682"><ele>1560.6</ele></trkpt>
      <trkpt lat="42.417757" lon="8.901786"><ele>1553.8</ele></trkpt>
      <trkpt lat="42.417893" lon="8.902005"><ele>1543.8</ele></trkpt>
      <trkpt lat="42.417881" lon="8.902198"><ele>1538.8</ele></trkpt>
      <trkpt lat="42.417678" lon="8.902181"><ele>1545.0</ele></trkpt>
      <trkpt lat="42.417650" lon="8.902249"><ele>1543.9</ele></trkpt>
      <trkpt lat="42.417670" lon="8.902415"><ele>1538.9</ele></trkpt>
      <trkpt lat="42.417854" lon="8.902526"><ele>1530.8</ele></trkpt>
      <trkpt lat="42.418000" lon="8.902741"><ele>1520.2</ele></trkpt>
      <trkpt lat="42.418183" lon="8.902906"><ele>1509.1</ele></trkpt>
      <trkpt lat="42.418278" lon="8.903059"><ele>1502.6</ele></trkpt>
      <trkpt lat="42.418434" lon="8.903019"><ele>1496.3</ele></trkpt>
      <trkpt lat="42.418553" lon="8.903048"><ele>1491.0</ele></trkpt>
      <trkpt lat="42.418755" lon="8.902961"><ele>1483.8</ele></trkpt>
      <trkpt lat="42.418909" lon="8.903094"><ele>1477.0</ele></trkpt>
      <trkpt lat="42.418989" lon="8.902946"><ele>1473.8</ele></trkpt>
      <trkpt lat="42.419147" lon="8.902788"><ele>1466.8</ele></trkpt>
      <trkpt lat="42.419235" lon="8.902767"><ele>1463.6</ele></trkpt>
      <trkpt lat="42.419339" lon="8.902629"><ele>1460.5</ele></trkpt>
      <trkpt lat="42.419419" lon="8.902400"><ele>1456.5</ele></trkpt>
      <trkpt lat="42.419671" lon="8.901839"><ele>1442.3</ele></trkpt>
      <trkpt lat="42.419790" lon="8.901472"><ele>1425.1</ele></trkpt>
      <trkpt lat="42.419939" lon="8.901148"><ele>1406.4</ele></trkpt>
      <trkpt lat="42.420041" lon="8.900882"><ele>1391.8</ele></trkpt>
      <trkpt lat="42.420354" lon="8.900555"><ele>1368.5</ele></trkpt>
      <trkpt lat="42.420453" lon="8.900276"><ele>1357.0</ele></trkpt>
      <trkpt lat="42.420574" lon="8.900108"><ele>1351.2</ele></trkpt>
      <trkpt lat="42.420683" lon="8.899803"><ele>1348.5</ele></trkpt>
      <trkpt lat="42.420719" lon="8.899573"><ele>1349.8</ele></trkpt>
      <trkpt lat="42.420664" lon="8.899533"><ele>1353.2</ele></trkpt>
      <trkpt lat="42.420713" lon="8.899416"><ele>1352.7</ele></trkpt>
      <trkpt lat="42.420973" lon="8.899144"><ele>1346.6</ele></trkpt>
      <trkpt lat="42.421306" lon="8.899066"><ele>1314.2</ele></trkpt>
      <trkpt lat="42.421414" lon="8.898877"><ele>1305.9</ele></trkpt>
      <trkpt lat="42.421559" lon="8.898812"><ele>1303.9</ele></trkpt>
      <trkpt lat="42.422402" lon="8.898542"><ele>1274.9</ele></trkpt>
      <trkpt lat="42.422606" lon="8.898502"><ele>1271.3</ele></trkpt>
      <trkpt lat="42.422728" lon="8.898426"><ele>1269.7</ele></trkpt>
      <trkpt lat="42.422871" lon="8.898248"><ele>1267.8</ele></trkpt>
      <trkpt lat="42.423052" lon="8.897990"><ele>1265.4</ele></trkpt>
      <trkpt lat="42.423104" lon="8.898064"><ele>1263.7</ele></trkpt>
      <trkpt lat="42.423203" lon="8.897935"><ele>1262.2</ele></trkpt>
      <trkpt lat="42.423276" lon="8.897997"><ele>1260.5</ele></trkpt>
      <trkpt lat="42.423379" lon="8.897908"><ele>1258.5</ele></trkpt>
      <trkpt lat="42.423423" lon="8.897697"><ele>1258.8</ele></trkpt>
      <trkpt lat="42.423531" lon="8.897535"><ele>1259.8</ele></trkpt>
      <trkpt lat="42.423584" lon="8.897630"><ele>1257.0</ele></trkpt>
      <trkpt lat="42.423787" lon="8.897572"><ele>1253.8</ele></trkpt>
      <trkpt lat="42.423933" lon="8.897691"><ele>1249.9</ele></trkpt>
      <trkpt lat="42.424037" lon="8.897637"><ele>1248.1</ele></trkpt>
      <trkpt lat="42.424212" lon="8.897633"><ele>1244.5</ele></trkpt>
      <trkpt lat="42.424225" lon="8.897674"><ele>1244.0</ele></trkpt>
      <trkpt lat="42.424233" lon="8.897773"><ele>1243.5</ele></trkpt>
      <trkpt lat="42.424255" lon="8.897889"><ele>1242.7</ele></trkpt>
      <trkpt lat="42.424278" lon="8.898005"><ele>1242.3</ele></trkpt>
      <trkpt lat="42.424303" lon="8.898037"><ele>1241.9</ele></trkpt>
      <trkpt lat="42.424335" lon="8.898079"><ele>1241.4</ele></trkpt>
      <trkpt lat="42.424422" lon="8.898095"><ele>1239.4</ele></trkpt>
      <trkpt lat="42.424557" lon="8.898067"><ele>1235.7</ele></trkpt>
      <trkpt lat="42.424652" lon="8.898108"><ele>1233.8</ele></trkpt>
      <trkpt lat="42.424756" lon="8.898137"><ele>1231.7</ele></trkpt>
      <trkpt lat="42.424844" lon="8.898131"><ele>1229.5</ele></trkpt>
      <trkpt lat="42.424908" lon="8.898146"><ele>1228.3</ele></trkpt>
      <trkpt lat="42.424909" lon="8.898184"><ele>1228.9</ele></trkpt>
      <trkpt lat="42.424933" lon="8.898265"><ele>1229.9</ele></trkpt>
      <trkpt lat="42.424873" lon="8.898375"><ele>1233.5</ele></trkpt>
      <trkpt lat="42.424911" lon="8.898446"><ele>1234.6</ele></trkpt>
      <trkpt lat="42.424864" lon="8.898537"><ele>1238.3</ele></trkpt>
      <trkpt lat="42.425008" lon="8.898683"><ele>1239.5</ele></trkpt>
      <trkpt lat="42.425093" lon="8.898824"><ele>1242.5</ele></trkpt>
      <trkpt lat="42.425200" lon="8.899001"><ele>1246.3</ele></trkpt>
      <trkpt lat="42.425358" lon="8.899107"><ele>1246.3</ele></trkpt>
      <trkpt lat="42.425450" lon="8.899126"><ele>1244.7</ele></trkpt>
      <trkpt lat="42.425545" lon="8.899216"><ele>1245.3</ele></trkpt>
      <trkpt lat="42.425634" lon="8.899313"><ele>1246.2</ele></trkpt>
      <trkpt lat="42.425691" lon="8.899411"><ele>1247.8</ele></trkpt>
      <trkpt lat="42.425723" lon="8.899554"><ele>1251.3</ele></trkpt>
      <trkpt lat="42.425838" lon="8.899631"><ele>1250.5</ele></trkpt>
      <trkpt lat="42.425894" lon="8.899717"><ele>1251.3</ele></trkpt>
      <trkpt lat="42.426045" lon="8.899844"><ele>1250.9</ele></trkpt>
      <trkpt lat="42.426179" lon="8.899821"><ele>1247.5</ele></trkpt>
      <trkpt lat="42.426277" lon="8.899878"><ele>1247.3</ele></trkpt>
      <trkpt lat="42.426330" lon="8.899984"><ele>1249.3</ele></trkpt>
      <trkpt lat="42.426343" lon="8.900010"><ele>1249.8</ele></trkpt>
      <trkpt lat="42.426333" lon="8.900215"><ele>1255.1</ele></trkpt>
      <trkpt lat="42.426164" lon="8.900401"><ele>1261.8</ele></trkpt>
    </trkseg></trk></gpx>