<?xml version='1.0' encoding='UTF-8'?>
<gpx xmlns="http://www.topografix.com/GPX/1/1" version="1.1" creator="merge.py"><trk><name>day7-carrozzu-calenzana</name><trkseg><trkpt lat="42.426164" lon="8.900401"><ele>1261.8</ele></trkpt>
      <trkpt lat="42.426105" lon="8.900645"><ele>1267.9</ele></trkpt>
      <trkpt lat="42.426038" lon="8.900710"><ele>1270.5</ele></trkpt>
      <trkpt lat="42.425958" lon="8.901054"><ele>1279.2</ele></trkpt>
      <trkpt lat="42.426032" lon="8.901129"><ele>1279.1</ele></trkpt>
      <trkpt lat="42.426057" lon="8.901281"><ele>1281.8</ele></trkpt>
      <trkpt lat="42.426101" lon="8.901333"><ele>1281.9</ele></trkpt>
      <trkpt lat="42.426139" lon="8.901457"><ele>1283.9</ele></trkpt>
      <trkpt lat="42.426137" lon="8.901499"><ele>1284.8</ele></trkpt>
      <trkpt lat="42.426119" lon="8.901558"><ele>1286.5</ele></trkpt>
      <trkpt lat="42.426139" lon="8.901606"><ele>1287.2</ele></trkpt>
      <trkpt lat="42.426152" lon="8.901913"><ele>1293.4</ele></trkpt>
      <trkpt lat="42.426244" lon="8.902154"><ele>1296.3</ele></trkpt>
      <trkpt lat="42.426368" lon="8.902580"><ele>1302.3</ele></trkpt>
      <trkpt lat="42.426361" lon="8.902893"><ele>1308.9</ele></trkpt>
      <trkpt lat="42.426696" lon="8.903269"><ele>1311.0</ele></trkpt>
      <trkpt lat="42.426714" lon="8.903504"><ele>1317.6</ele></trkpt>
      <trkpt lat="42.426667" lon="8.903687"><ele>1323.9</ele></trkpt>
      <trkpt lat="42.426682" lon="8.903998"><ele>1331.9</ele></trkpt>
      <trkpt lat="42.426668" lon="8.904730"><ele>1353.0</ele></trkpt>
      <trkpt lat="42.426872" lon="8.905048"><ele>1362.4</ele></trkpt>
      <trkpt lat="42.427063" lon="8.905279"><ele>1368.1</ele></trkpt>
      <trkpt lat="42.427278" lon="8.905381"><ele>1372.9</ele></trkpt>
      <trkpt lat="42.427372" lon="8.905238"><ele>1370.0</ele></trkpt>
      <trkpt lat="42.427524" lon="8.905211"><ele>1371.7</ele></trkpt>
      <trkpt lat="42.427529" lon="8.905309"><ele>1374.5</ele></trkpt>
      <trkpt lat="42.427644" lon="8.905333"><ele>1377.8</ele></trkpt>
      <trkpt lat="42.427878" lon="8.905185"><ele>1382.1</ele></trkpt>
      <trkpt lat="42.427746" lon="8.905647"><ele>1391.3</ele></trkpt>
      <trkpt lat="42.427866" lon="8.905621"><ele>1395.1</ele></trkpt>
      <trkpt lat="42.427823" lon="8.905734"><ele>1397.3</ele></trkpt>
      <trkpt lat="42.427874" lon="8.905817"><ele>1402.2</ele></trkpt>
      <trkpt lat="42.427866" lon="8.905973"><ele>1407.2</ele></trkpt>
      <trkpt lat="42.427985" lon="8.906121"><ele>1416.8</ele></trkpt>
      <trkpt lat="42.427934" lon="8.906212"><ele>1416.8</ele></trkpt>
      <trkpt lat="42.427980" lon="8.906259"><ele>1420.0</ele></trkpt>
      <trkpt lat="42.427968" lon="8.906426"><ele>1423.1</ele></trkpt>
      <trkpt lat="42.428091" lon="8.906441"><ele>1431.0</ele></trkpt>
      <trkpt lat="42.428103" lon="8.906526"><ele>1433.9</ele></trkpt>
      <trkpt lat="42.427993" lon="8.906617"><ele>1430.2</ele></trkpt>
      <trkpt lat="42.427996" lon="8.907019"><ele>1439.1</ele></trkpt>
      <trkpt lat="42.428001" lon="8.907362"><ele>1449.2</ele></trkpt>
      <trkpt lat="42.427873" lon="8.907476"><ele>1448.3</ele></trkpt>
      <trkpt lat="42.427864" lon="8.907746"><ele>1454.2</ele></trkpt>
      <trkpt lat="42.427836" lon="8.907956"><ele>1459.2</ele></trkpt>
      <trkpt lat="42.427889" lon="8.908082"><ele>1464.2</ele></trkpt>
      <trkpt lat="42.427866" lon="8.908380"><ele>1472.8</ele></trkpt>
      <trkpt lat="42.428010" lon="8.908813"><ele>1491.2</ele></trkpt>
      <trkpt lat="42.427975" lon="8.909057"><ele>1497.9</ele></trkpt>
      <trkpt lat="42.428089" lon="8.909349"><ele>1510.7</ele></trkpt>
      <trkpt lat="42.428088" lon="8.909593"><ele>1518.2</ele></trkpt>
      <trkpt lat="42.428167" lon="8.909768"><ele>1526.5</ele></trkpt>
      <trkpt lat="42.428212" lon="8.909914"><ele>1533.0</ele></trkpt>
      <trkpt lat="42.428315" lon="8.910016"><ele>1540.5</ele></trkpt>
      <trkpt lat="42.428362" lon="8.910166"><ele>1547.7</ele></trkpt>
      <trkpt lat="42.428473" lon="8.910304"><ele>1557.6</ele></trkpt>
      <trkpt lat="42.428515" lon="8.910616"><ele>1570.7</ele></trkpt>
      <trkpt lat="42.428808" lon="8.911391"><ele>1614.3</ele></trkpt>
      <trkpt lat="42.428694" lon="8.911837"><ele>1626.1</ele></trkpt>
      <trkpt lat="42.428731" lon="8.912227"><ele>1643.0</ele></trkpt>
      <trkpt lat="42.428970" lon="8.912256"><ele>1654.9</ele></trkpt>
      <trkpt lat="42.429088" lon="8.912431"><ele>1667.3</ele></trkpt>
      <trkpt lat="42.429589" lon="8.912577"><ele>1692.7</ele></trkpt>
      <trkpt lat="42.429791" lon="8.912661"><ele>1704.7</ele></trkpt>
      <trkpt lat="42.429903" lon="8.912535"><ele>1704.3</ele></trkpt>
      <trkpt lat="42.430245" lon="8.912595"><ele>1725.4</ele></trkpt>
      <trkpt lat="42.430456" lon="8.912514"><ele>1736.3</ele></trkpt>
      <trkpt lat="42.430569" lon="8.912605"><ele>1746.5</ele></trkpt>
      <trkpt lat="42.430636" lon="8.912611"><ele>1751.1</ele></trkpt>
      <trkpt lat="42.430712" lon="8.912731"><ele>1759.1</ele></trkpt>
      <trkpt lat="42.430977" lon="8.912803"><ele>1775.4</ele></trkpt>
      <trkpt lat="42.431200" lon="8.912709"><ele>1786.2</ele></trkpt>
      <trkpt lat="42.431402" lon="8.912747"><ele>1796.8</ele></trkpt>
      <trkpt lat="42.431532" lon="8.912664"><ele>1803.9</ele></trkpt>
      <trkpt lat="42.431609" lon="8.912731"><ele>1808.5</ele></trkpt>
      <trkpt lat="42.431748" lon="8.912643"><ele>1817.4</ele></trkpt>
      <trkpt lat="42.431924" lon="8.912659"><ele>1828.4</ele></trkpt>
      <trkpt lat="42.431994" lon="8.912743"><ele>1832.5</ele></trkpt>
      <trkpt lat="42.432107" lon="8.912762"><ele>1838.6</ele></trkpt>
      <trkpt lat="42.432113" lon="8.912879"><ele>1839.7</ele></trkpt>
      <trkpt lat="42.432244" lon="8.912918"><ele>1846.1</ele></trkpt>
      <trkpt lat="42.432516" lon="8.912728"><ele>1852.6</ele></trkpt>
      <trkpt lat="42.432720" lon="8.912765"><ele>1854.8</ele></trkpt>
      <trkpt lat="42.432887" lon="8.912720"><ele>1854.4</ele></trkpt>
      <trkpt lat="42.432867" lon="8.913064"><ele>1858.9</ele></trkpt>
      <trkpt lat="42.432703" lon="8.913317"><ele>1864.6</ele></trkpt>
      <trkpt lat="42.432706" lon="8.913672"><ele>1878.0</ele></trkpt>
      <trkpt lat="42.432932" lon="8.913908"><ele>1886.6</ele></trkpt>
      <trkpt lat="42.433148" lon="8.914521"><ele>1911.4</ele></trkpt>
      <trkpt lat="42.433306" lon="8.914911"><ele>1925.2</ele></trkpt>
      <trkpt lat="42.433504" lon="8.915127"><ele>1927.3</ele></trkpt>
      <trkpt lat="42.433893" lon="8.915447"><ele>1923.0</ele></trkpt>
      <trkpt lat="42.434334" lon="8.915551"><ele>1902.4</ele></trkpt>
      <trkpt lat="42.434715" lon="8.915848"><ele>1897.2</ele></trkpt>
      <trkpt lat="42.435000" lon="8.916001"><ele>1889.9</ele></trkpt>
      <trkpt lat="42.435245" lon="8.916208"><ele>1888.1</ele></trkpt>
      <trkpt lat="42.435544" lon="8.916489"><ele>1887.6</ele></trkpt>
      <trkpt lat="42.435582" lon="8.916525"><ele>1887.6</ele></trkpt>
      <trkpt lat="42.435666" lon="8.916546"><ele>1885.7</ele></trkpt>
      <trkpt lat="42.435846" lon="8.916682"><ele>1883.1</ele></trkpt>
      <trkpt lat="42.435882" lon="8.916840"><ele>1884.3</ele></trkpt>
      <trkpt lat="42.435976" lon="8.916853"><ele>1881.4</ele></trkpt>
      <trkpt lat="42.436370" lon="8.916803"><ele>1869.0</ele></trkpt>
      <trkpt lat="42.436442" lon="8.916871"><ele>1867.7</ele></trkpt>
      <trkpt lat="42.436560" lon="8.916805"><ele>1864.7</ele></trkpt>
      <trkpt lat="42.436684" lon="8.916828"><ele>1862.8</ele></trkpt>
      <trkpt lat="42.436886" lon="8.916778"><ele>1861.9</ele></trkpt>
      <trkpt lat="42.437282" lon="8.916891"><ele>1864.9</ele></trkpt>
      <trkpt lat="42.437688" lon="8.916839"><ele>1871.2</ele></trkpt>
      <trkpt lat="42.438117" lon="8.916840"><ele>1873.9</ele></trkpt>
      <trkpt lat="42.438603" lon="8.916561"><ele>1870.2</ele></trkpt>
      <trkpt lat="42.439062" lon="8.916382"><ele>1874.2</ele></trkpt>
      <trkpt lat="42.439305" lon="8.916286"><ele>1877.2</ele></trkpt>
      <trkpt lat="42.439439" lon="8.916306"><ele>1882.3</ele></trkpt>
      <trkpt lat="42.439316" lon="8.916130"><ele>1869.6</ele></trkpt>
      <trkpt lat="42.439322" lon="8.916078"><ele>1867.0</ele></trkpt>
      <trkpt lat="42.439519" lon="8.916165"><ele>1877.9</ele></trkpt>
      <trkpt lat="42.439643" lon="8.916242"><ele>1885.8</ele></trkpt>
      <trkpt lat="42.439816" lon="8.916449"><ele>1900.1</ele></trkpt>
      <trkpt lat="42.440143" lon="8.916035"><ele>1894.7</ele></trkpt>
      <trkpt lat="42.440346" lon="8.915940"><ele>1898.3</ele></trkpt>
      <trkpt lat="42.440506" lon="8.915758"><ele>1895.8</ele></trkpt>
      <trkpt lat="42.441103" lon="8.915577"><ele>1913.1</ele></trkpt>
      <trkpt lat="42.441440" lon="8.915404"><ele>1917.9</ele></trkpt>
      <trkpt lat="42.441760" lon="8.915300"><ele>1926.1</ele></trkpt>
      <trkpt lat="42.442103" lon="8.915105"><ele>1934.8</ele></trkpt>
      <trkpt lat="42.442521" lon="8.915195"><ele>1963.3</ele></trkpt>
      <trkpt lat="42.442771" lon="8.915295"><ele>1983.4</ele></trkpt>
      <trkpt lat="42.442979" lon="8.915153"><ele>1992.7</ele></trkpt>
      <trkpt lat="42.443371" lon="8.914535"><ele>2008.9</ele></trkpt>
      <trkpt lat="42.443555" lon="8.914089"><ele>2021.0</ele></trkpt>
      <trkpt lat="42.443589" lon="8.913815"><ele>2024.9</ele></trkpt>
      <trkpt lat="42.443705" lon="8.913790"><ele>2034.4</ele></trkpt>
      <trkpt lat="42.443696" lon="8.913632"><ele>2034.9</ele></trkpt>
      <trkpt lat="42.443783" lon="8.913182"><ele>2044.4</ele></trkpt>
      <trkpt lat="42.443746" lon="8.913046"><ele>2041.8</ele></trkpt>
      <trkpt lat="42.443843" lon="8.912785"><ele>2048.8</ele></trkpt>
      <trkpt lat="42.443801" lon="8.912606"><ele>2045.3</ele></trkpt>
      <trkpt lat="42.443757" lon="8.912422"><ele>2042.0</ele></trkpt>
      <trkpt lat="42.443973" lon="8.911765"><ele>2045.7</ele></trkpt>
      <trkpt lat="42.443886" lon="8.910918"><ele>2020.5</ele></trkpt>
      <trkpt lat="42.443930" lon="8.910814"><ele>2019.9</ele></trkpt>
      <trkpt lat="42.443981" lon="8.910451"><ele>2013.0</ele></trkpt>
      <trkpt lat="42.444388" lon="8.908877"><ele>1993.9</ele></trkpt>
      <trkpt lat="42.444475" lon="8.908268"><ele>1983.4</ele></trkpt>
      <trkpt lat="42.444665" lon="8.907771"><ele>1982.2</ele></trkpt>
      <trkpt lat="42.444894" lon="8.907682"><ele>1991.9</ele></trkpt>
      <trkpt lat="42.445113" lon="8.907806"><ele>2004.5</ele></trkpt>
      <trkpt lat="42.445269" lon="8.907750"><ele>2006.0</ele></trkpt>
      <trkpt lat="42.445736" lon="8.907183"><ele>1984.7</ele></trkpt>
      <trkpt lat="42.445589" lon="8.906984"><ele>1978.7</ele></trkpt>
      <trkpt lat="42.445754" lon="8.906794"><ele>1970.1</ele></trkpt>
      <trkpt lat="42.445650" lon="8.906690"><ele>1967.7</ele></trkpt>
      <trkpt lat="42.445849" lon="8.906180"><ele>1947.3</ele></trkpt>
      <trkpt lat="42.445771" lon="8.905195"><ele>1922.5</ele></trkpt>
      <trkpt lat="42.445572" lon="8.904668"><ele>1908.0</ele></trkpt>
      <trkpt lat="42.445676" lon="8.904382"><ele>1902.9</ele></trkpt>
      <trkpt lat="42.446069" lon="8.904224"><ele>1894.1</ele></trkpt>
      <trkpt lat="42.446263" lon="8.904110"><ele>1887.8</ele></trkpt>
      <trkpt lat="42.446364" lon="8.904473"><ele>1886.1</ele></trkpt>
      <trkpt lat="42.446407" lon="8.904562"><ele>1885.3</ele></trkpt>
      <trkpt lat="42.446454" lon="8.904201"><ele>1880.3</ele></trkpt>
      <trkpt lat="42.446687" lon="8.903861"><ele>1866.6</ele></trkpt>
      <trkpt lat="42.446852" lon="8.903371"><ele>1861.7</ele></trkpt>
      <trkpt lat="42.447080" lon="8.903302"><ele>1848.2</ele></trkpt>
      <trkpt lat="42.447215" lon="8.902999"><ele>1848.1</ele></trkpt>
      <trkpt lat="42.447324" lon="8.903110"><ele>1838.6</ele></trkpt>
      <trkpt lat="42.447601" lon="8.902936"><ele>1828.4</ele></trkpt>
      <trkpt lat="42.447993" lon="8.902204"><ele>1827.9</ele></trkpt>
      <trkpt lat="42.448123" lon="8.902152"><ele>1822.2</ele></trkpt>
      <trkpt lat="42.448294" lon="8.902161"><ele>1812.5</ele></trkpt>
      <trkpt lat="42.448479" lon="8.901943"><ele>1810.7</ele></trkpt>
      <trkpt lat="42.448598" lon="8.901970"><ele>1804.3</ele></trkpt>
      <trkpt lat="42.448580" lon="8.902714"><ele>1780.2</ele></trkpt>
      <trkpt lat="42.448459" lon="8.903155"><ele>1776.4</ele></trkpt>
      <trkpt lat="42.448487" lon="8.903459"><ele>1770.9</ele></trkpt>
      <trkpt lat="42.448457" lon="8.903831"><ele>1771.8</ele></trkpt>
      <trkpt lat="42.448545" lon="8.903745"><ele>1767.4</ele></trkpt>
      <trkpt lat="42.448642" lon="8.903572"><ele>1763.2</ele></trkpt>
      <trkpt lat="42.448848" lon="8.903470"><ele>1755.2</ele></trkpt>
      <trkpt lat="42.449097" lon="8.903171"><ele>1749.5</ele></trkpt>
      <trkpt lat="42.449206" lon="8.902802"><ele>1754.0</ele></trkpt>
      <trkpt lat="42.449393" lon="8.902550"><ele>1757.2</ele></trkpt>
      <trkpt lat="42.449641" lon="8.902846"><ele>1740.4</ele></trkpt>
      <trkpt lat="42.449584" lon="8.903005"><ele>1737.6</ele></trkpt>
      <trkpt lat="42.449636" lon="8.903148"><ele>1732.4</ele></trkpt>
      <trkpt lat="42.449906" lon="8.903217"><ele>1720.9</ele></trkpt>
      <trkpt lat="42.450283" lon="8.903302"><ele>1702.7</ele></trkpt>
      <trkpt lat="42.450439" lon="8.903198"><ele>1697.0</ele></trkpt>
      <trkpt lat="42.450531" lon="8.903219"><ele>1692.0</ele></trkpt>
      <trkpt lat="42.450722" lon="8.903513"><ele>1681.7</ele></trkpt>
      <trkpt lat="42.451386" lon="8.903535"><ele>1653.5</ele></trkpt>
      <trkpt lat="42.451593" lon="8.903389"><ele>1644.0</ele></trkpt>
      <trkpt lat="42.451849" lon="8.903377"><ele>1635.6</ele></trkpt>
      <trkpt lat="42.452098" lon="8.903500"><ele>1630.1</ele></trkpt>
      <trkpt lat="42.452120" lon="8.903966"><ele>1643.6</ele></trkpt>
      <trkpt lat="42.452246" lon="8.904065"><ele>1645.2</ele></trkpt>
      <trkpt lat="42.452316" lon="8.904135"><ele>1647.1</ele></trkpt>
      <trkpt lat="42.452437" lon="8.904026"><ele>1639.9</ele></trkpt>
      <trkpt lat="42.452683" lon="8.903995"><ele>1633.8</ele></trkpt>
      <trkpt lat="42.452892" lon="8.903993"><ele>1628.9</ele></trkpt>
      <trkpt lat="42.453147" lon="8.904173"><ele>1631.3</ele></trkpt>
      <trkpt lat="42.453436" lon="8.904161"><ele>1623.7</ele></trkpt>
      <trkpt lat="42.453886" lon="8.903598"><ele>1587.5</ele></trkpt>
      <trkpt lat="42.454352" lon="8.903371"><ele>1562.5</ele></trkpt>
      <trkpt lat="42.454802" lon="8.903339"><ele>1544.6</ele></trkpt>
      <trkpt lat="42.455211" lon="8.903393"><ele>1534.4</ele></trkpt>
      <trkpt lat="42.455268" lon="8.903515"><ele>1536.3</ele></trkpt>
      <trkpt lat="42.455256" lon="8.903668"><ele>1539.9</ele></trkpt>
      <trkpt lat="42.455379" lon="8.903644"><ele>1538.0</ele></trkpt>
      <trkpt lat="42.455488" lon="8.903533"><ele>1534.6</ele></trkpt>
      <trkpt lat="42.455619" lon="8.903855"><ele>1542.3</ele></trkpt>
      <trkpt lat="42.455635" lon="8.903895"><ele>1543.4</ele></trkpt>
      <trkpt lat="42.455781" lon="8.903891"><ele>1545.8</ele></trkpt>
      <trkpt lat="42.455855" lon="8.903544"><ele>1538.4</ele></trkpt>
      <trkpt lat="42.455979" lon="8.903037"><ele>1526.3</ele></trkpt>
      <trkpt lat="42.456282" lon="8.902741"><ele>1524.8</ele></trkpt>
      <trkpt lat="42.456619" lon="8.902822"><ele>1539.0</ele></trkpt>
      <trkpt lat="42.456797" lon="8.902983"><ele>1551.2</ele></trkpt>
      <trkpt lat="42.457129" lon="8.903135"><ele>1570.0</ele></trkpt>
      <trkpt lat="42.457194" lon="8.903146"><ele>1573.1</ele></trkpt>
      <trkpt lat="42.457257" lon="8.903115"><ele>1575.0</ele></trkpt>
      <trkpt lat="42.457349" lon="8.903024"><ele>1576.7</ele></trkpt>
      <trkpt lat="42.457413" lon="8.902996"><ele>1579.0</ele></trkpt>
      <trkpt lat="42.457515" lon="8.903016"><ele>1584.5</ele></trkpt>
      <trkpt lat="42.457661" lon="8.903110"><ele>1594.0</ele></trkpt>
      <trkpt lat="42.457729" lon="8.903113"><ele>1597.4</ele></trkpt>
      <trkpt lat="42.457795" lon="8.903083"><ele>1600.0</ele></trkpt>
      <trkpt lat="42.457850" lon="8.903029"><ele>1601.5</ele></trkpt>
      <trkpt lat="42.457890" lon="8.902917"><ele>1601.3</ele></trkpt>
      <trkpt lat="42.457910" lon="8.902668"><ele>1597.6</ele></trkpt>
      <trkpt lat="42.457936" lon="8.902602"><ele>1597.7</ele></trkpt>
      <trkpt lat="42.457966" lon="8.902579"><ele>1598.8</ele></trkpt>
      <trkpt lat="42.458019" lon="8.902586"><ele>1601.5</ele></trkpt>
      <trkpt lat="42.458121" lon="8.902652"><ele>1607.2</ele></trkpt>
      <trkpt lat="42.458196" lon="8.902623"><ele>1609.7</ele></trkpt>
      <trkpt lat="42.458288" lon="8.902540"><ele>1611.7</ele></trkpt>
      <trkpt lat="42.458355" lon="8.902538"><ele>1613.7</ele></trkpt>
      <trkpt lat="42.458433" lon="8.902586"><ele>1616.6</ele></trkpt>
      <trkpt lat="42.458538" lon="8.902719"><ele>1621.0</ele></trkpt>
      <trkpt lat="42.458604" lon="8.902775"><ele>1623.0</ele></trkpt>
      <trkpt lat="42.458670" lon="8.902809"><ele>1624.4</ele></trkpt>
      <trkpt lat="42.458893" lon="8.902836"><ele>1626.4</ele></trkpt>
      <trkpt lat="42.458963" lon="8.902883"><ele>1627.2</ele></trkpt>
      <trkpt lat="42.459101" lon="8.903054"><ele>1629.2</ele></trkpt>
      <trkpt lat="42.459165" lon="8.903108"><ele>1629.5</ele></trkpt>
      <trkpt lat="42.459421" lon="8.903257"><ele>1626.4</ele></trkpt>
      <trkpt lat="42.459673" lon="8.903608"><ele>1623.8</ele></trkpt>
      <trkpt lat="42.459822" lon="8.903915"><ele>1622.7</ele></trkpt>
      <trkpt lat="42.460103" lon="8.904333"><ele>1614.2</ele></trkpt>
      <trkpt lat="42.460147" lon="8.904443"><ele>1612.9</ele></trkpt>
      <trkpt lat="42.460140" lon="8.904652"><ele>1615.8</ele></trkpt>
      <trkpt lat="42.460039" lon="8.905046"><ele>1626.5</ele></trkpt>
      <trkpt lat="42.460034" lon="8.905298"><ele>1630.2</ele></trkpt>
      <trkpt lat="42.460107" lon="8.905814"><ele>1633.2</ele></trkpt>
      <trkpt lat="42.460177" lon="8.906110"><ele>1634.5</ele></trkpt>
      <trkpt lat="42.460200" lon="8.906365"><ele>1638.7</ele></trkpt>
      <trkpt lat="42.460225" lon="8.906437"><ele>1639.2</ele></trkpt>
      <trkpt lat="42.460284" lon="8.906534"><ele>1639.0</ele></trkpt>
      <trkpt lat="42.460577" lon="8.906858"><ele>1638.3</ele></trkpt>
      <trkpt lat="42.460684" lon="8.906918"><ele>1637.3</ele></trkpt>
      <trkpt lat="42.460765" lon="8.906924"><ele>1635.6</ele></trkpt>
      <trkpt lat="42.461066" lon="8.906878"><ele>1628.1</ele></trkpt>
      <trkpt lat="42.461204" lon="8.906838"><ele>1624.2</ele></trkpt>
      <trkpt lat="42.461503" lon="8.906683"><ele>1613.9</ele></trkpt>
      <trkpt lat="42.461720" lon="8.906700"><ele>1609.8</ele></trkpt>
      <trkpt lat="42.461892" lon="8.906627"><ele>1603.1</ele></trkpt>
      <trkpt lat="42.462177" lon="8.906558"><ele>1592.3</ele></trkpt>
      <trkpt lat="42.462294" lon="8.906539"><ele>1587.8</ele></trkpt>
      <trkpt lat="42.462386" lon="8.906536"><ele>1584.5</ele></trkpt>
      <trkpt lat="42.462468" lon="8.906629"><ele>1584.1</ele></trkpt>
      <trkpt lat="42.462515" lon="8.906649"><ele>1583.0</ele></trkpt>
      <trkpt lat="42.462570" lon="8.906637"><ele>1580.6</ele></trkpt>
      <trkpt lat="42.462623" lon="8.906634"><ele>1578.6</ele></trkpt>
      <trkpt lat="42.462678" lon="8.906663"><ele>1577.2</ele></trkpt>
      <trkpt lat="42.462796" lon="8.906736"><ele>1574.3</ele></trkpt>
      <trkpt lat="42.462850" lon="8.906799"><ele>1573.6</ele></trkpt>
      <trkpt lat="42.462895" lon="8.906853"><ele>1573.0</ele></trkpt>
      <trkpt lat="42.462952" lon="8.906932"><ele>1572.6</ele></trkpt>
      <trkpt lat="42.462989" lon="8.907034"><ele>1573.6</ele></trkpt>
      <trkpt lat="42.463095" lon="8.907112"><ele>1571.5</ele></trkpt>
      <trkpt lat="42.463146" lon="8.907113"><ele>1569.7</ele></trkpt>
      <trkpt lat="42.463199" lon="8.907114"><ele>1567.8</ele></trkpt>
      <trkpt lat="42.463266" lon="8.907090"><ele>1564.9</ele></trkpt>
      <trkpt lat="42.463324" lon="8.907041"><ele>1561.7</ele></trkpt>
      <trkpt lat="42.463467" lon="8.906812"><ele>1551.1</ele></trkpt>
      <trkpt lat="42.463522" lon="8.906762"><ele>1548.3</ele></trkpt>
      <trkpt lat="42.463582" lon="8.906755"><ele>1546.5</ele></trkpt>
      <trkpt lat="42.463652" lon="8.906806"><ele>1546.1</ele></trkpt>
      <trkpt lat="42.463734" lon="8.906918"><ele>1547.0</ele></trkpt>
      <trkpt lat="42.463792" lon="8.906961"><ele>1546.9</ele></trkpt>
      <trkpt lat="42.463852" lon="8.906972"><ele>1546.1</ele></trkpt>
      <trkpt lat="42.463964" lon="8.906950"><ele>1543.9</ele></trkpt>
      <trkpt lat="42.464105" lon="8.906956"><ele>1542.5</ele></trkpt>
      <trkpt lat="42.464306" lon="8.906986"><ele>1542.4</ele></trkpt>
      <trkpt lat="42.464386" lon="8.907023"><ele>1543.4</ele></trkpt>
      <trkpt lat="42.464481" lon="8.907061"><ele>1544.7</ele></trkpt>
      <trkpt lat="42.464609" lon="8.907113"><ele>1546.6</ele></trkpt>
      <trkpt lat="42.464677" lon="8.907114"><ele>1547.0</ele></trkpt>
      <trkpt lat="42.464762" lon="8.907065"><ele>1546.5</ele></trkpt>
      <trkpt lat="42.464873" lon="8.906966"><ele>1544.9</ele></trkpt>
      <trkpt lat="42.464951" lon="8.906841"><ele>1542.4</ele></trkpt>
      <trkpt lat="42.465029" lon="8.906774"><ele>1540.9</ele></trkpt>
      <trkpt lat="42.465110" lon="8.906732"><ele>1539.7</ele></trkpt>
      <trkpt lat="42.465169" lon="8.906738"><ele>1539.5</ele></trkpt>
    <trkpt lat="42.465214" lon="8.906692"><ele>1538.1</ele></trkpt>
      <trkpt lat="42.465280" lon="8.906715"><ele>1537.9</ele></trkpt>
      <trkpt lat="42.465443" lon="8.906916"><ele>1539.7</ele></trkpt>
      <trkpt lat="42.465522" lon="8.906979"><ele>1539.1</ele></trkpt>
      <trkpt lat="42.465580" lon="8.907046"><ele>1539.0</ele></trkpt>
      <trkpt lat="42.465688" lon="8.907145"><ele>1537.7</ele></trkpt>
      <trkpt lat="42.465738" lon="8.907187"><ele>1536.8</ele></trkpt>
      <trkpt lat="42.465769" lon="8.907267"><ele>1537.5</ele></trkpt>
      <trkpt lat="42.465879" lon="8.907293"><ele>1533.7</ele></trkpt>
      <trkpt lat="42.465951" lon="8.907322"><ele>1531.3</ele></trkpt>
      <trkpt lat="42.466010" lon="8.907361"><ele>1529.7</ele></trkpt>
      <trkpt lat="42.466011" lon="8.907426"><ele>1531.4</ele></trkpt>
      <trkpt lat="42.466022" lon="8.907505"><ele>1532.9</ele></trkpt>
      <trkpt lat="42.466040" lon="8.907529"><ele>1532.5</ele></trkpt>
      <trkpt lat="42.466060" lon="8.907538"><ele>1531.5</ele></trkpt>
      <trkpt lat="42.466076" lon="8.907599"><ele>1531.7</ele></trkpt>
      <trkpt lat="42.466081" lon="8.907630"><ele>1532.0</ele></trkpt>
      <trkpt lat="42.466119" lon="8.907639"><ele>1529.2</ele></trkpt>
      <trkpt lat="42.466143" lon="8.907677"><ele>1527.8</ele></trkpt>
      <trkpt lat="42.466137" lon="8.907746"><ele>1529.4</ele></trkpt>
      <trkpt lat="42.466145" lon="8.907808"><ele>1529.6</ele></trkpt>
      <trkpt lat="42.466138" lon="8.907880"><ele>1531.6</ele></trkpt>
      <trkpt lat="42.466159" lon="8.907931"><ele>1530.5</ele></trkpt>
      <trkpt lat="42.466161" lon="8.907973"><ele>1531.2</ele></trkpt>
      <trkpt lat="42.466146" lon="8.908013"><ele>1533.6</ele></trkpt>
      <trkpt lat="42.466142" lon="8.908063"><ele>1535.1</ele></trkpt>
      <trkpt lat="42.466158" lon="8.908108"><ele>1534.7</ele></trkpt>
      <trkpt lat="42.466167" lon="8.908116"><ele>1534.1</ele></trkpt>
      <trkpt lat="42.466176" lon="8.908093"><ele>1532.6</ele></trkpt>
      <trkpt lat="42.466205" lon="8.908116"><ele>1530.4</ele></trkpt>
      <trkpt lat="42.466257" lon="8.908176"><ele>1527.3</ele></trkpt>
      <trkpt lat="42.466296" lon="8.908270"><ele>1528.6</ele></trkpt>
      <trkpt lat="42.466310" lon="8.908319"><ele>1531.1</ele></trkpt>
      <trkpt lat="42.466295" lon="8.908381"><ele>1537.2</ele></trkpt>
      <trkpt lat="42.466271" lon="8.908420"><ele>1541.2</ele></trkpt>
      <trkpt lat="42.466269" lon="8.908480"><ele>1544.2</ele></trkpt>
      <trkpt lat="42.466240" lon="8.908575"><ele>1548.2</ele></trkpt>
      <trkpt lat="42.466217" lon="8.908735"><ele>1552.2</ele></trkpt>
      <trkpt lat="42.466173" lon="8.908923"><ele>1558.7</ele></trkpt>
      <trkpt lat="42.466185" lon="8.909054"><ele>1562.3</ele></trkpt>
      <trkpt lat="42.466167" lon="8.909208"><ele>1567.7</ele></trkpt>
      <trkpt lat="42.466187" lon="8.909270"><ele>1569.3</ele></trkpt>
      <trkpt lat="42.466281" lon="8.909388"><ele>1571.1</ele></trkpt>
      <trkpt lat="42.466363" lon="8.909458"><ele>1571.9</ele></trkpt>
      <trkpt lat="42.466391" lon="8.909553"><ele>1575.0</ele></trkpt>
      <trkpt lat="42.466425" lon="8.909597"><ele>1576.3</ele></trkpt>
      <trkpt lat="42.466602" lon="8.909641"><ele>1576.4</ele></trkpt>
      <trkpt lat="42.466690" lon="8.909618"><ele>1575.0</ele></trkpt>
      <trkpt lat="42.466761" lon="8.909542"><ele>1571.5</ele></trkpt>
      <trkpt lat="42.466772" lon="8.909424"><ele>1566.6</ele></trkpt>
      <trkpt lat="42.466802" lon="8.909365"><ele>1564.1</ele></trkpt>
      <trkpt lat="42.466890" lon="8.909270"><ele>1560.1</ele></trkpt>
      <trkpt lat="42.466924" lon="8.909243"><ele>1559.1</ele></trkpt>
      <trkpt lat="42.466963" lon="8.909286"><ele>1561.1</ele></trkpt>
      <trkpt lat="42.467013" lon="8.909350"><ele>1564.0</ele></trkpt>
      <trkpt lat="42.467085" lon="8.909405"><ele>1567.0</ele></trkpt>
      <trkpt lat="42.467152" lon="8.909403"><ele>1567.7</ele></trkpt>
      <trkpt lat="42.467247" lon="8.909346"><ele>1567.0</ele></trkpt>
      <trkpt lat="42.467311" lon="8.909289"><ele>1565.9</ele></trkpt>
      <trkpt lat="42.467404" lon="8.909113"><ele>1560.9</ele></trkpt>
      <trkpt lat="42.467813" lon="8.908031"><ele>1530.0</ele></trkpt>
      <trkpt lat="42.467898" lon="8.907853"><ele>1525.1</ele></trkpt>
      <trkpt lat="42.468059" lon="8.907561"><ele>1518.1</ele></trkpt>
      <trkpt lat="42.468105" lon="8.907380"><ele>1512.5</ele></trkpt>
      <trkpt lat="42.468137" lon="8.907202"><ele>1506.5</ele></trkpt>
      <trkpt lat="42.468251" lon="8.907028"><ele>1502.4</ele></trkpt>
      <trkpt lat="42.468278" lon="8.907001"><ele>1501.9</ele></trkpt>
      <trkpt lat="42.468333" lon="8.906999"><ele>1503.0</ele></trkpt>
      <trkpt lat="42.468391" lon="8.907026"><ele>1505.3</ele></trkpt>
      <trkpt lat="42.468463" lon="8.907029"><ele>1506.9</ele></trkpt>
      <trkpt lat="42.468484" lon="8.907046"><ele>1508.1</ele></trkpt>
      <trkpt lat="42.468556" lon="8.907060"><ele>1510.5</ele></trkpt>
      <trkpt lat="42.468619" lon="8.907077"><ele>1512.8</ele></trkpt>
      <trkpt lat="42.468696" lon="8.907153"><ele>1518.1</ele></trkpt>
      <trkpt lat="42.468748" lon="8.907182"><ele>1520.8</ele></trkpt>
      <trkpt lat="42.469188" lon="8.907031"><ele>1533.2</ele></trkpt>
      <trkpt lat="42.469324" lon="8.906751"><ele>1531.3</ele></trkpt>
      <trkpt lat="42.469375" lon="8.905090"><ele>1501.3</ele></trkpt>
      <trkpt lat="42.469543" lon="8.904427"><ele>1505.3</ele></trkpt>
      <trkpt lat="42.469769" lon="8.903998"><ele>1511.2</ele></trkpt>
      <trkpt lat="42.469947" lon="8.904034"><ele>1522.9</ele></trkpt>
      <trkpt lat="42.470213" lon="8.903427"><ele>1521.1</ele></trkpt>
      <trkpt lat="42.470399" lon="8.902983"><ele>1514.1</ele></trkpt>
      <trkpt lat="42.471123" lon="8.902408"><ele>1522.1</ele></trkpt>
      <trkpt lat="42.471536" lon="8.901826"><ele>1525.9</ele></trkpt>
      <trkpt lat="42.471796" lon="8.900723"><ele>1539.8</ele></trkpt>
      <trkpt lat="42.471771" lon="8.899806"><ele>1551.7</ele></trkpt>
      <trkpt lat="42.471459" lon="8.898645"><ele>1558.7</ele></trkpt>
      <trkpt lat="42.471464" lon="8.897846"><ele>1575.2</ele></trkpt>
      <trkpt lat="42.471362" lon="8.897105"><ele>1575.0</ele></trkpt>
      <trkpt lat="42.471867" lon="8.895279"><ele>1558.3</ele></trkpt>
      <trkpt lat="42.471850" lon="8.894708"><ele>1554.6</ele></trkpt>
      <trkpt lat="42.471971" lon="8.893946"><ele>1553.6</ele></trkpt>
      <trkpt lat="42.471833" lon="8.893116"><ele>1547.4</ele></trkpt>
      <trkpt lat="42.471892" lon="8.892024"><ele>1544.2</ele></trkpt>
      <trkpt lat="42.471867" lon="8.891611"><ele>1539.3</ele></trkpt>
      <trkpt lat="42.471681" lon="8.891081"><ele>1531.0</ele></trkpt>
      <trkpt lat="42.471680" lon="8.890613"><ele>1526.9</ele></trkpt>
      <trkpt lat="42.471656" lon="8.890292"><ele>1523.3</ele></trkpt>
      <trkpt lat="42.472317" lon="8.889551"><ele>1504.2</ele></trkpt>
      <trkpt lat="42.472333" lon="8.889235"><ele>1496.2</ele></trkpt>
      <trkpt lat="42.472475" lon="8.888910"><ele>1486.4</ele></trkpt>
      <trkpt lat="42.472733" lon="8.888879"><ele>1478.9</ele></trkpt>
      <trkpt lat="42.472933" lon="8.888355"><ele>1469.8</ele></trkpt>
      <trkpt lat="42.473086" lon="8.888132"><ele>1466.2</ele></trkpt>
      <trkpt lat="42.473200" lon="8.888259"><ele>1462.6</ele></trkpt>
      <trkpt lat="42.473369" lon="8.888513"><ele>1456.0</ele></trkpt>
      <trkpt lat="42.473455" lon="8.888707"><ele>1452.2</ele></trkpt>
      <trkpt lat="42.473784" lon="8.888206"><ele>1439.8</ele></trkpt>
      <trkpt lat="42.474023" lon="8.888102"><ele>1425.7</ele></trkpt>
      <trkpt lat="42.474053" lon="8.887679"><ele>1425.9</ele></trkpt>
      <trkpt lat="42.473982" lon="8.887498"><ele>1433.1</ele></trkpt>
      <trkpt lat="42.474123" lon="8.887090"><ele>1427.4</ele></trkpt>
      <trkpt lat="42.474117" lon="8.886706"><ele>1435.3</ele></trkpt>
      <trkpt lat="42.474203" lon="8.885703"><ele>1450.3</ele></trkpt>
      <trkpt lat="42.474133" lon="8.885553"><ele>1459.8</ele></trkpt>
      <trkpt lat="42.474209" lon="8.884586"><ele>1470.7</ele></trkpt>
      <trkpt lat="42.474381" lon="8.883945"><ele>1470.5</ele></trkpt>
      <trkpt lat="42.474467" lon="8.883644"><ele>1470.7</ele></trkpt>
      <trkpt lat="42.474436" lon="8.883209"><ele>1483.6</ele></trkpt>
      <trkpt lat="42.474694" lon="8.882555"><ele>1467.4</ele></trkpt>
      <trkpt lat="42.474704" lon="8.882258"><ele>1464.1</ele></trkpt>
      <trkpt lat="42.474835" lon="8.882024"><ele>1448.6</ele></trkpt>
      <trkpt lat="42.474918" lon="8.881530"><ele>1431.8</ele></trkpt>
      <trkpt lat="42.474884" lon="8.881085"><ele>1427.3</ele></trkpt>
      <trkpt lat="42.475074" lon="8.880714"><ele>1416.7</ele></trkpt>
      <trkpt lat="42.475136" lon="8.880315"><ele>1417.2</ele></trkpt>
      <trkpt lat="42.475102" lon="8.880030"><ele>1427.8</ele></trkpt>
      <trkpt lat="42.475209" lon="8.879821"><ele>1425.7</ele></trkpt>
      <trkpt lat="42.475279" lon="8.879841"><ele>1425.9</ele></trkpt>
      <trkpt lat="42.475327" lon="8.879854"><ele>1427.9</ele></trkpt>
      <trkpt lat="42.475798" lon="8.879986"><ele>1401.0</ele></trkpt>
      <trkpt lat="42.476017" lon="8.879746"><ele>1397.2</ele></trkpt>
      <trkpt lat="42.476042" lon="8.879488"><ele>1406.9</ele></trkpt>
      <trkpt lat="42.476105" lon="8.879153"><ele>1418.5</ele></trkpt>
      <trkpt lat="42.476193" lon="8.878755"><ele>1430.9</ele></trkpt>
      <trkpt lat="42.476356" lon="8.878467"><ele>1426.4</ele></trkpt>
      <trkpt lat="42.476518" lon="8.878442"><ele>1407.9</ele></trkpt>
      <trkpt lat="42.476649" lon="8.878648"><ele>1388.1</ele></trkpt>
      <trkpt lat="42.476796" lon="8.878617"><ele>1378.5</ele></trkpt>
      <trkpt lat="42.477018" lon="8.878659"><ele>1363.6</ele></trkpt>
      <trkpt lat="42.477211" lon="8.878399"><ele>1359.0</ele></trkpt>
      <trkpt lat="42.477496" lon="8.878325"><ele>1344.0</ele></trkpt>
      <trkpt lat="42.477841" lon="8.878103"><ele>1334.4</ele></trkpt>
      <trkpt lat="42.477943" lon="8.878152"><ele>1327.4</ele></trkpt>
      <trkpt lat="42.478151" lon="8.878047"><ele>1322.4</ele></trkpt>
      <trkpt lat="42.478572" lon="8.877833"><ele>1317.8</ele></trkpt>
      <trkpt lat="42.478867" lon="8.877738"><ele>1312.7</ele></trkpt>
      <trkpt lat="42.479104" lon="8.877721"><ele>1304.8</ele></trkpt>
      <trkpt lat="42.479370" lon="8.877595"><ele>1299.8</ele></trkpt>
      <trkpt lat="42.479639" lon="8.877460"><ele>1293.5</ele></trkpt>
      <trkpt lat="42.479892" lon="8.877254"><ele>1289.0</ele></trkpt>
      <trkpt lat="42.479998" lon="8.877482"><ele>1276.4</ele></trkpt>
      <trkpt lat="42.481198" lon="8.876341"><ele>1246.6</ele></trkpt>
      <trkpt lat="42.481403" lon="8.875947"><ele>1240.1</ele></trkpt>
      <trkpt lat="42.481645" lon="8.875826"><ele>1235.8</ele></trkpt>
      <trkpt lat="42.481671" lon="8.875661"><ele>1234.0</ele></trkpt>
      <trkpt lat="42.481729" lon="8.875285"><ele>1228.6</ele></trkpt>
      <trkpt lat="42.481044" lon="8.874985"><ele>1221.8</ele></trkpt>
      <trkpt lat="42.480823" lon="8.874739"><ele>1215.7</ele></trkpt>
      <trkpt lat="42.480123" lon="8.873961"><ele>1198.5</ele></trkpt>
      <trkpt lat="42.480233" lon="8.873769"><ele>1186.1</ele></trkpt>
      <trkpt lat="42.480192" lon="8.873545"><ele>1178.4</ele></trkpt>
      <trkpt lat="42.480792" lon="8.873627"><ele>1166.7</ele></trkpt>
      <trkpt lat="42.481249" lon="8.873531"><ele>1160.3</ele></trkpt>
      <trkpt lat="42.481669" lon="8.873243"><ele>1153.6</ele></trkpt>
      <trkpt lat="42.481617" lon="8.873149"><ele>1148.1</ele></trkpt>
      <trkpt lat="42.481680" lon="8.873033"><ele>1144.1</ele></trkpt>
      <trkpt lat="42.481606" lon="8.873011"><ele>1141.5</ele></trkpt>
      <trkpt lat="42.482012" lon="8.872337"><ele>1122.0</ele></trkpt>
      <trkpt lat="42.482174" lon="8.871873"><ele>1107.6</ele></trkpt>
      <trkpt lat="42.481983" lon="8.871885"><ele>1101.4</ele></trkpt>
      <trkpt lat="42.481970" lon="8.871695"><ele>1091.9</ele></trkpt>
      <trkpt lat="42.482077" lon="8.871357"><ele>1078.7</ele></trkpt>
      <trkpt lat="42.481898" lon="8.871368"><ele>1073.0</ele></trkpt>
      <trkpt lat="42.481585" lon="8.871404"><ele>1064.7</ele></trkpt>
      <trkpt lat="42.481657" lon="8.871140"><ele>1055.4</ele></trkpt>
      <trkpt lat="42.481441" lon="8.871188"><ele>1052.2</ele></trkpt>
      <trkpt lat="42.481609" lon="8.870767"><ele>1040.6</ele></trkpt>
      <trkpt lat="42.482003" lon="8.870207"><ele>1017.7</ele></trkpt>
      <trkpt lat="42.481674" lon="8.870348"><ele>1025.0</ele></trkpt>
      <trkpt lat="42.481104" lon="8.870753"><ele>1033.9</ele></trkpt>
      <trkpt lat="42.480804" lon="8.870175"><ele>1020.6</ele></trkpt>
      <trkpt lat="42.480588" lon="8.870046"><ele>1022.9</ele></trkpt>
      <trkpt lat="42.480523" lon="8.869895"><ele>1020.4</ele></trkpt>
      <trkpt lat="42.480595" lon="8.869641"><ele>1009.1</ele></trkpt>
      <trkpt lat="42.480565" lon="8.869453"><ele>1003.6</ele></trkpt>
      <trkpt lat="42.480528" lon="8.869121"><ele>993.4</ele></trkpt>
      <trkpt lat="42.479831" lon="8.868460"><ele>1003.5</ele></trkpt>
      <trkpt lat="42.479855" lon="8.867919"><ele>983.5</ele></trkpt>
      <trkpt lat="42.479866" lon="8.867733"><ele>975.3</ele></trkpt>
      <trkpt lat="42.479651" lon="8.867301"><ele>968.0</ele></trkpt>
      <trkpt lat="42.479397" lon="8.866496"><ele>944.5</ele></trkpt>
      <trkpt lat="42.479130" lon="8.866241"><ele>941.4</ele></trkpt>
      <trkpt lat="42.478771" lon="8.866127"><ele>942.7</ele></trkpt>
      <trkpt lat="42.479032" lon="8.865972"><ele>929.8</ele></trkpt>
      <trkpt lat="42.479379" lon="8.865893"><ele>917.4</ele></trkpt>
      <trkpt lat="42.479583" lon="8.865858"><ele>909.0</ele></trkpt>
      <trkpt lat="42.479393" lon="8.865597"><ele>904.1</ele></trkpt>
      <trkpt lat="42.479002" lon="8.865388"><ele>900.7</ele></trkpt>
      <trkpt lat="42.478704" lon="8.865357"><ele>901.4</ele></trkpt>
      <trkpt lat="42.478547" lon="8.865281"><ele>898.9</ele></trkpt>
      <trkpt lat="42.478206" lon="8.865151"><ele>896.4</ele></trkpt>
      <trkpt lat="42.478840" lon="8.864891"><ele>878.5</ele></trkpt>
      <trkpt lat="42.479446" lon="8.864483"><ele>855.7</ele></trkpt>
      <trkpt lat="42.479734" lon="8.864349"><ele>846.4</ele></trkpt>
      <trkpt lat="42.479580" lon="8.864151"><ele>839.8</ele></trkpt>
      <trkpt lat="42.479876" lon="8.864094"><ele>833.1</ele></trkpt>
      <trkpt lat="42.480263" lon="8.864385"><ele>834.4</ele></trkpt>
      <trkpt lat="42.480416" lon="8.864502"><ele>833.6</ele></trkpt>
      <trkpt lat="42.480543" lon="8.864510"><ele>829.5</ele></trkpt>
      <trkpt lat="42.480656" lon="8.864645"><ele>830.3</ele></trkpt>
      <trkpt lat="42.480842" lon="8.864681"><ele>825.4</ele></trkpt>
      <trkpt lat="42.481155" lon="8.864673"><ele>814.9</ele></trkpt>
      <trkpt lat="42.481224" lon="8.864710"><ele>814.1</ele></trkpt>
      <trkpt lat="42.481610" lon="8.864704"><ele>800.8</ele></trkpt>
      <trkpt lat="42.481829" lon="8.864823"><ele>796.8</ele></trkpt>
      <trkpt lat="42.482082" lon="8.864909"><ele>790.1</ele></trkpt>
      <trkpt lat="42.482063" lon="8.865290"><ele>802.2</ele></trkpt>
      <trkpt lat="42.482255" lon="8.865283"><ele>794.8</ele></trkpt>
      <trkpt lat="42.482342" lon="8.865104"><ele>786.3</ele></trkpt>
      <trkpt lat="42.482467" lon="8.865145"><ele>782.9</ele></trkpt>
      <trkpt lat="42.482403" lon="8.865563"><ele>797.4</ele></trkpt>
      <trkpt lat="42.482450" lon="8.865572"><ele>796.1</ele></trkpt>
      <trkpt lat="42.482594" lon="8.865600"><ele>792.2</ele></trkpt>
      <trkpt lat="42.482955" lon="8.865240"><ele>771.4</ele></trkpt>
      <trkpt lat="42.483253" lon="8.865173"><ele>764.6</ele></trkpt>
      <trkpt lat="42.484060" lon="8.864507"><ele>736.0</ele></trkpt>
      <trkpt lat="42.484505" lon="8.864110"><ele>724.3</ele></trkpt>
      <trkpt lat="42.484949" lon="8.863879"><ele>725.5</ele></trkpt>
      <trkpt lat="42.485274" lon="8.863449"><ele>719.4</ele></trkpt>
      <trkpt lat="42.485551" lon="8.862512"><ele>700.9</ele></trkpt>
      <trkpt lat="42.485944" lon="8.861979"><ele>698.2</ele></trkpt>
      <trkpt lat="42.486163" lon="8.861683"><ele>696.3</ele></trkpt>
      <trkpt lat="42.486364" lon="8.861488"><ele>695.9</ele></trkpt>
      <trkpt lat="42.486671" lon="8.860857"><ele>686.7</ele></trkpt>
      <trkpt lat="42.487087" lon="8.859994"><ele>667.9</ele></trkpt>
      <trkpt lat="42.487303" lon="8.859895"><ele>668.6</ele></trkpt>
      <trkpt lat="42.487509" lon="8.859989"><ele>675.9</ele></trkpt>
      <trkpt lat="42.487758" lon="8.859970"><ele>679.9</ele></trkpt>
      <trkpt lat="42.488158" lon="8.859556"><ele>672.1</ele></trkpt>
      <trkpt lat="42.488554" lon="8.859508"><ele>673.2</ele></trkpt>
      <trkpt lat="42.488920" lon="8.859293"><ele>665.8</ele></trkpt>
      <trkpt lat="42.489159" lon="8.859298"><ele>665.2</ele></trkpt>
      <trkpt lat="42.489632" lon="8.859453"><ele>670.6</ele></trkpt>
      <trkpt lat="42.489797" lon="8.859446"><ele>671.2</ele></trkpt>
      <trkpt lat="42.489960" lon="8.859388"><ele>670.6</ele></trkpt>
      <trkpt lat="42.490223" lon="8.859125"><ele>666.0</ele></trkpt>
      <trkpt lat="42.490275" lon="8.859020"><ele>664.1</ele></trkpt>
      <trkpt lat="42.490413" lon="8.858748"><ele>659.5</ele></trkpt>
      <trkpt lat="42.490597" lon="8.858595"><ele>657.8</ele></trkpt>
      <trkpt lat="42.490634" lon="8.858529"><ele>656.5</ele></trkpt>
      <trkpt lat="42.490818" lon="8.858473"><ele>656.0</ele></trkpt>
      <trkpt lat="42.490984" lon="8.858376"><ele>653.5</ele></trkpt>
      <trkpt lat="42.491135" lon="8.858479"><ele>656.2</ele></trkpt>
      <trkpt lat="42.491318" lon="8.858391"><ele>654.3</ele></trkpt>
      <trkpt lat="42.491652" lon="8.858063"><ele>647.6</ele></trkpt>
      <trkpt lat="42.491688" lon="8.857920"><ele>644.1</ele></trkpt>
      <trkpt lat="42.491914" lon="8.857421"><ele>629.1</ele></trkpt>
      <trkpt lat="42.492010" lon="8.857349"><ele>631.2</ele></trkpt>
      <trkpt lat="42.492099" lon="8.857201"><ele>631.4</ele></trkpt>
      <trkpt lat="42.492141" lon="8.857005"><ele>626.4</ele></trkpt>
      <trkpt lat="42.492141" lon="8.856772"><ele>618.0</ele></trkpt>
      <trkpt lat="42.492227" lon="8.856480"><ele>610.2</ele></trkpt>
      <trkpt lat="42.492356" lon="8.856195"><ele>605.0</ele></trkpt>
      <trkpt lat="42.492544" lon="8.855903"><ele>604.2</ele></trkpt>
      <trkpt lat="42.492725" lon="8.855434"><ele>605.8</ele></trkpt>
      <trkpt lat="42.492733" lon="8.855181"><ele>604.5</ele></trkpt>
      <trkpt lat="42.492809" lon="8.854940"><ele>608.3</ele></trkpt>
      <trkpt lat="42.492881" lon="8.854581"><ele>613.9</ele></trkpt>
      <trkpt lat="42.492854" lon="8.854498"><ele>612.5</ele></trkpt>
      <trkpt lat="42.492901" lon="8.854337"><ele>616.2</ele></trkpt>
      <trkpt lat="42.492945" lon="8.854055"><ele>620.2</ele></trkpt>
      <trkpt lat="42.492928" lon="8.853945"><ele>619.4</ele></trkpt>
      <trkpt lat="42.492942" lon="8.853746"><ele>620.7</ele></trkpt>
      <trkpt lat="42.492917" lon="8.853686"><ele>619.2</ele></trkpt>
      <trkpt lat="42.492903" lon="8.853443"><ele>618.7</ele></trkpt>
      <trkpt lat="42.492813" lon="8.852958"><ele>618.3</ele></trkpt>
      <trkpt lat="42.492652" lon="8.851998"><ele>608.5</ele></trkpt>
      <trkpt lat="42.492430" lon="8.851639"><ele>590.4</ele></trkpt>
      <trkpt lat="42.492385" lon="8.851579"><ele>587.2</ele></trkpt>
      <trkpt lat="42.492401" lon="8.851351"><ele>584.6</ele></trkpt>
      <trkpt lat="42.492581" lon="8.850976"><ele>586.9</ele></trkpt>
      <trkpt lat="42.492671" lon="8.850906"><ele>589.8</ele></trkpt>
      <trkpt lat="42.492759" lon="8.850862"><ele>593.1</ele></trkpt>
      <trkpt lat="42.492807" lon="8.850979"><ele>598.0</ele></trkpt>
      <trkpt lat="42.493054" lon="8.850880"><ele>607.3</ele></trkpt>
      <trkpt lat="42.493168" lon="8.850818"><ele>610.4</ele></trkpt>
      <trkpt lat="42.493198" lon="8.850773"><ele>610.2</ele></trkpt>
      <trkpt lat="42.493288" lon="8.850743"><ele>612.0</ele></trkpt>
      <trkpt lat="42.493342" lon="8.850698"><ele>612.2</ele></trkpt>
      <trkpt lat="42.493423" lon="8.850709"><ele>614.3</ele></trkpt>
      <trkpt lat="42.493549" lon="8.850688"><ele>615.9</ele></trkpt>
      <trkpt lat="42.493705" lon="8.850478"><ele>613.8</ele></trkpt>
      <trkpt lat="42.493781" lon="8.850457"><ele>613.9</ele></trkpt>
      <trkpt lat="42.493891" lon="8.850241"><ele>612.5</ele></trkpt>
      <trkpt lat="42.494244" lon="8.850016"><ele>609.9</ele></trkpt>
      <trkpt lat="42.494450" lon="8.849818"><ele>607.8</ele></trkpt>
      <trkpt lat="42.494532" lon="8.849796"><ele>605.8</ele></trkpt>
      <trkpt lat="42.494562" lon="8.849851"><ele>604.1</ele></trkpt>
      <trkpt lat="42.494581" lon="8.849870"><ele>603.3</ele></trkpt>
      <trkpt lat="42.494616" lon="8.849860"><ele>602.2</ele></trkpt>
      <trkpt lat="42.494651" lon="8.849851"><ele>601.1</ele></trkpt>
      <trkpt lat="42.494667" lon="8.849868"><ele>600.3</ele></trkpt>
      <trkpt lat="42.494664" lon="8.849897"><ele>600.0</ele></trkpt>
      <trkpt lat="42.494634" lon="8.849959"><ele>600.2</ele></trkpt>
      <trkpt lat="42.494634" lon="8.850026"><ele>599.4</ele></trkpt>
      <trkpt lat="42.494550" lon="8.850124"><ele>601.2</ele></trkpt>
      <trkpt lat="42.494574" lon="8.850230"><ele>599.3</ele></trkpt>
      <trkpt lat="42.494590" lon="8.850239"><ele>598.7</ele></trkpt>
      <trkpt lat="42.494614" lon="8.850203"><ele>598.2</ele></trkpt>
      <trkpt lat="42.494653" lon="8.850192"><ele>596.9</ele></trkpt>
      <trkpt lat="42.494697" lon="8.850190"><ele>595.3</ele></trkpt>
      <trkpt lat="42.494757" lon="8.850132"><ele>593.7</ele></trkpt>
      <trkpt lat="42.494793" lon="8.850126"><ele>592.4</ele></trkpt>
      <trkpt lat="42.494800" lon="8.850177"><ele>591.6</ele></trkpt>
      <trkpt lat="42.494792" lon="8.850238"><ele>591.4</ele></trkpt>
      <trkpt lat="42.494754" lon="8.850306"><ele>592.3</ele></trkpt>
      <trkpt lat="42.494750" lon="8.850340"><ele>592.3</ele></trkpt>
      <trkpt lat="42.494773" lon="8.850367"><ele>591.3</ele></trkpt>
      <trkpt lat="42.494798" lon="8.850395"><ele>590.3</ele></trkpt>
      <trkpt lat="42.494883" lon="8.850295"><ele>587.4</ele></trkpt>
      <trkpt lat="42.494900" lon="8.850297"><ele>586.7</ele></trkpt>
      <trkpt lat="42.494911" lon="8.850325"><ele>586.1</ele></trkpt>
      <trkpt lat="42.494912" lon="8.850385"><ele>585.9</ele></trkpt>
      <trkpt lat="42.494871" lon="8.850520"><ele>587.3</ele></trkpt>
      <trkpt lat="42.494855" lon="8.850612"><ele>588.2</ele></trkpt>
      <trkpt lat="42.494879" lon="8.850698"><ele>587.9</ele></trkpt>
      <trkpt lat="42.494906" lon="8.850738"><ele>587.2</ele></trkpt>
      <trkpt lat="42.494922" lon="8.850739"><ele>586.5</ele></trkpt>
      <trkpt lat="42.494969" lon="8.850631"><ele>583.7</ele></trkpt>
      <trkpt lat="42.495044" lon="8.850537"><ele>580.4</ele></trkpt>
      <trkpt lat="42.495146" lon="8.850431"><ele>576.4</ele></trkpt>
      <trkpt lat="42.495281" lon="8.850346"><ele>571.3</ele></trkpt>
      <trkpt lat="42.495421" lon="8.850216"><ele>566.8</ele></trkpt>
      <trkpt lat="42.495560" lon="8.850141"><ele>561.9</ele></trkpt>
      <trkpt lat="42.495687" lon="8.850072"><ele>557.8</ele></trkpt>
      <trkpt lat="42.495945" lon="8.849966"><ele>550.3</ele></trkpt>
      <trkpt lat="42.496079" lon="8.849873"><ele>547.4</ele></trkpt>
      <trkpt lat="42.496265" lon="8.849703"><ele>544.4</ele></trkpt>
      <trkpt lat="42.496282" lon="8.849927"><ele>540.5</ele></trkpt>
      <trkpt lat="42.496265" lon="8.850081"><ele>538.8</ele></trkpt>
      <trkpt lat="42.496283" lon="8.850249"><ele>536.2</ele></trkpt>
      <trkpt lat="42.496276" lon="8.850572"><ele>533.0</ele></trkpt>
      <trkpt lat="42.496296" lon="8.850772"><ele>531.2</ele></trkpt>
      <trkpt lat="42.496345" lon="8.850987"><ele>529.1</ele></trkpt>
      <trkpt lat="42.496559" lon="8.851427"><ele>524.0</ele></trkpt>
      <trkpt lat="42.496846" lon="8.851818"><ele>519.4</ele></trkpt>
      <trkpt lat="42.497233" lon="8.852100"><ele>515.4</ele></trkpt>
      <trkpt lat="42.497690" lon="8.852128"><ele>510.1</ele></trkpt>
      <trkpt lat="42.497768" lon="8.852194"><ele>510.7</ele></trkpt>
      <trkpt lat="42.497794" lon="8.852226"><ele>511.1</ele></trkpt>
      <trkpt lat="42.497836" lon="8.852231"><ele>510.8</ele></trkpt>
      <trkpt lat="42.497990" lon="8.852315"><ele>511.1</ele></trkpt>
      <trkpt lat="42.498660" lon="8.852671"><ele>508.4</ele></trkpt>
      <trkpt lat="42.498701" lon="8.852674"><ele>507.9</ele></trkpt>
      <trkpt lat="42.498861" lon="8.852688"><ele>505.6</ele></trkpt>
      <trkpt lat="42.498950" lon="8.852701"><ele>504.2</ele></trkpt>
      <trkpt lat="42.499001" lon="8.852652"><ele>502.4</ele></trkpt>
      <trkpt lat="42.499060" lon="8.852590"><ele>500.1</ele></trkpt>
      <trkpt lat="42.499097" lon="8.852626"><ele>499.9</ele></trkpt>
      <trkpt lat="42.499115" lon="8.852704"><ele>500.8</ele></trkpt>
      <trkpt lat="42.499103" lon="8.852785"><ele>502.5</ele></trkpt>
      <trkpt lat="42.499126" lon="8.852823"><ele>502.7</ele></trkpt>
      <trkpt lat="42.499291" lon="8.852916"><ele>500.6</ele></trkpt>
      <trkpt lat="42.499585" lon="8.852839"><ele>491.7</ele></trkpt>
      <trkpt lat="42.499759" lon="8.852715"><ele>483.6</ele></trkpt>
      <trkpt lat="42.500147" lon="8.852761"><ele>472.7</ele></trkpt>
      <trkpt lat="42.500432" lon="8.852908"><ele>466.0</ele></trkpt>
      <trkpt lat="42.500670" lon="8.853084"><ele>461.0</ele></trkpt>
      <trkpt lat="42.501251" lon="8.853397"><ele>439.6</ele></trkpt>
      <trkpt lat="42.501580" lon="8.853728"><ele>429.9</ele></trkpt>
      <trkpt lat="42.501730" lon="8.853892"><ele>426.1</ele></trkpt>
      <trkpt lat="42.501774" lon="8.854101"><ele>428.8</ele></trkpt>
      <trkpt lat="42.501911" lon="8.854230"><ele>424.7</ele></trkpt>
      <trkpt lat="42.502342" lon="8.854896"><ele>420.7</ele></trkpt>
      <trkpt lat="42.502508" lon="8.855087"><ele>418.6</ele></trkpt>
      <trkpt lat="42.502851" lon="8.855427"><ele>414.8</ele></trkpt>
      <trkpt lat="42.502835" lon="8.855556"><ele>416.4</ele></trkpt>
      <trkpt lat="42.502868" lon="8.855585"><ele>416.0</ele></trkpt>
      <trkpt lat="42.502947" lon="8.855598"><ele>414.7</ele></trkpt>
      <trkpt lat="42.503112" lon="8.855977"><ele>411.6</ele></trkpt>
      <trkpt lat="42.503099" lon="8.856538"><ele>406.8</ele></trkpt>
      <trkpt lat="42.503149" lon="8.856705"><ele>403.0</ele></trkpt>
      <trkpt lat="42.503151" lon="8.857164"><ele>395.3</ele></trkpt>
      <trkpt lat="42.503206" lon="8.857319"><ele>391.0</ele></trkpt>
      <trkpt lat="42.503270" lon="8.857390"><ele>387.9</ele></trkpt>
      <trkpt lat="42.503314" lon="8.857617"><ele>383.1</ele></trkpt>
      <trkpt lat="42.503384" lon="8.857614"><ele>381.0</ele></trkpt>
      <trkpt lat="42.503465" lon="8.857731"><ele>377.2</ele></trkpt>
      <trkpt lat="42.503496" lon="8.857858"><ele>375.1</ele></trkpt>
      <trkpt lat="42.503497" lon="8.857885"><ele>374.9</ele></trkpt>
      <trkpt lat="42.503564" lon="8.857849"><ele>373.2</ele></trkpt>
      <trkpt lat="42.503592" lon="8.857897"><ele>372.0</ele></trkpt>
      <trkpt lat="42.503610" lon="8.858028"><ele>370.7</ele></trkpt>
      <trkpt lat="42.503710" lon="8.857967"><ele>368.6</ele></trkpt>
      <trkpt lat="42.503728" lon="8.858100"><ele>367.7</ele></trkpt>
      <trkpt lat="42.503780" lon="8.858015"><ele>366.9</ele></trkpt>
      <trkpt lat="42.503852" lon="8.857988"><ele>365.6</ele></trkpt>
      <trkpt lat="42.503842" lon="8.858098"><ele>365.4</ele></trkpt>
      <trkpt lat="42.503891" lon="8.858074"><ele>364.4</ele></trkpt>
      <trkpt lat="42.503947" lon="8.857911"><ele>364.1</ele></trkpt>
      <trkpt lat="42.504131" lon="8.857789"><ele>360.6</ele></trkpt>
      <trkpt lat="42.504179" lon="8.857614"><ele>359.6</ele></trkpt>
      <trkpt lat="42.504407" lon="8.857486"><ele>352.1</ele></trkpt>
      <trkpt lat="42.504908" lon="8.857225"><ele>331.5</ele></trkpt>
      <trkpt lat="42.505269" lon="8.856853"><ele>317.9</ele></trkpt>
      <trkpt lat="42.505348" lon="8.856750"><ele>315.6</ele></trkpt>
      <trkpt lat="42.505527" lon="8.856520"><ele>305.8</ele></trkpt>
      <trkpt lat="42.505620" lon="8.856421"><ele>297.7</ele></trkpt>
      <trkpt lat="42.505653" lon="8.856392"><ele>296.4</ele></trkpt>
      <trkpt lat="42.505714" lon="8.856312"><ele>296.5</ele></trkpt>
      <trkpt lat="42.505773" lon="8.856161"><ele>297.2</ele></trkpt>
      <trkpt lat="42.505828" lon="8.855930"><ele>296.7</ele></trkpt>
      <trkpt lat="42.505871" lon="8.855783"><ele>296.6</ele></trkpt>
      <trkpt lat="42.505896" lon="8.855767"><ele>296.5</ele></trkpt>
      <trkpt lat="42.505936" lon="8.855722"><ele>296.2</ele></trkpt>
      <trkpt lat="42.506058" lon="8.855621"><ele>295.0</ele></trkpt>
      <trkpt lat="42.506108" lon="8.855509"><ele>293.5</ele></trkpt>
      <trkpt lat="42.506129" lon="8.855446"><ele>292.7</ele></trkpt>
      <trkpt lat="42.506165" lon="8.855339"><ele>291.3</ele></trkpt>
      <trkpt lat="42.506224" lon="8.855252"><ele>290.2</ele></trkpt>
      <trkpt lat="42.506350" lon="8.855133"><ele>288.2</ele></trkpt>
    </trkseg></trk></gpx>